name,address,city,district,latitude,longitude,link,playEquipment,fitnessEquipment,description,imageLinks,source,sourceId
商港公園,新北市八里區商港八路與商港一路口,新北市,八里區,25.150187265899604,121.3981245053272,https://www.ntparks.tw/view-107-01-249.html,鯨魚主題，鯨魚造型溜滑梯(共融式)、鞦韆、搖搖樂、共融式旋轉盤、攀爬設施、翹翹板、潛水夫遊戲板,肩關節康復器、雙人伸腰伸背器、三人扭腰器、上肢牽引器、雙人漫步機,八里商港公園為新北市特色公園，全台第一座鯨魚地景的無障礙公園，結合了體建設施及遊戲場，是個適合闔家遊玩的好去處。,https://www.ntparks.tw/images/views/view-107-01-249/Photo-01.jpg; https://www.ntparks.tw/images/views/view-107-01-249/Photo-02.jpg; https://www.ntparks.tw/images/views/view-107-01-249/Photo-03.jpg; https://www.ntparks.tw/images/views/view-107-01-249/Photo-04.jpg; https://www.ntparks.tw/images/views/view-107-01-249/Photo-05.jpg,新北市共融特色公園,ntpc_park_0_商港公園
水興公公園,新北市八里區觀海大道100號（河濱公園內）,新北市,八里區,25.16251905841147,121.42577585042199,https://www.ntparks.tw/view-107-02-249.html,海盜船主題，座椅型鞦韆、共融式旋轉盤、加油站遊戲板、森林城堡遊戲組,獨木橋、跳樁,綠林城堡冒險趣為主題，遊具相當好玩,https://www.ntparks.tw/images/views/view-107-02-249/Photo-01.jpg; https://www.ntparks.tw/images/views/view-107-02-249/Photo-02.jpg; https://www.ntparks.tw/images/views/view-107-02-249/Photo-03.jpg; https://www.ntparks.tw/images/views/view-107-02-249/Photo-04.jpg; https://www.ntparks.tw/images/views/view-107-02-249/Photo-05.jpg,新北市共融特色公園,ntpc_park_1_水興公公園
左岸公園,新北市八里區觀海大道36號（河濱公園內）,新北市,八里區,25.16077748383412,121.42768525027002,https://www.ntparks.tw/view-107-03-249.html,鳥巢型鞦韆、航海船遊,鞦韆、跳樁,航海傳奇遊戲場利用觀海視覺性佳的特性，營造海洋故事的設計主軸。,https://www.ntparks.tw/images/views/view-107-03-249/Photo-01.jpg; https://www.ntparks.tw/images/views/view-107-03-249/Photo-02.jpg; https://www.ntparks.tw/images/views/view-107-03-249/Photo-03.jpg; https://www.ntparks.tw/images/views/view-107-03-249/Photo-04.jpg; https://www.ntparks.tw/images/views/view-107-03-249/Photo-05.jpg,新北市共融特色公園,ntpc_park_2_左岸公園
新北大都會公園,新北市三重區重新橋至成蘆橋,新北市,三重區,25.055468843584723,121.47855721488244,https://www.ntparks.tw/view-110-24-241.html,滾輪溜滑梯、鋼管管狀溜滑梯、磨石子溜滑梯、PVC管狀溜滑梯、滑草場、滑軌、滑索、搖搖盤、山豬搖搖馬、鞦韆、蹦床、傳聲筒、攀爬網、攀爬塊區、攀爬繩、攀爬籠、攀爬座、遊戲牆板、吊橋、跳樁區、洞洞屋、輪輢鞦韆、沙坑、戲水設施,大轉輪、大小轉輪手腕運動訓練器、手指階梯蛇型環、曲徑手腕訓練器、抬腿訓練器、太極推揉器、臂力訓練器、記憶遊戲、上肢牽引器,"新北大都會公園（New Taipei Metropolitan Park）面積424公頃，位於三重、新莊、五股、蘆洲之二重疏洪道，為防洪兼具休閒遊憩功能之公園。全長7.7公里，場域規劃分別為生態體驗區(五股濕地、微風運河)、都會運動區(遙控賽車場、籃球場、棒壘球場)、親子休閒區(婚紗廣場、共融遊戲場)。
                
                其中之「熊猴森樂園」從辰光橋至中山橋間長度約800公尺寬50公尺，總面積有4公頃的空間，創造出共融、全齡、充滿趣味及具挑戰刺激性的造型遊樂場樂園。由台灣生態動物意象所組成的溜滑梯及100種不同的遊樂設施，以多種國寶級森林動物齊聚於此，以森林派對嘉年華為設計理念，從空中俯瞰是天空、山岳、森林及溪流等不同主題，結合各式遊具及堤坡特色地景，從64快速公路橋上遠看更是一幅大型地景藝術畫作。並顧及身障孩童需求，特別設計輪椅通道，使其在父母輔助下亦能享受無障礙的遊戲之樂；園區內亦設置輪椅專用之盪鞦韆，讓乘坐輪椅的人士，也可享受盪鞦韆的樂趣，另外瀑布滑草場利用既有堤坡高低差，依地形變化規劃設計，舖設人工草皮，以藍色為背景，打造出瀑布的意象，讓民眾可以來到新北大都會公園享受滑草的樂趣。
                
                「海世界水樂園」，設計係延續「熊猴森樂園」台灣特色動物為主題概念，以臺灣周邊海洋生物為主題，打造7大臺灣特色水中生物，如綠蠵龜、萬里蟹、彈塗魚、寄居蟹、澎湖章魚、海月水母、花園鰻等親水設施消暑好玩，同時可認識台灣特色水中生物。還有5種不同體驗玩法，有360度水霧的彩虹隧道、無障礙的益智水桌、親子互動的大型水槍、手動幫浦等。現場更有更衣間及戶外淋浴區，可供民眾簡單沖洗。
                
                「大黃蜂沙坑」打造出巨型黃色蜜蜂地景的沙坑遊戲場，遊戲場內設置不同類型的兒童遊具，包括首次以貨櫃屋的方式創造小型遊玩空間，設有攀爬及溜滑梯遊具，不但新奇有趣，小朋友也可探索其奧妙。另外，蜜蜂的觸角設置兼顧行動不便孩童遊玩的天旋地轉和旋轉座椅共融遊具，在父母陪同輔助下都能享受無障礙的遊戲樂趣。蜜蜂地景沙坑遊戲場也融入共融性遊具概念，整體場區以大黃蜂意象呈現。此外，仔細看也可發現在巨型蜜蜂內藏著許多小蜜蜂，它們停在蜂巢裡的遮陽棚上陪著小寶貝們一起玩耍，保護大家免受到太陽公公的曝曬。值得一提的是，本遊戲場有個貼心的設計，家長也可以坐在沙坑內的三角飯糰墩座座椅休憩，近距離陪伴小朋友玩耍。",https://www.ntparks.tw/images/views/view-110-24-241/Photo-01.jpg; https://www.ntparks.tw/images/views/view-110-24-241/Photo-02.jpg; https://www.ntparks.tw/images/views/view-110-24-241/Photo-03.jpg; https://www.ntparks.tw/images/views/view-110-24-241/Photo-04.jpg; https://www.ntparks.tw/images/views/view-110-24-241/Photo-05.jpg; https://www.ntparks.tw/images/views/view-110-24-241/Photo-06.jpg; https://www.ntparks.tw/images/views/view-110-24-241/Photo-07.jpg; https://www.ntparks.tw/images/views/view-110-24-241/Photo-08.jpg; https://www.ntparks.tw/images/views/view-110-24-241/Photo-09.jpg; https://www.ntparks.tw/images/views/view-110-24-241/Photo-10.jpg; https://www.ntparks.tw/images/views/view-110-24-241/Photo-11.jpg; https://www.ntparks.tw/images/views/view-110-24-241/Photo-12.jpg; https://www.ntparks.tw/images/views/view-110-24-241/Photo-13.jpg; https://www.ntparks.tw/images/views/view-110-24-241/Photo-14.jpg; https://www.ntparks.tw/images/views/view-110-24-241/Photo-15.jpg; https://www.ntparks.tw/images/views/view-110-24-241/Photo-16.jpg; https://www.ntparks.tw/images/views/view-110-24-241/Photo-17.jpg; https://www.ntparks.tw/images/views/view-110-24-241/Photo-18.jpg; https://www.ntparks.tw/images/views/view-110-24-241/Photo-19.jpg; https://www.ntparks.tw/images/views/view-110-24-241/Photo-20.jpg; https://www.ntparks.tw/images/views/view-110-24-241/Photo-21.jpg; https://www.ntparks.tw/images/views/view-110-24-241/Photo-22.jpg,新北市共融特色公園,ntpc_park_3_新北大都會公園
六合公園,新北市三重區自強路二段50巷22號,新北市,三重區,25.06905138395596,121.48573831500704,https://www.ntparks.tw/view-107-06-241.html,樹屋造型滑梯、鳥巢型鞦韆、搖搖樂、旋轉飛輪、共融式旋轉盤、沙坑,三(雙)人轉腰、坐騎機、漫步機,六合公園位於自強路二段五十巷內，建於民國82年9月，六合公園為六合、六福、幸福里三里轄區，里民多、使用量大，故設計單位特針對這一點，設計有木平台、成人健身區、兒童遊戲區、香草區等，可滿足各階層里民的需求，園內更採用潔白的大理石舖面。園內最大特色為到處可見向日葵圖騰，遊具彈性地墊上亦漆有向日葵圖騰，讓小孩有接近大自然的感覺，周邊並設計有三組不同動物造型的搖搖樂、鞦韆、單槓等，更令人貼心的是，於主體遊具外，還配置有健身器材轉腰器、漫步機等，此設計主要是考量看顧小孩的成人需求，成人除了可照顧小孩外，還可運動。公園內各項軟硬體設施，值得您帶全家大小前往休憩。,https://www.ntparks.tw/images/views/view-107-06-241/Photo-01.jpg; https://www.ntparks.tw/images/views/view-107-06-241/Photo-02.jpg; https://www.ntparks.tw/images/views/view-107-06-241/Photo-03.jpg; https://www.ntparks.tw/images/views/view-107-06-241/Photo-04.jpg; https://www.ntparks.tw/images/views/view-107-06-241/Photo-05.jpg,新北市共融特色公園,ntpc_park_4_六合公園
聯邦公園,新北市三重區中華路125號,新北市,三重區,25.064221283958183,121.48196516407101,https://www.ntparks.tw/view-107-08-241.html,鳥巢型鞦韆,坐凳機、漫步機,聯邦公園闢建於民國89年，位於中華路與三民街交叉口，佔地0.77公頃，園內規劃有兒童遊具、體健設施、涼亭、秋千、花架、溜冰場等多項設施，而公園內的仿回教式涼亭是一大特色。,https://www.ntparks.tw/images/views/view-107-08-241/Photo-01.jpg; https://www.ntparks.tw/images/views/view-107-08-241/Photo-02.jpg; https://www.ntparks.tw/images/views/view-107-08-241/Photo-03.jpg; https://www.ntparks.tw/images/views/view-107-08-241/Photo-04.jpg; https://www.ntparks.tw/images/views/view-107-08-241/Photo-05.jpg,新北市共融特色公園,ntpc_park_5_聯邦公園
龍學公園,新北市三峽區學成路及大德路交叉口,新北市,三峽區,24.943724384014754,121.37512401430645,https://www.ntparks.tw/view-107-09-237.html,甲蟲主題造型溜滑梯（組合型設施）、座椅型鞦韆及鳥巢型鞦韆、旋轉杯、旋轉飛輪、沙坑,雙人大轉輪、雙人背肌訓練器,新北市北大特區特色公園「龍學公園」係以甲蟲為主題的遊戲場，遊戲場有特色溜滑梯、親子鞦韆、攀岩、空中繩索橋、大沙坑、極限飛輪、攀岩等遊具，公園裡有許多天然樹蔭，處處是綠意，是都市中環境舒服的特色公園。,https://www.ntparks.tw/images/views/view-107-09-237/Photo-01.jpg; https://www.ntparks.tw/images/views/view-107-09-237/Photo-02.jpg; https://www.ntparks.tw/images/views/view-107-09-237/Photo-03.jpg; https://www.ntparks.tw/images/views/view-107-09-237/Photo-04.jpg; https://www.ntparks.tw/images/views/view-107-09-237/Photo-05.jpg,新北市共融特色公園,ntpc_park_6_龍學公園
鳶山運動公園,新北市三峽區鳶峰路,新北市,三峽區,24.930885927005395,121.35097705079774,https://www.ntparks.tw/view-107-10-237.html,鳥巢型鞦韆、搖搖樂、沙坑,無,鳶山運動公園內有特色共融搖搖樂、鞦韆及沙坑等遊樂設施，親子鞦韆可以讓爸媽或孩子一起遊玩，滿足親子的需求！旁公園籃球場及網球場長久以來是三峽居民重要的運動活動場地，亦是三峽球友切磋球技最熱門的場所。,https://www.ntparks.tw/images/views/view-107-10-237/Photo-01.jpg; https://www.ntparks.tw/images/views/view-107-10-237/Photo-02.jpg; https://www.ntparks.tw/images/views/view-107-10-237/Photo-03.jpg,新北市共融特色公園,ntpc_park_7_鳶山運動公園
三鶯棒壘球場運動公園,新北市三峽區三鶯路（近三鶯壘球場）,新北市,三峽區,24.93953898606672,121.35531727536427,https://www.ntparks.tw/view-107-11-237.html,滑索（雙軌）,無,三鶯棒壘球運動公園遊戲場範圍不大，設有二座泰山滑軌遊具，喜愛刺激的小朋友來回可以玩上好多趟。這裡的泰山滑軌分站式與坐式二種，坐式還有安全扣環，對小小孩來說既能體驗滑軌的刺激，安全性也較高。大一點的小朋友則適合站式滑軌，自己跳上去擺盪至對岸，滑軌距離不短，玩起來很過癮。,https://www.ntparks.tw/images/views/view-107-11-237/Photo-01.jpg; https://www.ntparks.tw/images/views/view-107-11-237/Photo-02.jpg; https://www.ntparks.tw/images/views/view-107-11-237/Photo-03.jpg,新北市共融特色公園,ntpc_park_8_三鶯棒壘球場運動公園
青山公園,新北市土城區明德路一段195巷底,新北市,土城區,24.978320483998534,121.4619447143072,https://www.ntparks.tw/view-107-12-236.html,鳥巢鞦韆、親子鞦韆、爬架組合遊具,雙人漫步機、三人扭腰器、雙人健騎機、高低桿,公園部分土地原為私人所有，經容積移轉及部分徵收於105年3月完成第一期工程，其後陸續有建商辦理容積移轉，故於107年辦理第二期工程，並於108年1月完成。,https://www.ntparks.tw/images/views/view-107-12-236/Photo-01.jpg; https://www.ntparks.tw/images/views/view-107-12-236/Photo-02.jpg; https://www.ntparks.tw/images/views/view-107-12-236/Photo-03.jpg; https://www.ntparks.tw/images/views/view-107-12-236/Photo-04.jpg,新北市共融特色公園,ntpc_park_9_青山公園
頂新公園,新北市土城區頂埔國小後方,新北市,土城區,24.953907784009882,121.41227481430664,https://www.ntparks.tw/view-107-13-236.html,平衡板、雙人溜滑梯、造型沙坑,雙人漫步機、三人扭腰器、雙人腹肌板、雙人浪板、三人上肢牽引器、雙人滑雪器 、高低桿,公園原為榮民眷村「信義新村」，後因眷村改建規劃公園，106年將原老舊遊戲區改善，加入較傳統的磨石子、砂坑及跳樁等特色遊戲設施。,https://www.ntparks.tw/images/views/view-107-13-236/Photo-01.jpg; https://www.ntparks.tw/images/views/view-107-13-236/Photo-02.jpg; https://www.ntparks.tw/images/views/view-107-13-236/Photo-03.jpg; https://www.ntparks.tw/images/views/view-107-13-236/Photo-04.jpg,新北市共融特色公園,ntpc_park_10_頂新公園
延和社區公園,新北市土城區延和路180號旁,新北市,土城區,24.98978923399304,121.46660126430743,https://www.ntparks.tw/view-107-14-236.html,梅花樁、圓木跳樁、平衡木、X型四人蹺蹺板、多人搖搖樂、組合遊戲組,三人扭腰器、腰背按摩器、雙人漫步器、雙人健身腹肌板、雙人坐蹬器、三人上肢牽引器、單人騎馬器、高低單槓、左右搖擺器,新北市土城區延和社區公園於民國98年啟用至今已10餘年，公園多處老舊設施急待修繕，公園通道、鋪面等服務設施已不符現代相關需求，尤其周邊鄰里社區林立，附近居民日益增加，民眾素也逐漸增高，惟老舊的公園設施，公設服務品質日益低落，空間內容通道品質已不符現代規範需求，因此為提昇市民生活品質，改善公園內相關空間、通道及設施，提供更安全、舒適、便利及通用之休閒、娛樂、親子及健身之居民休憩活動場所。,https://www.ntparks.tw/images/views/view-107-14-236/Photo-01-112.jpg; https://www.ntparks.tw/images/views/view-107-14-236/Photo-02-112.jpg; https://www.ntparks.tw/images/views/view-107-14-236/Photo-03-112.jpg; https://www.ntparks.tw/images/views/view-107-14-236/Photo-04-112.jpg,新北市共融特色公園,ntpc_park_11_延和社區公園
海山捷運站廣場,新北市土城區樂利街16號,新北市,土城區,24.984238549727618,121.45139345886973,https://www.ntparks.tw/view-107-15-236.html,旋轉儀,雙人坐推器、雙人腹肌板、腰背按摩器,廣場為捷運土城線闢建時由地方民意代表及周邊里民爭取之活動廣場，平時出入及休憩運動民眾非常多，加上廣場範圍較大，可舉辦1000人以下活動，屬土城區重要之活動場所。,https://www.ntparks.tw/images/views/view-107-15-236/Photo-01.jpg; https://www.ntparks.tw/images/views/view-107-15-236/Photo-02.jpg; https://www.ntparks.tw/images/views/view-107-15-236/Photo-03.jpg; https://www.ntparks.tw/images/views/view-107-15-236/Photo-04.jpg,新北市共融特色公園,ntpc_park_12_海山捷運站廣場
立雲廣場,新北市土城區清水路235巷,新北市,土城區,24.983188203168524,121.4596840709494,https://www.ntparks.tw/view-107-16-236.html,攀爬設施,雙人漫步機、三人扭腰器、雙人腹肌板、雙人坐推器,立雲廣場為法務部矯正署新北看守所土地，由本所開闢及維護管理供周邊民眾休憩使用。,https://www.ntparks.tw/images/views/view-107-16-236/Photo-01.jpg; https://www.ntparks.tw/images/views/view-107-16-236/Photo-02.jpg; https://www.ntparks.tw/images/views/view-107-16-236/Photo-03.jpg; https://www.ntparks.tw/images/views/view-107-16-236/Photo-04.jpg,新北市共融特色公園,ntpc_park_13_立雲廣場
裕民廣場,新北市土城區裕民路171巷4號,新北市,土城區,24.984778983995486,121.45096631506425,https://www.ntparks.tw/view-107-17-236.html,旋轉飛輪,雙人肩關節康復器、三人扭腰器、雙人大轉輪、腰背按摩器、三人上肢牽引器,本廣場位於市中心區域，周邊多集合式住宅，加上鄰近海山捷運站，為土城人口最密集區域之一。,https://www.ntparks.tw/images/views/view-107-17-236/Photo-01.jpg; https://www.ntparks.tw/images/views/view-107-17-236/Photo-02.jpg; https://www.ntparks.tw/images/views/view-107-17-236/Photo-03.jpg; https://www.ntparks.tw/images/views/view-107-17-236/Photo-04.jpg; https://www.ntparks.tw/images/views/view-107-17-236/Photo-05.jpg,新北市共融特色公園,ntpc_park_14_裕民廣場
錦和運動公園,新北市中和區錦和路350號,新北市,中和區,24.992900083991522,121.48650521506424,https://www.ntparks.tw/view-107-18-235.html,特色溜滑梯及滾輪式、座椅型鞦韆、共融式旋轉盤、攀爬設施、彈跳床、擺動長繩、黃金豎琴 、造型沙坑,三合一健身設施,"中和錦和運動公園運動設施齊全，也是2017年世大運的足球練習場，球場旁邊並設有環型PU跑道，是當地居民熱門的運動健走場地,錦和公園位在中和錦和路、中正路口，有空間寬敞的運動場，旁邊還有中和國民運動中心，許多民眾常在這裡使用完善的運動設施。考量人潮眾多，附近民眾使用健身需求高，為讓民眾能有更輕鬆、舒適的健身環境，除了加強園區整理並改善環山步道及造型擋土牆，也修復枕木步道和欄杆、清理溝渠及加裝涵管等工程，讓園區周邊環境更安全美觀，中和錦和運動公園是新北市中和區最大的綜合運動園區，園區內足球場、籃球場、壘球場、網球場、兒童遊樂區、噴泉、廣場、登山步道設備完善，近年已成為中和區重要大型節慶活動場地。中和區公所修繕周遭設施，109年更完成全齡化體健設施，讓市民健身環境更舒適，是老少咸宜的好去處。",https://www.ntparks.tw/images/views/view-107-18-235/Photo-01.jpg; https://www.ntparks.tw/images/views/view-107-18-235/Photo-02.jpg; https://www.ntparks.tw/images/views/view-107-18-235/Photo-03.jpg; https://www.ntparks.tw/images/views/view-107-18-235/Photo-04.jpg; https://www.ntparks.tw/images/views/view-107-18-235/Photo-05.jpg; https://www.ntparks.tw/images/views/view-107-18-235/Photo-06.jpg; https://www.ntparks.tw/images/views/view-107-18-235/Photo-07.jpg,新北市共融特色公園,ntpc_park_1000_錦和運動公園
員山公園,新北市中和區員山路455巷,新北市,中和區,25.004131983986316,121.47789331506453,https://www.ntparks.tw/view-107-19-235.html,尿布型鞦韆及鳥巢型鞦韆、共融式旋轉盤、攀爬設施、造型沙坑、滑索道、滑草坡、沙坑挖土機、超長滑梯,雙（單）漫步機、雙人肩關節康復器、雙人坐推（拉）器、伸腰伸背器、划船器,新北市中和區的員山公園位於員山路455巷內，近三公頃的大公園有依著地形而建設置共融式遊具，像是隧道式及坡道攀爬網與攀岩石並鋪著彩色的PU地板，以訓練孩子手腳協調；除了一般的盪鞦韆還有鳥巢式、尿布式，讓同年紀的小朋友都能享受盪高高的刺激；超大沙坑，附有藤蔓造型的洗手腳池，盥洗方便；最大亮點是彩色親子溜滑梯，一旁的滑草道也很刺激，別忘記帶滑草板來親子同遊。,https://www.ntparks.tw/images/views/view-107-19-235/Photo-01.jpg; https://www.ntparks.tw/images/views/view-107-19-235/Photo-02.jpg; https://www.ntparks.tw/images/views/view-107-19-235/Photo-03.jpg; https://www.ntparks.tw/images/views/view-107-19-235/Photo-04.jpg; https://www.ntparks.tw/images/views/view-107-19-235/Photo-05.jpg,新北市共融特色公園,ntpc_park_1001_員山公園
秀朗橋兒童超跑公園,新北市中和秀朗追風區停車場周邊,新北市,中和區,24.98946660096522,121.50233611715586,https://www.ntparks.tw/view-107-20-235.html,兒童超跑（兒童電動車）練習場、賽車跑道、彎道跑道、S型彎道之地面彩繪,無,新北市政府於中和區秀朗橋旁河濱公園內設置全國第一座兒童超跑(兒童電動車)練習場，場地規劃為二大主題區，其中賽車場區仿造真實的賽車跑道，設有起跑區及彎道跑道，可體驗真實賽車的樂趣；另外汽車練習場區則模仿現有汽車駕照路考場的考試項目，設有倒車入庫、路邊停車及S型彎道等地面彩繪，父母可於一旁指導，讓孩童提早體驗考照，達到親子互動的樂趣。,https://www.ntparks.tw/images/views/view-107-20-235/Photo-01.jpg; https://www.ntparks.tw/images/views/view-107-20-235/Photo-02.jpg; https://www.ntparks.tw/images/views/view-107-20-235/Photo-03.jpg; https://www.ntparks.tw/images/views/view-107-20-235/Photo-04.jpg,新北市共融特色公園,ntpc_park_1002_秀朗橋兒童超跑公園
佳和公園,新北市中和區中山路二段64巷9號,新北市,中和區,25.004827068474288,121.50212175319584,https://www.ntparks.tw/view-113-01-235.html,海浪攀爬網、金字塔攀爬溜滑梯,三人單槓、雙人浪板機、雙人大轉輪、伸腰伸背機、多功能體健組、雙人漫步機、三人轉腰機,佳和公園前身為自強游泳池，105年停業後，市府為活化現有公有資產，拆除既有建物後規劃簡易步道及綠化植栽，在基地西隅設置遊憩設施，107年佳和公園開放使用，市府向中央爭取預算興建多目標綜合大樓，提供多元場所，解決地方停車不足問題，也設置幼兒園、托幼中心及健身中心，解決學齡前幼兒教育、托育及市民運動需求，去年陸續完工啟用，今則完成公園最後一塊版圖，將原有莊敬停車場翻轉為綠地空間，落實老中青三代共享。,https://www.ntparks.tw/images/views/view-113-01-235/Photo-01.jpg; https://www.ntparks.tw/images/views/view-113-01-235/Photo-02.jpg; https://www.ntparks.tw/images/views/view-113-01-235/Photo-03.jpg; https://www.ntparks.tw/images/views/view-113-01-235/Photo-04.jpg; https://www.ntparks.tw/images/views/view-113-01-235/Photo-05.jpg; https://www.ntparks.tw/images/views/view-113-01-235/Photo-06.jpg; https://www.ntparks.tw/images/views/view-113-01-235/Photo-07.jpg; https://www.ntparks.tw/images/views/view-113-01-235/Photo-08.jpg; https://www.ntparks.tw/images/views/view-113-01-235/Photo-09.jpg; https://www.ntparks.tw/images/views/view-113-01-235/Photo-10.jpg,新北市共融特色公園,ntpc_park_1003_佳和公園
中和公園(四號公園),新北市中和區和中安街、永貞路、安樂路及安平路所圍,新北市,中和區,25.00095123962046,121.51024842592521,https://www.ntparks.tw/view-107-22-235.html,座椅型鞦韆及鳥巢型鞦韆、攀爬設施、書本造型溜滑梯（共融式）、造型沙坑、哈哈鏡、鉛筆造型沖洗區、小型攀岩牆、搖搖馬、蹺蹺板、組合遊具、樹屋溜滑梯、盪鞦韆、旋轉搖搖棒,壓腿器、雙人腹肌版、三人扭腰器、健康腳踏板、太空漫步機、單人滑雪器、單人健騎機、雙人大轉輪、雙人上肢牽引器、雙人伸腰伸背器、太極揉推器,"中和公園(四號公園)是中永和中最大也最具代表性的公園，它的面積廣大，約11公頃。園內還設有國立台灣圖書館。多元的元素還包含了籃球場、溜冰場、遛狗區、涼亭、假山水造景、清水池、823廣場，提供市民非常完善的需求。而在周邊部份，公園的週圍又有兩家自行車店，及好幾家的便利商店，還有一些餐廳，機能良好，公園易達性高，是個相當方便的休憩之地。 
            &nbsp;雙和區首座共融性遊戲場新型態的共融遊戲場，以多元、探索、安全性及共融性等設計為目標，打造2座以「書本」為造型的大型磨石子溜滑梯，以及配合沙坑設計的「鉛筆」造型洗腳池，除了一般鞦韆外，還有鳥巢鞦韆、座椅式鞦韆等，與公園內的圖書館相呼應，成為中和公園專屬的書卷遊戲場。
            &nbsp;另外靠近安平派出所的特色遊戲場，打造以森林樹屋、小木屋為主題亮點，不僅有刺激超高6公尺旋轉溜滑梯，也有兼顧小小孩的小型滑梯。各式難度的攀爬網，滿足各年齡的孩童，遊具搭配自然卵礫石地坪及水生動植物圖案為造型的彩色無縫地墊，提供安全無虞的遊戲環境。",https://www.ntparks.tw/images/views/view-107-22-235/Photo-01.jpg; https://www.ntparks.tw/images/views/view-107-22-235/Photo-02.jpg; https://www.ntparks.tw/images/views/view-107-22-235/Photo-04.jpg; https://www.ntparks.tw/images/views/view-107-22-235/Photo-05.jpg; https://www.ntparks.tw/images/views/view-107-22-235/Photo-06.jpg; https://www.ntparks.tw/images/views/view-107-22-235/Photo-07.jpg,新北市共融特色公園,ntpc_park_1004_中和公園(四號公園)
成功運動公園,新北市五股區西雲路100巷,新北市,五股區,25.09368743394436,121.44340686506621,https://www.ntparks.tw/view-107-23-248.html,擺盪設施（遊具組）,肩關節康復器、雙人大轉輪 、腰背按摩器、伸腰伸背器、雙人腹肌板、雙人坐推器、三人轉腰器、雙人浪板 、雙人滑雪器、單槓,公園位於西雲路110巷內，原為一塊閒置空地，經新北市政府新建工程處改造下，現已變成鄰里街坊、大小朋友休憩、散步的活動熱點，公園內除有小朋友喜愛的遊樂設施外，還有讓銀髮族活動筋骨、樂活健身的體健器材；另外，公園內栽種大花紫薇及大鄧伯花等植物，每當夏季來臨時，園內開滿紫色的花，帶給民眾紫色浪漫的視覺饗宴。,https://www.ntparks.tw/images/views/view-107-23-248/Photo-01.jpg; https://www.ntparks.tw/images/views/view-107-23-248/Photo-02.jpg; https://www.ntparks.tw/images/views/view-107-23-248/Photo-03.jpg; https://www.ntparks.tw/images/views/view-107-23-248/Photo-04.jpg,新北市共融特色公園,ntpc_park_1005_成功運動公園
白雲公園,新北市汐止區福山街62巷底,新北市,汐止區,25.046606583966515,121.61554381506546,https://www.ntparks.tw/view-107-24-221.html,座椅型鞦韆及鳥巢型鞦韆、旋轉杯、翹翹板、平衡橋、造型滑梯、沙坑、攀爬設施,漫步機、三人扭腰器、攀爬網、單槓,在中研院旁，汐止與南港交界處的白雲公園改建完成，擁有九個溜滑梯滑道，全台唯一六人環形盪鞦韆，整個遊戲場有溜滑梯區，鞦韆區、草坪區、體健區、沙坑區等，給孩子最豐富的遊樂設施，玩沙沖水設施、親子設施也有規劃完善。,https://www.ntparks.tw/images/views/view-107-24-221/Photo-01.jpg; https://www.ntparks.tw/images/views/view-107-24-221/Photo-02.jpg; https://www.ntparks.tw/images/views/view-107-24-221/Photo-03.jpg; https://www.ntparks.tw/images/views/view-107-24-221/Photo-04.jpg; https://www.ntparks.tw/images/views/view-107-24-221/Photo-05.jpg,新北市共融特色公園,ntpc_park_1006_白雲公園
星座公園,新北市汐止區星光橋北側河濱公園內,新北市,汐止區,25.07885398395144,121.66391731506593,https://www.ntparks.tw/view-107-25-221.html,沙坑、七彩隧道、攀爬設施、組合型遊具,滑步機、大輪轉,位在基隆河右岸，設施有星座寶寶、沙坑、七彩隧道、星座地景、兒童遊具、戲水噴泉，另外有抽水站展覽館，跨越基隆河的星光橋，及高大的星光塔。,https://www.ntparks.tw/images/views/view-107-25-221/Photo-01.jpg; https://www.ntparks.tw/images/views/view-107-25-221/Photo-02.jpg; https://www.ntparks.tw/images/views/view-107-25-221/Photo-03.jpg; https://www.ntparks.tw/images/views/view-107-25-221/Photo-04.jpg; https://www.ntparks.tw/images/views/view-107-25-221/Photo-05.jpg,新北市共融特色公園,ntpc_park_1007_星座公園
康福公園,新北市汐止區福德一路86巷,新北市,汐止區,25.068576783956203,121.63516921506572,https://www.ntparks.tw/view-107-26-221.html,鳥巢型鞦韆、旋轉杯、旋轉飛輪、攀爬設施、造型滑梯,三人扭腰器、攀爬網、漫步機、大輪轉,公園內喬木林立，綠意盎然，設有共融式的兒童遊戲區、體健設施及休閒步道。及YouBike，可與周邊「原興廣場」場站串連。,https://www.ntparks.tw/images/views/view-107-26-221/Photo-01.jpg; https://www.ntparks.tw/images/views/view-107-26-221/Photo-02.jpg; https://www.ntparks.tw/images/views/view-107-26-221/Photo-03.jpg; https://www.ntparks.tw/images/views/view-107-26-221/Photo-04.jpg; https://www.ntparks.tw/images/views/view-107-26-221/Photo-05.jpg,新北市共融特色公園,ntpc_park_1008_康福公園
石雕公園,新北市板橋區吳鳳路50巷（農村公園旁）,新北市,板橋區,25.030228783974113,121.46724911506506,https://www.ntparks.tw/view-107-27-220.html,鳥巢型鞦韆、一般鞦韆、溜冰場、沙坑,扭腰器、漫步機、腰背按摩器、滑雪器、上肢牽引器、肩關節康復器、雙人腹腰訓練器、腿部拉筋器、單槓,鄰近捷運板南線江子翠站，園內有中國亭廊造景、十二生肖石雕、健康步道、兒童遊戲區等，種植許多花卉樹木，綠意盎然，是附近居民休閒運動的好去處。,https://www.ntparks.tw/images/views/view-107-27-220/Photo-01.jpg; https://www.ntparks.tw/images/views/view-107-27-220/Photo-02.jpg; https://www.ntparks.tw/images/views/view-107-27-220/Photo-03.jpg; https://www.ntparks.tw/images/views/view-107-27-220/Photo-04.jpg,新北市共融特色公園,ntpc_park_1009_石雕公園
四維公園,新北市板橋區陽明街166號（新埔國小旁）,新北市,板橋區,25.02546658397631,121.46062431506493,https://www.ntparks.tw/view-107-28-220.html,巨獸主題造型溜滑梯（組合型設施）、沙坑,太空漫步機、雙人腹肌板、腰背按摩器、伸腰伸背器、雙人大轉輪、拉筋板、雙人漫步機、雙人上肢牽引器、雙人轉腰器、單槓,板橋四維公園遊戲場包含空中繩索隧道、超大沙坑、綠丘攀岩溜滑梯等三大共融遊具點亮都市角落，挑戰孩子全新探索感官，特別的是板橋四維公園遊戲場有綠樹遮蔭，還有木屑鋪面，營造天然氛圍並美化公園。巨獸區結合攀爬鑽籠與大型特色溜滑梯，烏龜造型溜滑梯沒有樓梯，採用綠色人工草皮鋪成土丘，沙坑裡還有沙桌，適合身障孩子使用。周邊還有新北市立圖書館四維分館及U-bike租借站，是市民休閒的好去處。,https://www.ntparks.tw/images/views/view-107-28-220/Photo-01.jpg; https://www.ntparks.tw/images/views/view-107-28-220/Photo-02.jpg; https://www.ntparks.tw/images/views/view-107-28-220/Photo-03.jpg; https://www.ntparks.tw/images/views/view-107-28-220/Photo-04.jpg,新北市共融特色公園,ntpc_park_1010_四維公園
溪北公園,新北市板橋區篤行路二段133號（沙崙國小對面）,新北市,板橋區,24.989232983993354,121.42902731506422,https://www.ntparks.tw/view-107-29-220.html,鳥巢型鞦韆、章魚造型溜滑梯（共融式）、造型沙坑、造型攀爬設施,漫步機、扭腰器、牽引器、壓腿器、伸腰伸背器、雙人大轉輪等,溪北公園打造出大型Q版章魚造型的磨石子共融性滑梯遊戲場，充滿設計感的造型磨石子滑梯將章魚各隻腳設計成不同用途適合兒童遊玩的休閒娛樂設施，並加入共融沙坑、闔家擺盪等三大主題分區，以多元、挑戰、創造、探索、安全等理念，提供親子共融、不同障別兒童互動等休閒空間，讓擁有豐富的自然生態環境的溪北公園，更增添樂趣與話題性。,https://www.ntparks.tw/images/views/view-107-29-220/Photo-01.jpg; https://www.ntparks.tw/images/views/view-107-29-220/Photo-02.jpg; https://www.ntparks.tw/images/views/view-107-29-220/Photo-03.jpg; https://www.ntparks.tw/images/views/view-107-29-220/Photo-04.jpg,新北市共融特色公園,ntpc_park_1011_溪北公園
富貴綠地公園,新北市板橋區長壽街與光環路口,新北市,板橋區,25.017784795994988,121.48125815809506,https://www.ntparks.tw/view-107-30-220.html,造型溜滑梯,雙人浪板、肩關節康復器、腰背按摩器等,富貴綠地是新北市政府「點亮美樂地」專案計畫中的第29座特色公園，2017年底正式啟用，這裡有小小兵溜滑梯、攀爬網、搖搖馬、休憩的座椅、體健設施等，全區以無障礙坡道串連，提供附近居民的休憩空間。,https://www.ntparks.tw/images/views/view-107-30-220/Photo-01.jpg; https://www.ntparks.tw/images/views/view-107-30-220/Photo-02.jpg; https://www.ntparks.tw/images/views/view-107-30-220/Photo-03.jpg; https://www.ntparks.tw/images/views/view-107-30-220/Photo-04.jpg,新北市共融特色公園,ntpc_park_1012_富貴綠地公園
玫瑰公園,新北市板橋區綠堤街（市立聯合醫院板橋院區旁）,新北市,板橋區,25.02435418397683,121.45289211506484,https://www.ntparks.tw/view-107-31-220.html,鳥巢型鞦韆、大象造型溜滑梯、沙坑、尿布型鞦韆、土堤式滑梯,雙人太空漫步機、腰背按摩器、雙人大轉輪、雙人漫步機、雙人上肢牽引器、雙人扭腰器、單槓、圓形攀爬網、肩關節康復器等,板橋玫瑰公園擁有豐富的自然生態與都市少見的林蔭步道，捨棄同質性罐頭遊具設施的觀念，轉而打造各年齡都能玩的大象滑梯並重塑公園綠美化景觀，公園內包含生態、親子與友善環境三大主題，讓民眾都能享受生態與休憩的樂趣。另外還鄰近板橋國民運動中心。園區內新建完成特色共榮遊具，不論是想散步、運動或休閒，都可以來到玫瑰公園走走。,https://www.ntparks.tw/images/views/view-107-31-220/Photo-01.jpg; https://www.ntparks.tw/images/views/view-107-31-220/Photo-02.jpg; https://www.ntparks.tw/images/views/view-107-31-220/Photo-03.jpg; https://www.ntparks.tw/images/views/view-107-31-220/Photo-04.jpg; https://www.ntparks.tw/images/views/view-107-31-220/Photo-05.jpg; https://www.ntparks.tw/images/views/view-107-31-220/Photo-06.jpg; https://www.ntparks.tw/images/views/view-107-31-220/Photo-07.jpg,新北市共融特色公園,ntpc_park_1013_玫瑰公園
樂活公園,新北市林口區文化一路一段20號（崇林國中）旁,新北市,林口區,25.066744283957032,121.3715726650658,https://www.ntparks.tw/view-107-32-244.html,座椅型鞦韆及鳥巢型鞦韆、平衡板、彈跳床、漂流轉轉、船擺盪、傳聲筒、捷運造型溜滑梯、攀爬設施、特色遊戲板、Monkey Bar,雙人漫步機、雙人上肢牽引器、三人轉腰器、伸腰伸背器、太極揉推器、高低單槓、綜合體能設施各1,樂活公園位林口區國道1號高速公路旁，緊鄰林口交流道緩衝綠帶，公園設計以步道兼自行車道為主軸，強化線型綠化並保留現地原生植物，增加生物多樣性並提供如鳥類等棲地。公園亦增設彈跳床、大型爬網及塑木滑梯等特色遊具，宣揚公園內生態與遊樂並存，供全齡及不同使用者活動。,https://www.ntparks.tw/images/views/view-107-32-244/Photo-01.jpg; https://www.ntparks.tw/images/views/view-107-32-244/Photo-02.jpg; https://www.ntparks.tw/images/views/view-107-32-244/Photo-03.jpg; https://www.ntparks.tw/images/views/view-107-32-244/Photo-04.jpg; https://www.ntparks.tw/images/views/view-107-32-244/Photo-05.jpg,新北市共融特色公園,ntpc_park_1014_樂活公園
小熊公園,新北市林口區文化一路一段223號,新北市,林口區,25.074330083953452,121.37198681506584,https://www.ntparks.tw/view-107-33-244.html,小熊主題共融式溜滑梯、座椅型鞦韆及一般鞦韆、共融式旋轉盤、攀爬設施、平衡木、特色遊戲板、造型沙坑,無,小熊公園座落於林口區運動公園與原林口圖書館舊址旁，是1座全共融的特色遊戲場，設置受小朋友喜愛的磨石滑梯、沙坑、鞦韆、大型攀爬架、跳樁、攀岩塊及特色旋轉盤等。採用人工草皮、沙子、樹皮及木屑鋪設作為場域環境，也有設置廁所供活動民眾使用。,https://www.ntparks.tw/images/views/view-107-33-244/Photo-01.jpg; https://www.ntparks.tw/images/views/view-107-33-244/Photo-02.jpg; https://www.ntparks.tw/images/views/view-107-33-244/Photo-03.jpg; https://www.ntparks.tw/images/views/view-107-33-244/Photo-04.jpg; https://www.ntparks.tw/images/views/view-107-33-244/Photo-05.jpg; https://www.ntparks.tw/images/views/view-107-33-244/Photo-06.jpg; https://www.ntparks.tw/images/views/view-107-33-244/Photo-07.jpg,新北市共融特色公園,ntpc_park_2000_小熊公園
東湖公園,新北市林口區東湖路75巷36號旁（東湖路75巷與東湖一街口）,新北市,林口區,25.072444583954436,121.382673115066,https://www.ntparks.tw/view-107-34-244.html,彩色溜滑梯、上肢旋轉遊具,雙人大輪轉、雙人漫步機、三人轉腰器,東湖公園位於林口區東湖路75巷，設有紅、藍、黃磨石子滑梯，並有上肢體旋轉飛行遊戲設施。公園除了遊戲設施外，還有設置雨水滲入設施，透過幫浦打水，將水引入觀察箱，了解雨水是如何層層的滲入地表中，是座寓教娛樂的公園。,https://www.ntparks.tw/images/views/view-107-34-244/Photo-01.jpg; https://www.ntparks.tw/images/views/view-107-34-244/Photo-02.jpg; https://www.ntparks.tw/images/views/view-107-34-244/Photo-03.jpg; https://www.ntparks.tw/images/views/view-107-34-244/Photo-04.jpg; https://www.ntparks.tw/images/views/view-107-34-244/Photo-05.jpg,新北市共融特色公園,ntpc_park_2001_東湖公園
一品公園,,新北市,林口區,25.08388588394908,121.38063961506597,https://www.ntparks.tw/view-107-35-244.html,座椅型鞦韆、搖搖樂、旋轉杯、共融式轉盤、溜索,無,一品公園位於林口區民享路上，遊戲場以猴子為主題，公園內除了設有鞦韆、旋轉盤、搖搖馬、不銹鋼滑梯、具攀爬功能的組合遊具、1座低矮的塑膠遊具，還有林口第1座滑索喔。,https://www.ntparks.tw/images/views/view-107-35-244/Photo-01.jpg; https://www.ntparks.tw/images/views/view-107-35-244/Photo-02.jpg; https://www.ntparks.tw/images/views/view-107-35-244/Photo-03.jpg; https://www.ntparks.tw/images/views/view-107-35-244/Photo-04.jpg; https://www.ntparks.tw/images/views/view-107-35-244/Photo-05.jpg,新北市共融特色公園,ntpc_park_2002_一品公園
翰林公園,新北市林口區民權路101號（頭湖國小）旁,新北市,林口區,25.08153108395017,121.370127415066,https://www.ntparks.tw/view-107-36-244.html,水畫牆、平衡和攀爬的組合遊具,三人轉腰器、雙人肩關節康復器、雙人漫步機,翰林公園位於林口區民權路上，公園入口新設了河馬的水畫牆，民眾可攜帶沾水畫具，在現場自由創作水畫。本公園位於頭湖國小旁，考量學齡後的孩子使用機率偏高，原組合遊具只保留一道矮滑梯，旁邊新增1組平衡和攀爬的組合遊具。,https://www.ntparks.tw/images/views/view-107-36-244/Photo-01.jpg; https://www.ntparks.tw/images/views/view-107-36-244/Photo-02.jpg; https://www.ntparks.tw/images/views/view-107-36-244/Photo-03.jpg; https://www.ntparks.tw/images/views/view-107-36-244/Photo-04.jpg; https://www.ntparks.tw/images/views/view-107-36-244/Photo-05.jpg,新北市共融特色公園,ntpc_park_2003_翰林公園
井泉公園,新北市林口區南勢二街72號對面,新北市,林口區,25.07007938395544,121.3537739150658,https://www.ntparks.tw/view-107-37-244.html,平衡板、造型攀爬設施,三人轉腰器、高低單槓、雙人漫步機,井泉公園位於林口區南勢二街上，兼具滯洪池功能，池底為溜冰場，一側土堤斜坡新設寬滑道磨石子滑梯，可親子或多人共玩。遊戲區遊具在安全及孩童使用等考量下，選擇改善為攀爬架並新增小組的塑膠滑梯，讓小小孩來公園也能一齊同樂。,https://www.ntparks.tw/images/views/view-107-37-244/Photo-01.jpg; https://www.ntparks.tw/images/views/view-107-37-244/Photo-02.jpg; https://www.ntparks.tw/images/views/view-107-37-244/Photo-03.jpg; https://www.ntparks.tw/images/views/view-107-37-244/Photo-04.jpg; https://www.ntparks.tw/images/views/view-107-37-244/Photo-05.jpg,新北市共融特色公園,ntpc_park_2004_井泉公園
樹林口公園,新北市林口區中山路與中原路口,新北市,林口區,25.078060033951704,121.39094486506593,https://www.ntparks.tw/view-107-38-244.html,造型滑梯、上肢旋轉遊具,雙人漫步機、三人上肢牽引器、三人轉腰器、腰背按摩器,樹林口公園座落林口區中原街與中山路交叉路口， 園內設有兒童遊具區與體健設施區，特別規劃景觀溜滑梯，採自然弧線造型的滑梯供親子同樂，並設有步道供民眾健走，以及休閒廣場、弧型花架2座、休閒椅，方便民眾休憩使用。,https://www.ntparks.tw/images/views/view-107-38-244/Photo-01.jpg; https://www.ntparks.tw/images/views/view-107-38-244/Photo-02.jpg; https://www.ntparks.tw/images/views/view-107-38-244/Photo-03.jpg; https://www.ntparks.tw/images/views/view-107-38-244/Photo-04.jpg,新北市共融特色公園,ntpc_park_2005_樹林口公園
興林口公園,新北市林口區興林一街109巷（高地仰哲社區對面）,新北市,林口區,25.076795383952277,121.38728561506585,https://www.ntparks.tw/view-107-39-244.html,鳥巢型鞦韆、攀爬設施、長頸鹿造型溜滑梯、造型沙坑,雙人大輪轉、雙人衝浪板、三人轉腰器，雙人漫步機2組,興林口公園位於林口區仁愛路1段378號旁，剛好坐落於林口區公所旁，以長頸鹿為主題，裡面設有長頸鹿造型磨石滑梯、鳥巢式鞦韆、攀岩塊、攀岩繩及沙坑等兒童遊具，以及不同樣式的體健設施，供不同年齡及使用群族共同遊樂。,https://www.ntparks.tw/images/views/view-107-39-244/Photo-01.jpg; https://www.ntparks.tw/images/views/view-107-39-244/Photo-02.jpg; https://www.ntparks.tw/images/views/view-107-39-244/Photo-03.jpg; https://www.ntparks.tw/images/views/view-107-39-244/Photo-04.jpg; https://www.ntparks.tw/images/views/view-107-39-244/Photo-05.jpg,新北市共融特色公園,ntpc_park_2006_興林口公園
竹林寺公園,新北市林口區竹林路412巷前方（竹林寺旁）,新北市,林口區,25.083400983949247,121.38781131506612,https://www.ntparks.tw/view-107-40-244.html,旋轉飛輪、共融式轉盤、彈跳床、Monkey Bar,三人轉腰器、雙人肩關節康復器、雙人漫步機,竹林寺公園坐落於林口區竹林路330巷旁，原本為竹林山觀音寺旁水泥停車場，搖身一變成小而美的社區花園，公園內設有造型單槓、彈跳網、飛輪及旋轉盤等多樣化的遊憩設施，並有多種喬灌木綠化、步道及座椅提供休憩，適合各年齡層民眾使用及親子活動。,https://www.ntparks.tw/images/views/view-107-40-244/Photo-01.jpg; https://www.ntparks.tw/images/views/view-107-40-244/Photo-02.jpg; https://www.ntparks.tw/images/views/view-107-40-244/Photo-03.jpg; https://www.ntparks.tw/images/views/view-107-40-244/Photo-04.jpg; https://www.ntparks.tw/images/views/view-107-40-244/Photo-05.jpg,新北市共融特色公園,ntpc_park_2007_竹林寺公園
貴子兒童公園,新北市泰山區明志路3段74巷,新北市,泰山區,25.041899283968565,121.4213735150652,https://www.ntparks.tw/view-107-41-243.html,共融式組合遊具、汽車造型搖搖樂（多人）、共融式旋轉盤、攀爬設施、機器人磨石子滑梯、特色遊戲板、旋轉杯,肩關節康復器、大轉盤、漫步機、腰背按摩器、滑雪器、健騎機、扭腰器、上肢牽引器、單槓、浪板、輪胎仰臥起坐,貴子兒童公園是泰山區於107年設置的第一座共融遊具的公園；除了共融遊具外還有香草植物區，另特別規劃跳格子地面、灌木小迷宮、瓢蟲印花親子草皮區等，營造童趣氛圍。,https://www.ntparks.tw/images/views/view-107-41-243/Photo-01.jpg; https://www.ntparks.tw/images/views/view-107-41-243/Photo-02.jpg; https://www.ntparks.tw/images/views/view-107-41-243/Photo-03.jpg; https://www.ntparks.tw/images/views/view-107-41-243/Photo-04.jpg,新北市共融特色公園,ntpc_park_2008_貴子兒童公園
兒童公園,新北市淡水區中山北路2段189巷內,新北市,淡水區,25.184744283901924,121.44023921506799,https://www.ntparks.tw/view-107-42-251.html,大象造型滑梯、鳥巢型鞦韆、攀爬設施,雙人肩關節康復器、雙人漫步機、雙人扭腰器及單槓,公園內設有兒童遊樂設施、溜冰場、體健設施，兒童遊樂設施有大象造型磨石子溜滑梯、鳥巢盪鞦韆及雙層攀爬網，有助兒童肢體協調、前庭平衡感，地面導入鬆填式細礫石鋪面及人工草皮加地墊，提供兒童安全遊戲空間。,https://www.ntparks.tw/images/views/view-107-42-251/Photo-01.jpg; https://www.ntparks.tw/images/views/view-107-42-251/Photo-02.jpg; https://www.ntparks.tw/images/views/view-107-42-251/Photo-03.jpg; https://www.ntparks.tw/images/views/view-107-42-251/Photo-04.jpg; https://www.ntparks.tw/images/views/view-107-42-251/Photo-05.jpg,新北市共融特色公園,ntpc_park_2009_兒童公園
觀潮廣場,新北市淡水區中正路298號（淡水藝術工坊）對面,新北市,淡水區,25.17204278390789,121.43506141506775,https://www.ntparks.tw/view-107-43-251.html,舢舨船造型溜滑梯、鳥巢型鞦韆、攀爬設施、造型沙坑,雙人漫步機、三人扭腰器、雙人腹肌板,以舢舨船為主題，展現淡水在地特色，設有空中走廊、遼望窗、旋轉舵、溜滑梯、攀爬網、沙坑沙桌、洗手設施、共融性盪鞦韆與體健設施等，出入口皆為無障礙步道，提供一般兒童及不同障別兒童使用。,https://www.ntparks.tw/images/views/view-107-43-251/Photo-01.jpg; https://www.ntparks.tw/images/views/view-107-43-251/Photo-02.jpg; https://www.ntparks.tw/images/views/view-107-43-251/Photo-03.jpg; https://www.ntparks.tw/images/views/view-107-43-251/Photo-04.jpg; https://www.ntparks.tw/images/views/view-107-43-251/Photo-05.jpg,新北市共融特色公園,ntpc_park_2010_觀潮廣場
三民公園,新北市新店區三民路中正國小旁,新北市,新店區,24.971161484001886,121.53518781506388,https://www.ntparks.tw/view-107-44-231.html,滑梯（組合型）、座椅型鞦韆、攀爬設施,雙人漫步機、三人扭腰器、輪胎,三民公園規劃為新店區第一座主題公共兒童特色遊戲場擺脫以往大眾臉的「罐頭式」遊具，整體規劃結合「溜滑」、「擺盪」、「攀爬」等活力元素，出入口設置無障礙設施，完成了麻雀雖小五臟俱全的特色遊具遊戲場域。,https://www.ntparks.tw/images/views/view-107-44-231/Photo-01.jpg; https://www.ntparks.tw/images/views/view-107-44-231/Photo-02.jpg; https://www.ntparks.tw/images/views/view-107-44-231/Photo-03.jpg; https://www.ntparks.tw/images/views/view-107-44-231/Photo-04.jpg; https://www.ntparks.tw/images/views/view-107-44-231/Photo-05.jpg,新北市共融特色公園,ntpc_park_2011_三民公園
東昇公園,新北市樹林區東昇里復興路（育林國中小旁）,新北市,樹林區,24.9849110839953,121.41250971506406,https://www.ntparks.tw/view-107-46-238.html,星球主題造型溜滑梯及攀爬設施（組合型設施）、鳥巢型鞦韆、沙坑,漫步機、腰背按摩器,東昇公園二期除了星際主題的遊戲場（包含沙坑、石頭坑、木屑坑、溜滑梯、共融鞦韆），同時也有成人體健設施，包含漫步機、腰背按摩器。,https://www.ntparks.tw/images/views/view-107-46-238/Photo-01.jpg; https://www.ntparks.tw/images/views/view-107-46-238/Photo-02.jpg; https://www.ntparks.tw/images/views/view-107-46-238/Photo-03.jpg; https://www.ntparks.tw/images/views/view-107-46-238/Photo-04.jpg,新北市共融特色公園,ntpc_park_2012_東昇公園
鹿角溪公園(第2期),新北市樹林區中山路三段155巷14弄,新北市,樹林區,24.971707384001487,121.3938514150638,https://www.ntparks.tw/view-107-47-238.html,造型滑梯、鳥巢型鞦韆、沙坑,漫步機、腰背按摩器,鹿角溪公園二期，有沙坑、溜滑梯、鳥巢式鞦韆、攀爬設施等，大部分採用人工草皮，美觀又實用。,https://www.ntparks.tw/images/views/view-107-47-238/Photo-01.jpg; https://www.ntparks.tw/images/views/view-107-47-238/Photo-02.jpg; https://www.ntparks.tw/images/views/view-107-47-238/Photo-03.jpg; https://www.ntparks.tw/images/views/view-107-47-238/Photo-04.jpg,新北市共融特色公園,ntpc_park_2013_鹿角溪公園(第2期)
蝙蝠洞公園,新北市瑞芳區台2線75公里處附近,新北市,瑞芳區,25.12631438392919,121.82992691506695,https://www.ntparks.tw/view-107-48-224.html,鳥巢型鞦韆,單槓,本公園是目前台灣已知最大的蝙蝠群居洞穴，每年五、六月蝙蝠洞開始到訪這個洞穴，數量高達數十萬隻且到訪的蝙蝠為雌性蝙蝠，為繁衍下一代而聚集於此。待八、九月小蝙蝠長大後離開，隔年回來。本公園有許多蝙蝠意象設施，並設有一處看臺鄰近蝙蝠洞，以方便遊客可以到此觀察蝙蝠生態。,https://www.ntparks.tw/images/views/view-107-48-224/Photo-01.jpg; https://www.ntparks.tw/images/views/view-107-48-224/Photo-02.jpg; https://www.ntparks.tw/images/views/view-107-48-224/Photo-03.jpg; https://www.ntparks.tw/images/views/view-107-48-224/Photo-04.jpg; https://www.ntparks.tw/images/views/view-107-48-224/Photo-05.jpg,新北市共融特色公園,ntpc_park_2014_蝙蝠洞公園
蘆洲公園,新北市蘆州區三民路95號對面（蘆洲區公所對面）,新北市,蘆州區,25.085154382420395,121.47326281658052,https://www.ntparks.tw/view-107-49-247.html,造型沙坑,腰背按摩器、伸腰伸背器、腿部按摩器、上肢牽引器、健騎器、三人轉腰器、雙人漫步機、仰臥起坐椅,本公園於民國104年建立，坐落於蘆洲鬧區的主要道路上，緊鄰蘆洲廟口商圈、紫禁城博物館等觀光特色景點，園內擁有以灌木排列成之新北市市徽圖案，屬蘆洲具代表性公園之一。,https://www.ntparks.tw/images/views/view-107-49-247/Photo-01.jpg; https://www.ntparks.tw/images/views/view-107-49-247/Photo-02.jpg; https://www.ntparks.tw/images/views/view-107-49-247/Photo-03.jpg; https://www.ntparks.tw/images/views/view-107-49-247/Photo-04.jpg; https://www.ntparks.tw/images/views/view-107-49-247/Photo-05.jpg,新北市共融特色公園,ntpc_park_3000_蘆洲公園
環河公園,新北市蘆洲區中正路509巷509-10號,新北市,蘆洲區,25.089454085785558,121.46505397537626,https://www.ntparks.tw/view-107-50-247.html,鳥巢型鞦韆、共融式旋轉盤、攀爬設施、造型滑梯、沙坑,腰背按摩器、腹肌板,本公園於民國100年建立，因沿河岸構築而成，故名為環河公園。園內有沙坑、地景溜滑梯、雙人盪鞦韆、鳥巢鞦韆，設施多元，是親子同樂的好去處。,https://www.ntparks.tw/images/views/view-107-50-247/Photo-01.jpg; https://www.ntparks.tw/images/views/view-107-50-247/Photo-02.jpg; https://www.ntparks.tw/images/views/view-107-50-247/Photo-03.jpg; https://www.ntparks.tw/images/views/view-107-50-247/Photo-04.jpg,新北市共融特色公園,ntpc_park_3001_環河公園
尼加拉瓜公園,新北市蘆洲區集賢路269巷旁,新北市,蘆洲區,25.084058467787898,121.479481177297,https://www.ntparks.tw/view-107-51-247.html,鳥巢型鞦韆、共融式旋轉盤、攀爬設施,雙人浪板、肩關節康復器、三人轉腰器、雙人漫步機、上肢牽引器、腰背按摩器,本公園舊稱「集賢公園」，民國80年間， 尼加拉瓜共和國駐華大使館曾經設址在公園前方，該大使館遷移後蘆洲各界為了紀念這一段典故，於民國86 年，特別將公園更名為「尼加拉瓜公園」。,https://www.ntparks.tw/images/views/view-107-51-247/Photo-01.jpg; https://www.ntparks.tw/images/views/view-107-51-247/Photo-02.jpg; https://www.ntparks.tw/images/views/view-107-51-247/Photo-03.jpg; https://www.ntparks.tw/images/views/view-107-51-247/Photo-04.jpg; https://www.ntparks.tw/images/views/view-107-51-247/Photo-05.jpg,新北市共融特色公園,ntpc_park_3002_尼加拉瓜公園
九三親子公園,新北市蘆洲區三民路26巷62號,新北市,蘆洲區,25.089454085785558,121.46505397537626,https://www.ntparks.tw/view-107-52-247.html,鳥巢型鞦韆、攀爬設施、造型滑梯,雙人健騎器、雙人漫步機、雙人大轉輪、腰背按摩器,本公園於民國107年建立，位置過去曾為軍眷村，已故知名歌手鄧麗君曾隨當地「九三康樂隊」有多場表演，此事為當地里民歷史回憶，並常以簡稱「九三」稱呼該地附近區域，故以此命名公園。,https://www.ntparks.tw/images/views/view-107-52-247/Photo-01.jpg; https://www.ntparks.tw/images/views/view-107-52-247/Photo-02.jpg; https://www.ntparks.tw/images/views/view-107-52-247/Photo-03.jpg; https://www.ntparks.tw/images/views/view-107-52-247/Photo-04.jpg; https://www.ntparks.tw/images/views/view-107-52-247/Photo-05.jpg,新北市共融特色公園,ntpc_park_3003_九三親子公園
鳳祥公園,新北市鶯歌區鶯桃路413巷,新北市,鶯歌區,24.96293728400572,121.32811901506372,https://www.ntparks.tw/view-107-53-239.html,鯨魚造型溜滑梯、造型沙坑,雙人肩關節康復器、雙人浪板器、腹肌板、腰背按摩器,藍色大鯨魚現身新北市特色公園鶯歌鳳祥公園！新北市特色公園大改造來到鶯歌，融入鯨魚磨石溜滑梯、攀岩、攀爬架、戲沙池、傳聲筒等小遊具，點亮社區公園新亮點！,https://www.ntparks.tw/images/views/view-107-53-239/Photo-01.jpg; https://www.ntparks.tw/images/views/view-107-53-239/Photo-02.jpg; https://www.ntparks.tw/images/views/view-107-53-239/Photo-03.jpg; https://www.ntparks.tw/images/views/view-107-53-239/Photo-04.jpg,新北市共融特色公園,ntpc_park_3004_鳳祥公園
鳳福公園,新北市鶯歌區鳳福市民活動中心旁,新北市,鶯歌區,24.974823334000046,121.32767496506388,https://www.ntparks.tw/view-107-54-239.html,鳥巢型鞦韆、彈跳床、小山造型造型溜滑梯,雙人浪板器、雙人肩關節康復器、腹肌版、腰背按摩器,以「貓頭鷹與海洋風」為主題打造的地景式遊戲場，最大亮點是公園首創的超人氣「彈跳床」，可以讓大人與小孩都玩得超開心； 此外還有結合攀岩、繩索攀爬、傳聲筒、磨石子溜滑梯且鋪滿軟軟人工草皮的「山丘地景遊具」、幼兒或身障孩子也能玩的「鳥巢鞦韆等」； 場地平面以PU材質鋪設，還規劃了兩處跳格子遊戲，適合爸媽帶孩子一起複習童年回憶！,https://www.ntparks.tw/images/views/view-107-54-239/Photo-01.jpg; https://www.ntparks.tw/images/views/view-107-54-239/Photo-02.jpg; https://www.ntparks.tw/images/views/view-107-54-239/Photo-03.jpg; https://www.ntparks.tw/images/views/view-107-54-239/Photo-04.jpg,新北市共融特色公園,ntpc_park_3005_鳳福公園
永昌公園,新北市鶯歌區尖山埔路接尖山埔路二段近中正二路平交道口,新北市,鶯歌區,24.94887408401232,121.33853081506352,https://www.ntparks.tw/view-107-55-239.html,攀爬設施、小山造型造型溜滑梯,平衡木、雙槓、仰臥起坐器、低槓、單槓、雙人肩關節康復器、 三人轉腰器、雙人浪板器、雙人坐蹬器、扭腰踏步機、角力器、 雙人坐推器、單人踏步機、單人健騎機、腰背按摩器、手掌穴位按摩器、肱二頭肌訓練器,以3D熔岩立體彩繪為主體的地景遊戲場，及溜滑梯、攀爬網、攀繩、馬賽克跳樁座椅等遊憩設施， 整合既有之體健及遊園步道等設施結合，不僅讓公園充滿自然文創氣息，同時也讓大人、孩童們共同享有安全舒適的休閒環境。,https://www.ntparks.tw/images/views/view-107-55-239/Photo-01.jpg; https://www.ntparks.tw/images/views/view-107-55-239/Photo-02.jpg; https://www.ntparks.tw/images/views/view-107-55-239/Photo-03.jpg; https://www.ntparks.tw/images/views/view-107-55-239/Photo-04.jpg; https://www.ntparks.tw/images/views/view-107-55-239/Photo-05.jpg,新北市共融特色公園,ntpc_park_3006_永昌公園
古鐘樓公園,新北市鶯歌區館前路與文化路371巷,新北市,鶯歌區,24.952390300000005,121.3513940174439,https://www.ntparks.tw/view-108-01-239.html,跑酷木棧道、鐘樓溜滑梯、特色攀爬網、沙坑、鞦韆、旋轉盤、攀爬網、躲貓貓水管,無,圜內有盪鞦韆、旋轉盤等設施，並有一座高達6公尺兼具歷史意義的古鐘樓溜滑梯、消防車RCP管等，不但可以體驗各類豐富的遊憩設施，還有找回童年記憶的感受，將成為鶯歌地區親子同遊多元繽紛的新景點。,https://www.ntparks.tw/images/views/view-108-01-239/Photo-01.jpg; https://www.ntparks.tw/images/views/view-108-01-239/Photo-02.jpg; https://www.ntparks.tw/images/views/view-108-01-239/Photo-03.jpg; https://www.ntparks.tw/images/views/view-108-01-239/Photo-04.jpg,新北市共融特色公園,ntpc_park_3007_古鐘樓公園
中山公園,新北市三峽區中山路及文化路口,新北市,三峽區,24.93507928401878,121.3639135150632,https://www.ntparks.tw/view-108-02-237.html,樹屋平台遊戲場(管狀溜滑梯、不銹鋼溜滑梯、攀爬版、攀爬網、爬桿、休閒轉盤；大地遊戲場(跑酷棧道、攀爬繩網),三人扭腰器、三人上肢牽器、雙人伸腰伸背器、雙人肩關節康復器,中山公園遊戲場都在山林內，利用高低差打造30公尺長10公尺高的彩虹樹藤溜滑梯，內有樹屋平台、旋轉盤、攀爬網(繩)及跑酷棧道等設施，可以給予小朋友不同以往空間遊戲感，透過活化原有休憩空間，創造公園新價值。,https://www.ntparks.tw/images/views/view-108-02-237/Photo-01.jpg; https://www.ntparks.tw/images/views/view-108-02-237/Photo-02.jpg; https://www.ntparks.tw/images/views/view-108-02-237/Photo-03.jpg; https://www.ntparks.tw/images/views/view-108-02-237/Photo-04.jpg,新北市共融特色公園,ntpc_park_3008_中山公園
永福橋兒童遊戲場,新北市永福橋福和運動公園,新北市,永和區,25.00711580364634,121.52668775423243,https://www.ntparks.tw/view-108-03-234.html,鞦韆、蹺蹺板、溜滑梯、無障礙坡道的回收車造型組合遊具、旋轉盤、花朵造型的傳聲筒、轉盤,單槓、划船器、坐推器,永和區福和運動公園永福橋兒童遊戲場係將鄰旁的花園苗圃空間結合，保留原有鞦韆、蹺蹺板、溜滑梯等設施外，增設多樣性的共融特色遊具，包括無障礙坡道的回收車造型組合遊具、可供輪椅乘坐的旋轉盤、花朵造型的傳聲筒及轉盤等，提供更多元族群兒童一同參與遊玩，讓孩童童年沒有遺憾！,https://www.ntparks.tw/images/views/view-108-03-234/Photo-01.jpg; https://www.ntparks.tw/images/views/view-108-03-234/Photo-02.jpg; https://www.ntparks.tw/images/views/view-108-03-234/Photo-03.jpg; https://www.ntparks.tw/images/views/view-108-03-234/Photo-04.jpg; https://www.ntparks.tw/images/views/view-108-03-234/Photo-05.jpg,新北市共融特色公園,ntpc_park_3009_永福橋兒童遊戲場
斬龍山遺址文化公園,新北市土城區金城路二段39巷旁,新北市,土城區,24.97734838399891,121.44641961506395,https://www.ntparks.tw/view-108-04-236.html,共融式溜滑梯、膜構桁架沙坑、長型、乾式噴泉、水漾廣場,無,「斬龍山遺址文化公園」位在新北市土城區金城路2段，土城醫院對面。斬龍山遺址於108年3月22日公告為市定考古遺址，在不干擾地底文化層的情況下，地表規劃為公園並於108年6月開放使用。公園各處可見考古遺址的相關解說，另有模擬考古發掘之遊戲沙坑，內藏複刻「圓山文化土地公山類型」的陶片及有肩斧鋤形器。,https://www.ntparks.tw/images/views/view-108-04-236/Photo-01.jpg; https://www.ntparks.tw/images/views/view-108-04-236/Photo-02.jpg; https://www.ntparks.tw/images/views/view-108-04-236/Photo-03.jpg; https://www.ntparks.tw/images/views/view-108-04-236/Photo-04.jpg,新北市共融特色公園,ntpc_park_3010_斬龍山遺址文化公園
集智綠地,新北市三重區五華街與三賢街交叉路口,新北市,三重區,25.087534936132744,121.4844798759273,https://www.ntparks.tw/view-108-05-241.html,"1.磨石子滑梯
            2.旋轉爬網
            3.大型沙坑、挖土機等設施",單槓、漫步機、三人轉腰器、大轉輪、關節復健器,鄰近碧華國小、碧華國中及新北高中等文教區，對面即是家樂福大賣場，重劃新建社區、人口密集，綠地空間休憩人數眾多。遊具以早餐為主題的磨石子滑梯搭配旋轉爬網及大型沙坑、挖土機等設施，提供小朋友放電及親子野餐休憩好去處。,https://www.ntparks.tw/images/views/view-108-05-241/Photo-01.jpg; https://www.ntparks.tw/images/views/view-108-05-241/Photo-02.jpg; https://www.ntparks.tw/images/views/view-108-05-241/Photo-03.jpg; https://www.ntparks.tw/images/views/view-108-05-241/Photo-04.jpg,新北市共融特色公園,ntpc_park_3011_集智綠地
新北大都會公園瀑布滑草場,新北市三重區疏洪東路一段,新北市,三重區,25.032120597012742,121.50111261916163,https://www.ntparks.tw/view-108-06-241.html,人工草皮滑草場、岩石攀爬區,無,新北大都會公園瀑布滑草場108年8月18日正式啟用，瀑布滑草場是利用既有堤坡的高低差，鋪設人工草皮，以藍色為背景加上白色的水紋，營造「瀑布」的意象，兩側各有十米寬的岩石攀爬區，再搭配一旁去年完工的「幸運草地景溜滑梯」，讓「新北大都會公園」成為親子的遊玩樂園。瀑布滑草場的開放時間和幸運草地景溜滑梯一樣，每天早上六點到晚間十點，適合五歲以上孩童使用，下雨天及場地潮濕均停止開放。,https://www.ntparks.tw/images/views/view-108-06-241/Photo-01.jpg; https://www.ntparks.tw/images/views/view-108-06-241/Photo-02.jpg; https://www.ntparks.tw/images/views/view-108-06-241/Photo-03.jpg; https://www.ntparks.tw/images/views/view-108-06-241/Photo-04.jpg,新北市共融特色公園,ntpc_park_3012_新北大都會公園瀑布滑草場
流蘇公園,新北市金山區八德街及四維路交叉,新北市,金山區,25.22316103064748,121.63188537594542,https://www.ntparks.tw/view-108-07-208.html,溜滑梯、攀爬設施、鞦韆,腰背按摩器、扭腰器、漫步機,流蘇公園為種植流蘇為主題的特色共融公園，鄰近金美國小及金山國小。公園內有筊白筍造型休憩區及帆船造型的特色溜滑梯，週邊也有大型盪鞦韆和3座體健設施供民眾使用。此外以金山特產-甘藷為造型特色公廁，為公園景觀增添趣味。,https://www.ntparks.tw/images/views/view-108-07-208/Photo-01.jpg?v=2025; https://www.ntparks.tw/images/views/view-108-07-208/Photo-02.jpg?v=2025; https://www.ntparks.tw/images/views/view-108-07-208/Photo-03.jpg?v=2025; https://www.ntparks.tw/images/views/view-108-07-208/Photo-04.jpg?v=2025; https://www.ntparks.tw/images/views/view-108-07-208/Photo-05.jpg?v=2025,新北市共融特色公園,ntpc_park_3013_流蘇公園
櫻花公園,新北市金山區民生路及中山路口,新北市,金山區,25.22002733077453,121.63800127593042,https://www.ntparks.tw/view-108-08-208.html,礫石區,無,公園位於金山區民生路、中興路，本區為金山市區入口，鄰近金山金包里老街、中山溫泉公園及獅頭山公園，考量金山老街觀光及居民停車需求，這裡規劃停車場提供146個小型停車格，來遊玩的民眾，可以把車停這裡，走路前往獅頭山公園體驗自然步道，觀賞燭臺雙峙等山海美景。,https://www.ntparks.tw/images/views/view-108-08-208/Photo-01.jpg; https://www.ntparks.tw/images/views/view-108-08-208/Photo-02.jpg; https://www.ntparks.tw/images/views/view-108-08-208/Photo-03.jpg,新北市共融特色公園,ntpc_park_3014_櫻花公園
杜鵑公園,新北市金山區忠孝路及信義路口,新北市,金山區,25.220117030771043,121.6340491759305,https://www.ntparks.tw/view-108-09-208.html,溜滑梯、蝴蝶攀岩板、管狀滑梯、木踏樁、爬竿垂繩、攀爬牆、旋轉設施,攀爬網、巢形盪鞦韆,公園位於金山區民生路、中興路，本區為金山市區入口，鄰近金山金包里老街、中山溫泉公園及獅頭山公園，考量金山老街觀光及居民停車需求，這裡規劃停車場提供146個小型停車格，本區除設有櫻花造型欄杆的地景外，也有2座共融遊具，來遊玩的民眾，可以把車停這裡，走路前往獅頭山公園體驗自然步道，觀賞燭臺雙峙等山海美景。,https://www.ntparks.tw/images/views/view-108-09-208/Photo-01.jpg; https://www.ntparks.tw/images/views/view-108-09-208/Photo-02.jpg; https://www.ntparks.tw/images/views/view-108-09-208/Photo-03.jpg; https://www.ntparks.tw/images/views/view-108-09-208/Photo-04.jpg; https://www.ntparks.tw/images/views/view-108-09-208/Photo-05.jpg,新北市共融特色公園,ntpc_park_3015_杜鵑公園
同安35公園,新北市三重區文化南路與福德南路交叉口,新北市,三重區,25.058852483960777,121.49862951506553,https://www.ntparks.tw/view-108-10-241.html,擺盪大索、彈跳床、旋轉爬塔、磨石子溜滑梯,健騎機、轉腰器、上肢牽引器、漫步機,同安35公園闢建於民國91年，位於文化南路上﹝近福德南路﹞，佔地0.60公頃，園內有草坪、老樹，故於民國92年底進行規劃改建工程，於93年初動工，歷時約3月完成，加入水泥兒童遊具，後於94年初增設體健設施，以豐富公園。民國109年增設共融性遊具，成為親子遊戲好去處。,https://www.ntparks.tw/images/views/view-108-10-241/Photo-01.jpg; https://www.ntparks.tw/images/views/view-108-10-241/Photo-02.jpg; https://www.ntparks.tw/images/views/view-108-10-241/Photo-03.jpg; https://www.ntparks.tw/images/views/view-108-10-241/Photo-04.jpg; https://www.ntparks.tw/images/views/view-108-10-241/Photo-05.jpg,新北市共融特色公園,ntpc_park_4000_同安35公園
新店陽光遊戲場,新北市安業街陽光運動公園,新北市,新店區,24.9769622839991,121.51813421506388,https://www.ntparks.tw/view-111-20-231.html,鞦韆(一字型、鳥巢型、包覆型、安全座椅及親子型)、  林間爬網、波形棧橋、天空吊橋、樹梢鑽籠、攀爬塊、跑酷遊戲設施、彈跳床、磨石子溜滑梯、跳樁及平衡木、兒童遊具組(汽車及長頸鹿造型) 、沙坑,"1. 單人晃動板　2. 雙人滑步機　3. 伸腰伸背機 
          4. 肩肘轉動器　5. 雙人腹肌板　6. 健騎機",新店溪畔綠茵如毯的草坪，襯映著陽光橋弧形倩影，陽光遊戲場保留區內既有大樹，加入坡地地景與戲水的元素，猶如陽光灑落綠洲，打造出以「陽光綠洲」為主題的自然地景遊戲場，以全新面貌重新登場，是今年盛夏「水上樂、陸上玩、空中遊」的三棲熱門景點。 重新改造後的陽光遊戲場，最令人期待的是可以一次體驗9種親水設施的蝶型水道區，以友善無障礙路徑串聯起水霧、落瀑水盤、噴泉、淋水道、花灑、幫浦、水閘門、綠丘湧泉及戲水潭；於林蔭大樹圍繞兩座山丘的樹鄰遊戲區，以大面積自然礫石灘及山丘地景，結合空中挑戰型的特色遊具包括攀爬到丘頂的林間爬網及波形棧橋，連接兩座山丘的天空吊橋、樹梢鑽籠，另外為豐富遊戲場的趣味性，保留原本就相當受歡迎的沙坑區外，並增設大型彈跳床、磨石子溜滑梯、跳樁及平衡木，鞦韆也升級為多款形式，有一字型、鳥巢型、包覆型、安全座椅及親子型等，還為青少年提供跑酷設施，滿足青少年高體能強度的活動需求；再加上運動健身的體健設備，讓老中青兒童都能在此一同玩樂。,https://www.ntparks.tw/images/views/view-111-20-231/Photo-01.jpg; https://www.ntparks.tw/images/views/view-111-20-231/Photo-02.jpg; https://www.ntparks.tw/images/views/view-111-20-231/Photo-03.jpg; https://www.ntparks.tw/images/views/view-111-20-231/Photo-04.jpg; https://www.ntparks.tw/images/views/view-111-20-231/Photo-05.jpg; https://www.ntparks.tw/images/views/view-111-20-231/Photo-06.jpg,新北市共融特色公園,ntpc_park_4001_新店陽光遊戲場
永吉公園,新北市鶯歌區鶯桃路296巷,新北市,鶯歌區,24.960521884006827,121.3325367150637,https://www.ntparks.tw/view-108-12-239.html,豌豆溜滑梯、木屑坑、沙坑、攀爬網、多樣化鞦韆,肩關節康復器、腰背按摩器、健騎機、扭腰器、雙人浪板 (擺盪器),永吉公園第三期位於捷運三鶯線永吉公園站旁，以「花朵樂園」為主題，花朵造型的滑梯平台為設計主軸，園區一年四季都有花可欣賞， 配合既有地勢條件，延續二期的梯田花卉景觀及生態池等設計內涵，將代表自然界的花朵、樹木、昆蟲元素融入公園， 規劃花朵造型的木平台、錐形攀爬網、蝴蝶鞦韆及民眾最期待的魔豆造型旋轉溜滑梯，讓不同年齡層的小朋友都能從中找尋樂趣。,https://www.ntparks.tw/images/views/view-108-12-239/Photo-01.jpg; https://www.ntparks.tw/images/views/view-108-12-239/Photo-02.jpg; https://www.ntparks.tw/images/views/view-108-12-239/Photo-03.jpg; https://www.ntparks.tw/images/views/view-108-12-239/Photo-04.jpg; https://www.ntparks.tw/images/views/view-108-12-239/Photo-05.jpg,新北市共融特色公園,ntpc_park_4002_永吉公園
鹿角溪公園(第4期),新北市樹林區中洲街51巷14號右側,新北市,樹林區,24.971707384001487,121.3938514150638,https://www.ntparks.tw/view-110-01-238.html,年長者體健設施、輪椅使用者體健設施,無障礙大轉輪、無障礙上肢牽引器、無障礙抬腿訓練器,鹿角溪公園共有 1 - 4 期，第3期於108年12月完工，打造銀髮公園，且有數種無障礙體健設施。 第4期於110年1月份完工，本期定位為「熱血信念 青春無限」的動態主題公園，提供完善的籃球運動場，讓不同年齡層的籃球愛好者可以享受運動的好去處。,https://www.ntparks.tw/images/views/view-110-01-238/Photo-01.jpg; https://www.ntparks.tw/images/views/view-110-01-238/Photo-02.jpg,新北市共融特色公園,ntpc_park_4003_鹿角溪公園(第4期)
鴨鴨公園,新北市中興橋下、龍門路口堤外側樹下空間及長元陸橋堤外側下方空間,新北市,三重區,25.048699383965367,121.48856891506531,https://www.ntparks.tw/view-108-14-241.html,鴨鴨溜滑梯、攀爬網、共融遊具,無障礙大轉輪、漫步機、深腰深背器、雙人背肌訓練器,新北市政府在淡水河畔中興橋下的河濱公園，設置一處以水鴨為主題的地景藝術公園，由鄰近的堤頂俯瞰，還可以發現一幅溫馨的水鴨親子圖騰。中興橋下鴨鴨公園位處大漢溪及新店溪匯流處，河水中泥沙經年累月的沉積形成一沙洲區域，成為許多水鳥棲息地。新北市政府為提供一處觀賞生態的空間，並呼籲尊重與保護水鳥環境的重要性，重新規劃出生態緩衝區、草坪區及步道區等多機能空間，民眾可以經由剛完工的中興河濱陸橋自行車牽引道進入堤頂來觀賞這片美麗的水岸。,https://www.ntparks.tw/images/views/view-108-14-241/Photo-01.jpg; https://www.ntparks.tw/images/views/view-108-14-241/Photo-02.jpg; https://www.ntparks.tw/images/views/view-108-14-241/Photo-03.jpg; https://www.ntparks.tw/images/views/view-108-14-241/Photo-04.jpg; https://www.ntparks.tw/images/views/view-108-14-241/Photo-05.jpg,新北市共融特色公園,ntpc_park_4004_鴨鴨公園
渡船頭公園,新北市八里區龍米路2段201巷與渡船頭路,新北市,八里區,25.15049537073162,121.40685283734315,https://www.ntparks.tw/view-108-15-249.html,彈塗魚攀爬區、沙坑、旋轉鞦韆、攀岩區、地景隧道,多功能體健設施、雙人衝浪板、滑雪器,以彈塗魚為主題的特色公園，除了沙坑、鞦韆等遊樂設施外，另有適合成人使用的體建設施。,https://www.ntparks.tw/images/views/view-108-15-249/Photo-01.jpg; https://www.ntparks.tw/images/views/view-108-15-249/Photo-02.jpg; https://www.ntparks.tw/images/views/view-108-15-249/Photo-03.jpg; https://www.ntparks.tw/images/views/view-108-15-249/Photo-04.jpg; https://www.ntparks.tw/images/views/view-108-15-249/Photo-05.jpg,新北市共融特色公園,ntpc_park_4005_渡船頭公園
瑠公公園,新北市新店區北新路1段128號,新北市,新店區,24.969011184002756,121.53768211506379,https://www.ntparks.tw/view-108-16-231.html,特色攀爬遊具,雙人漫步機*4、三人扭腰*3、雙人健騎機、單槓,高聳樹屋及大網面繩索攀爬遊戲場，鋪面採用自然元素的天然木屑，宛如置身於森林中，樹屋繩索的高度激發著孩童勇氣，攀爬過程中考驗孩童協調感、空間感，並學習如何從遊玩中學保護自己。,https://www.ntparks.tw/images/views/view-108-16-231/Photo-01.jpg; https://www.ntparks.tw/images/views/view-108-16-231/Photo-02.jpg; https://www.ntparks.tw/images/views/view-108-16-231/Photo-03.jpg; https://www.ntparks.tw/images/views/view-108-16-231/Photo-04.jpg; https://www.ntparks.tw/images/views/view-108-16-231/Photo-05.jpg,新北市共融特色公園,ntpc_park_4006_瑠公公園
僑仁公園,新店區僑仁路跟僑信路交叉口,新北市,新店區,24.95137368401114,121.49709221506346,https://www.ntparks.tw/view-108-17-231.html,特色攀爬遊具、鞦韆、單槓,雙人健騎器、雙人腹肌板、 雙人漫步機、坐推訓練器,遊具設計以攀爬遊戲設施為主軸，搭配鞦韆、單槓等，其中攀爬遊戲可以考驗孩童協調感、空間感，並學習如何在遊玩中保護自己。此外，遊戲場也設置了跳房子遊戲，在地墊上增加跳色變化，讓大朋友、小朋友一同享用空間、盡情玩樂。,https://www.ntparks.tw/images/views/view-108-17-231/Photo-01.jpg; https://www.ntparks.tw/images/views/view-108-17-231/Photo-02.jpg; https://www.ntparks.tw/images/views/view-108-17-231/Photo-03.jpg; https://www.ntparks.tw/images/views/view-108-17-231/Photo-04.jpg; https://www.ntparks.tw/images/views/view-108-17-231/Photo-05.jpg,新北市共融特色公園,ntpc_park_4007_僑仁公園
柳堤公園,新北市蘆洲區光榮路及長興路交叉路口,新北市,蘆洲區,25.08783368394722,121.46031706506612,https://www.ntparks.tw/view-109-01-247.html,共融滑梯(柳樹主題)、廣場（109年水泥鋪面改善完成）,上肢牽引器、三人轉腰器、腰背按摩器、雙人漫步機、雙人大轉輪、伸腰伸背,本公園於民國91年建立，園區內有大草坪、公廁、磨石子滑梯及攀爬籠共融特色遊戲場、體健設施等，且因公園腹地大，可容納人數多，成為蘆洲區內唯一的防災公園，是區內結合防災與休憩的多功能型公園。,https://www.ntparks.tw/images/views/view-108-18-247/Photo-01.jpg; https://www.ntparks.tw/images/views/view-108-18-247/Photo-02.jpg; https://www.ntparks.tw/images/views/view-108-18-247/Photo-03.jpg; https://www.ntparks.tw/images/views/view-108-18-247/Photo-04.jpg,新北市共融特色公園,ntpc_park_4008_柳堤公園
同仁公園,新北市三重區大有街同仁宮對面,新北市,三重區,25.065559937018953,121.47436737592685,https://www.ntparks.tw/view-108-18-241.html,磨石子溜滑梯、花架鞦韆、共融鳥巢、圓盤鞦韆,轉腰器、漫步機,"本公園位大有街同仁宮對面，101年地政局辦理本區疏洪道兩側市地重劃案新闢公園(疏洪道右岸)，園區內採用透水鋪面並規劃有兒童遊具及花架；109年再設立共融鳥巢、圓盤鞦韆，並設立土地公雕像、水牛造型等設備，形成特殊的鄉村特色。 
            &nbsp;鑑於公園場域不大，在設計時，為了能充分利用空間，因而在既有的花架下設置各式之鞦韆包括親子鞦韆、圓盤鞦韆、單人鞦韆等。花架上方則栽種不同花色的藤蔓，在炎炎夏日既可納涼，又不失浪漫。 公園中央設置三滑道溜滑梯與小攀岩場，可讓大小朋友一起同樂，並設有漫步機、轉腰器、雙人浪板及大轉輪等健身器材，兼具全齡共融設計。此外，還有全三重首創的利用太陽能集電的路燈，滿足夜間照明，更可讓手機也充電，小小公園不只五臟俱全，更是創意驚奇連連。",https://www.ntparks.tw/images/views/view-108-18-241/Photo-01.jpg; https://www.ntparks.tw/images/views/view-108-18-241/Photo-02.jpg; https://www.ntparks.tw/images/views/view-108-18-241/Photo-03.jpg; https://www.ntparks.tw/images/views/view-108-18-241/Photo-04.jpg; https://www.ntparks.tw/images/views/view-108-18-241/Photo-05.jpg,新北市共融特色公園,ntpc_park_4009_同仁公園
運動公園,新北市瑞芳區蛇子形路及員山子路交叉路口,新北市,瑞芳區,25.10991823769974,121.79714871955514,https://www.ntparks.tw/view-109-04-224.html,平衡木、共融式盪鞦韆、旋轉輪盤、旋轉杯、共融式攀爬網、共融式攀爬組、四腳攀爬網,轉腰器、雙人腹肌板、U型漫步機、划船器、橢圓機、雙人衝浪板、籃球場2座,結合當地山林地貌規劃而成的場地，被群山環抱的開放空間、具當地特色的大冠鷲造型天幕球場，讓長者、學生、孩童及家長，在既能欣賞美景又不受天氣影響的情況下盡情運動。,https://www.ntparks.tw/images/views/view-109-04-224/Photo-01.jpg; https://www.ntparks.tw/images/views/view-109-04-224/Photo-02.jpg; https://www.ntparks.tw/images/views/view-109-04-224/Photo-03.jpg; https://www.ntparks.tw/images/views/view-109-04-224/Photo-04.jpg; https://www.ntparks.tw/images/views/view-109-04-224/Photo-05.jpg,新北市共融特色公園,ntpc_park_4010_運動公園
鳳鳴公兒二公園,新北市鶯歌區鳳鳴路103號對面,新北市,鶯歌區,24.966064241022746,121.33194467592455,https://www.ntparks.tw/view-109-05-239.html,機器人遊戲塔、溜滑梯、立體攀爬躺網、吊繩球擺盪、沙坑、齒輪及板手意象跳樁,無,鶯歌鳳鳴公兒二公園所在位置為兒童遊戲場預定地，公園主題定位為「ROBOT CITY機器人城市」兒童戲場，將機器人、機艙門、操控室、機器人機械元件等概念導入遊戲場中，結合各式遊具，身歷其境感受操控機器人，與機器人同樂的氛圍。公園主要以機器人主題遊戲塔、沙坑及礫石坑形式呈現，遊戲塔上下、內外不同空間塑造，提供多元空間探索趣味性之遊戲體驗。,https://www.ntparks.tw/images/views/view-109-05-239/Photo-01.jpg; https://www.ntparks.tw/images/views/view-109-05-239/Photo-02.jpg; https://www.ntparks.tw/images/views/view-109-05-239/Photo-03.jpg; https://www.ntparks.tw/images/views/view-109-05-239/Photo-04.jpg; https://www.ntparks.tw/images/views/view-109-05-239/Photo-05.jpg; https://www.ntparks.tw/images/views/view-109-05-239/Photo-06.jpg; https://www.ntparks.tw/images/views/view-109-05-239/Photo-07.jpg,新北市共融特色公園,ntpc_park_4011_鳳鳴公兒二公園
重慶公園,新北市板橋區重慶路擎天雙星旁,新北市,板橋區,24.999170995997176,121.46314730812713,https://www.ntparks.tw/view-109-03-220.html,極地企鵝特色遊具1座、遊戲場域周邊連接步道,太空漫步器、上肢牽引器、單槓,以企鵝意象為主題，結合護籠鑽網、體能墩、攀岩牆、拱形橋等，分齡多元的遊戲方式，造福熱愛運動的小朋友，且在遊戲中學習激發創意，也提供更完善且安全的休憩空間，讓市民享受活動其中，從遊戲及運動中學習，打造孩子們的快樂天地。,https://www.ntparks.tw/images/views/view-109-02-220/Photo-01.jpg; https://www.ntparks.tw/images/views/view-109-02-220/Photo-02.jpg; https://www.ntparks.tw/images/views/view-109-02-220/Photo-03.jpg; https://www.ntparks.tw/images/views/view-109-02-220/Photo-04.jpg,新北市共融特色公園,ntpc_park_4012_重慶公園
龍源公園,新北市八里區龍米段2039-2043號地號 龍形一街與龍形二街交叉處,新北市,八里區,25.130638534392396,121.44795327592831,https://www.ntparks.tw/view-109-06-249.html,溜滑梯遊具組,坐拉訓練器、立柱式漫步器、太極輪,以龍頭溜滑梯為此鄰里公園的特色，搭配共融式遊具，小小公園卻獨具特色。,https://www.ntparks.tw/images/views/view-109-06-249/Photo-01.jpg; https://www.ntparks.tw/images/views/view-109-06-249/Photo-02.jpg; https://www.ntparks.tw/images/views/view-109-06-249/Photo-03.jpg,新北市共融特色公園,ntpc_park_4013_龍源公園
介壽公園,新北市板橋區公園街與民權路交叉口,新北市,板橋區,25.00802241769208,121.46275969925115,https://www.ntparks.tw/view-109-07-220.html,混凝土磨石子滑梯、複合式造型土丘滑梯（攀爬岩、攀爬繩、滑梯、小山洞）,漫步機、雙人轉腰,以非洲草原親子象為意象主題，在大象磨石子滑梯增加了攀岩粒及攀爬繩及增建土丘滑梯等，分齡多元的遊戲方式，造福熱愛運動的小朋友遊戲中學習激發創意，也提供更完善且安全的休憩空間，讓市民享受及活動其中，從遊戲及運動中學習，打造孩子們的快樂天地。,https://www.ntparks.tw/images/views/view-109-07-220/Photo-01.jpg; https://www.ntparks.tw/images/views/view-109-07-220/Photo-02.jpg; https://www.ntparks.tw/images/views/view-109-07-220/Photo-03.jpg; https://www.ntparks.tw/images/views/view-109-07-220/Photo-04.jpg; https://www.ntparks.tw/images/views/view-109-07-220/Photo-05.jpg; https://www.ntparks.tw/images/views/view-109-07-220/Photo-06.jpg; https://www.ntparks.tw/images/views/view-109-07-220/Photo-07.jpg,新北市共融特色公園,ntpc_park_4014_介壽公園
市17跳跳糖兒童遊戲場,新北市林口區興林路與東湖路交叉口,新北市,林口區,25.07385463668451,121.38683037592718,https://www.ntparks.tw/view-109-08-244.html,彈跳床、體健設施、全區環形跑道、無縫地形造景,單槓、雙人推坐器、雙人腹肌版、雙人漫步機,以林口地形為設計概念，利用大地遊戲場的方式，創造開放性遊憩使用行為。,https://www.ntparks.tw/images/views/view-109-08-244/Photo-01.jpg; https://www.ntparks.tw/images/views/view-109-08-244/Photo-02.jpg; https://www.ntparks.tw/images/views/view-109-08-244/Photo-03.jpg; https://www.ntparks.tw/images/views/view-109-08-244/Photo-04.jpg; https://www.ntparks.tw/images/views/view-109-08-244/Photo-05.jpg,新北市共融特色公園,ntpc_park_5000_市17跳跳糖兒童遊戲場
立功公園,新北市林口區三民路75號旁,新北市,林口區,25.06768703693305,121.35580057592682,https://www.ntparks.tw/view-109-09-244.html,造型磨石滑梯、特色鞦韆、礫石坑、體健設施、跳樁,雙人推坐器、雙人漫步機,立功公園為滯洪池公園，以海洋主題為發想，配合地形設置溜滑梯。,https://www.ntparks.tw/images/views/view-109-09-244/Photo-01.jpg; https://www.ntparks.tw/images/views/view-109-09-244/Photo-02.jpg; https://www.ntparks.tw/images/views/view-109-09-244/Photo-03.jpg; https://www.ntparks.tw/images/views/view-109-09-244/Photo-04.jpg; https://www.ntparks.tw/images/views/view-109-09-244/Photo-05.jpg,新北市共融特色公園,ntpc_park_5001_立功公園
十三行文化公園,新北市八里區博物館路及忠孝街口,新北市,八里區,25.165175783911113,121.41104731431209,https://www.ntparks.tw/view-109-10-249.html,共融式鞦韆、翹翹板、天旋地轉、磨石子滑梯以及滑草場,無,"融入在地文化特色及現況坡地地形，營造地景式遊戲場域、滑梯、滑草區等設施,創造主題遊戲空間。",https://www.ntparks.tw/images/views/view-109-10-249/Photo-01.jpg; https://www.ntparks.tw/images/views/view-109-10-249/Photo-02.jpg; https://www.ntparks.tw/images/views/view-109-10-249/Photo-03.jpg; https://www.ntparks.tw/images/views/view-109-10-249/Photo-04.jpg; https://www.ntparks.tw/images/views/view-109-10-249/Photo-05.jpg,新北市共融特色公園,ntpc_park_5002_十三行文化公園
三民公園,新北市三重區忠孝路三段40巷51號,新北市,三重區,25.065467937022664,121.48034052592675,https://www.ntparks.tw/view-109-11-241.html,組合遊具、鞦韆、搖搖樂,全齡化體健設施,新北市持續推動的公園全齡化改善計畫，第二座全齡化公園，位於三重區的三民公園加入了9項體健設施，其功能分別為訓練呼吸循環、上下肢肌力、手眼協調、平衡感、脊肌及核心肌群，希望市民都能在公園從設施中訓練身體機能及保養。,https://www.ntparks.tw/images/views/view-109-11-241/Photo-01.jpg; https://www.ntparks.tw/images/views/view-109-11-241/Photo-02.jpg; https://www.ntparks.tw/images/views/view-109-11-241/Photo-03.jpg; https://www.ntparks.tw/images/views/view-109-11-241/Photo-04.jpg,新北市共融特色公園,ntpc_park_5003_三民公園
二重公園,新北市三重區疏洪東路二段,新北市,三重區,25.066187733957296,121.47294121497306,https://www.ntparks.tw/view-109-12-241.html,無障礙棒球造型滑梯、鳥巢鞦韆、攀爬網、遊戲板,上肢牽引器,以「棒球」為主題的兒童公園，設計棒球造型的溜滑梯、球棒造型沙坑及沙桌、鞦韆區，以及規劃無障礙友善的坡道。,https://www.ntparks.tw/images/views/view-109-12-241/Photo-01.jpg; https://www.ntparks.tw/images/views/view-109-12-241/Photo-02.jpg; https://www.ntparks.tw/images/views/view-109-12-241/Photo-03.jpg; https://www.ntparks.tw/images/views/view-109-12-241/Photo-04.jpg; https://www.ntparks.tw/images/views/view-109-12-241/Photo-05.jpg; https://www.ntparks.tw/images/views/view-109-12-241/Photo-06.jpg; https://www.ntparks.tw/images/views/view-109-12-241/Photo-07.jpg,新北市共融特色公園,ntpc_park_5004_二重公園
福基公園,新北市新莊區福美街、福德三街口,新北市,新莊區,25.058467895990255,121.46001945790621,https://www.ntparks.tw/view-109-13-242.html,無障礙棒球造型滑梯、鳥巢鞦韆、攀爬網、遊戲板,三人轉腰器、太空漫步器、上肢牽引器、雙人浪板,福基公園將既有組合遊具以少部分拆除方式進行優化改善，保留市民共有之記憶，並於周邊增設攀爬架及親子、鳥槽式鞦韆等設施。,https://www.ntparks.tw/images/views/view-109-13-242/Photo-01.jpg; https://www.ntparks.tw/images/views/view-109-13-242/Photo-02.jpg; https://www.ntparks.tw/images/views/view-109-13-242/Photo-03.jpg; https://www.ntparks.tw/images/views/view-109-13-242/Photo-04.jpg; https://www.ntparks.tw/images/views/view-109-13-242/Photo-05.jpg,新北市共融特色公園,ntpc_park_5005_福基公園
中港公園,新北市新莊區中平路82巷22號對面,新北市,新莊區,25.04495398396727,121.44337931430891,https://www.ntparks.tw/view-109-14-242.html,鞦韆、擺盪式鞦韆、攀爬網,轉腰器、浪板器、健騎機、上肢牽引器、漫步器,中港公園設置了新穎的組合遊具、擺盪大索、旋轉攀爬網、體健設施以及本區第一座沙坑等，提供周邊從國小到高中不同年齡層大小朋友的使用需求。,https://www.ntparks.tw/images/views/view-109-14-242/Photo-01.jpg; https://www.ntparks.tw/images/views/view-109-14-242/Photo-02.jpg; https://www.ntparks.tw/images/views/view-109-14-242/Photo-03.jpg; https://www.ntparks.tw/images/views/view-109-14-242/Photo-04.jpg,新北市共融特色公園,ntpc_park_5006_中港公園
開元公園,新北市三重區長元街65巷16弄16號對面,新北市,三重區,25.06620508395731,121.501915014973,https://www.ntparks.tw/view-109-15-241.html,彈跳床、旋轉陀螺及旋轉飛輪,太空漫步器、上肢牽引器、三人轉腰器,遊樂設施分別位於2個區塊，旋轉飛輪及旋轉陀螺設於圓形花台內，花台上有火紅的矮仙丹搭配地墊也採用同色系列，就是要大家釋放熱情的活力；另特別設置彈跳床位於一小丘陵上，旁邊也有一圈喬木圍繞，此兩處皆彷彿是獨立於境外，可以讓大人與小孩能彈跳暫時拋開煩惱，開心玩耍的秘密基地。,https://www.ntparks.tw/images/views/view-109-15-241/Photo-01.jpg; https://www.ntparks.tw/images/views/view-109-15-241/Photo-02.jpg; https://www.ntparks.tw/images/views/view-109-15-241/Photo-03.jpg; https://www.ntparks.tw/images/views/view-109-15-241/Photo-04.jpg; https://www.ntparks.tw/images/views/view-109-15-241/Photo-05.jpg,新北市共融特色公園,ntpc_park_5007_開元公園
建福公園,新北市新莊區建福路49巷底,新北市,新莊區,25.027797983975137,121.42483196497211,https://www.ntparks.tw/view-109-16-242.html,組合遊具(溜滑梯、互動式護欄)、旋轉杯、互動式遊具(建議使用年齡2-12歲),上肢牽引器、太空漫步機、腰背按摩器、扭腰器、健騎機、滑雪器、腹肌板、高低單槓,建福公園兒童遊戲場設有互動式遊具設施，提供有趣又寧靜的遊戲空間，周圍綠意盎然並設有座椅，讓家長能夠舒適地陪伴孩子玩耍。,https://www.ntparks.tw/images/views/view-109-16-242/Photo-01_114.jpg; https://www.ntparks.tw/images/views/view-109-16-242/Photo-02_114.jpg; https://www.ntparks.tw/images/views/view-109-16-242/Photo-03_114.jpg; https://www.ntparks.tw/images/views/view-109-16-242/Photo-04_114.jpg,新北市共融特色公園,ntpc_park_5008_建福公園
雙鳳公園,新北市新莊區雙鳳街56號旁,新北市,新莊區,25.026937538574757,121.41109157592585,https://www.ntparks.tw/view-109-17-242.html,攀爬網、土堤式滑梯、沙坑、挖土機,肩關節康復器、太空漫步器、上肢牽引器、大轉輪,雙鳳公園設置了新莊第一座磨石子溜滑梯及新穎的攀爬網、搖擺鯊魚鰭等設施，打造具有特色的兒童遊戲場。,https://www.ntparks.tw/images/views/view-109-17-242/Photo-01.jpg?v=1; https://www.ntparks.tw/images/views/view-109-17-242/Photo-02.jpg?v=1; https://www.ntparks.tw/images/views/view-109-17-242/Photo-03.jpg?v=1; https://www.ntparks.tw/images/views/view-109-17-242/Photo-04.jpg?v=1,新北市共融特色公園,ntpc_park_5009_雙鳳公園
大智公園,新北市三重區大同北路85號,新北市,三重區,25.06330498387996,121.49241495006693,https://www.ntparks.tw/view-109-18-241.html,大型塑木鋼構平台、楓葉滑梯組、水管蹺蹺板、共融轉盤、水管滑索、鳥巢鞦韆,雙人漫步器、雙人健騎機,以自來水為主題設置水管造型遊具，讓大小朋友愛不釋手，此外洗手台也加上了水錶，半圓形的座椅則是由大型水泥管製作披上人造草皮，每項設施都結合自來水元素。,https://www.ntparks.tw/images/views/view-109-18-241/Photo-01.jpg; https://www.ntparks.tw/images/views/view-109-18-241/Photo-02.jpg; https://www.ntparks.tw/images/views/view-109-18-241/Photo-03.jpg; https://www.ntparks.tw/images/views/view-109-18-241/Photo-04.jpg; https://www.ntparks.tw/images/views/view-109-18-241/Photo-05.jpg,新北市共融特色公園,ntpc_park_5010_大智公園
瓊泰河濱公園,新北市新莊區瓊泰路 94 巷 17 號旁,新北市,新莊區,25.032228456687093,121.41883441380807,https://www.ntparks.tw/view-109-19-242.html,組合式遊具、鳥巢盪鞦韆,平衡木、單槓,"新莊瓊泰河濱公園一直是附近銀髮族聚會的場所，因此本次的擴建工程，針對使用者的需求，增加「平衡力」、「反應協調能力」、「上、下肢肌力伸展」等項目的體健設施，並透過設施的整合，將傳統四散各處的單一設備，整合為綜合功能的體健組合，讓民眾活動筋骨的同時，更能一同閒話家常、活絡情感。 
      &nbsp;此外，為豐富原先兒童遊戲場的內容，也增設了鞦韆與礫石遊戲區，並採工業元素齒輪、管道等元素，以滾動的圓形與流動的管道融入公園設計，配合彩繪與鮮明的配色使公園呈現出陽光清爽的活潑氣息。",https://www.ntparks.tw/images/views/view-109-19-242/Photo-01.jpg; https://www.ntparks.tw/images/views/view-109-19-242/Photo-02.jpg; https://www.ntparks.tw/images/views/view-109-19-242/Photo-03.jpg; https://www.ntparks.tw/images/views/view-109-19-242/Photo-04.jpg; https://www.ntparks.tw/images/views/view-109-19-242/Photo-05.jpg; https://www.ntparks.tw/images/views/view-109-19-242/Photo-06.jpg; https://www.ntparks.tw/images/views/view-109-19-242/Photo-07.jpg,新北市共融特色公園,ntpc_park_5011_瓊泰河濱公園
國光段社會住宅區內公園,新北市三峽區國光街38巷底,新北市,三峽區,24.93727987401918,121.37683356084858,https://www.ntparks.tw/view-109-20-237.html,滑梯,伸腰伸背器、太空漫步器、坐推坐拉訓練器,三峽區國光段社會住宅區內的新闢公園屬於社區型公園，園內設有1座滑梯及體健設施，不僅適合小朋友遊憩，銀髮族的長輩也可至公園散步、運動，讓附近住戶能享受親子共遊。,https://www.ntparks.tw/images/views/view-109-20-237/Photo-01.jpg; https://www.ntparks.tw/images/views/view-109-20-237/Photo-02.jpg; https://www.ntparks.tw/images/views/view-109-20-237/Photo-03.jpg; https://www.ntparks.tw/images/views/view-109-20-237/Photo-04.jpg,新北市共融特色公園,ntpc_park_5012_國光段社會住宅區內公園
大清水運動公園,新北市土城區清水高中對面,新北市,土城區,24.98090904657392,121.46416441394983,https://www.ntparks.tw/view-109-21-236.html,攀爬網、鳥巢盪鞦韆,單槓,體現共融的目標，公園內除了設置5至12歲孩童使用之繩索攀爬架外，另設置一組共融式盪鞦韆，多人可共同擺盪，也有5歲以下幼童專用盪鞦韆，提供孩童更多樣化遊戲選擇。,https://www.ntparks.tw/images/views/view-109-21-236/Photo-01.jpg; https://www.ntparks.tw/images/views/view-109-21-236/Photo-02.jpg; https://www.ntparks.tw/images/views/view-109-21-236/Photo-03.jpg; https://www.ntparks.tw/images/views/view-109-21-236/Photo-04.jpg,新北市共融特色公園,ntpc_park_5013_大清水運動公園
立言公園,新北市林口區忠孝一路與三民路口,新北市,林口區,25.073160133953994,121.36029061430965,https://www.ntparks.tw/view-109-22-244.html,無,漫步機、太極輪,利用滯洪池地形，打造低齡腳踏車練習樂園，以星際冒險為主題，供2-6歲孩童使用小輪徑自行車、滑步車或滑板車，練習的同時如同在太空遨遊。,https://www.ntparks.tw/images/views/view-109-22-244/Photo-01.jpg; https://www.ntparks.tw/images/views/view-109-22-244/Photo-02.jpg; https://www.ntparks.tw/images/views/view-109-22-244/Photo-03.jpg; https://www.ntparks.tw/images/views/view-109-22-244/Photo-04.jpg; https://www.ntparks.tw/images/views/view-109-22-244/Photo-05.jpg; https://www.ntparks.tw/images/views/view-109-22-244/Photo-06.jpg; https://www.ntparks.tw/images/views/view-109-22-244/Photo-07.jpg,新北市共融特色公園,ntpc_park_5014_立言公園
逗逗龍公園,新北市八里區商港八路與商港一路口,新北市,八里區,24.97092663816664,121.3315648886216,https://www.ntparks.tw/view-109-23-239.html,鯨魚主題，鯨魚造型溜滑梯(共融式)、鞦韆、搖搖樂、共融式旋轉盤、攀爬設施、翹翹板、潛水夫遊戲板,肩關節康復器、雙人伸腰伸背器、三人扭腰器、上肢牽引器、雙人漫步機,八里商港公園為新北市特色公園，全台第一座鯨魚地景的無障礙公園，結合了體建設施及遊戲場，是個適合闔家遊玩的好去處。,https://www.ntparks.tw/images/views/view-109-23-239/Photo-01.jpg; https://www.ntparks.tw/images/views/view-109-23-239/Photo-02.jpg; https://www.ntparks.tw/images/views/view-109-23-239/Photo-03.jpg; https://www.ntparks.tw/images/views/view-109-23-239/Photo-04.jpg; https://www.ntparks.tw/images/views/view-109-23-239/Photo-05.jpg,新北市共融特色公園,ntpc_park_6000_逗逗龍公園
芳洲公園,新北市五股區芳洲二路與芳洲五路交叉口,新北市,五股區,25.086980636155022,121.44237347592734,https://www.ntparks.tw/view-109-24-248.html,磨石子溜滑梯、攀爬網、共融式鞦韆、轉盤、蹺蹺板、旋轉杯及綜合遊具組,高低單槓、上肢牽引器、太空漫步器、大轉輪,芳洲公園設計主軸是希望在有限的腹地裡，儘可能滿足不同年齡、性別、族群的需求，公園內「土丘遊戲場」設有磨石子滑梯及攀爬網，適合大孩子來挑戰；隔個走道就是「平面遊戲場」，場內有共融式鞦韆、轉盤及蹺蹺板，讓大小朋友及身障孩童一起嬉戲、玩耍，另有綜合遊具組、旋轉杯及搖搖馬等適合小小孩使用的遊具，供家長陪伴孩童體驗遊戲的樂趣。,https://www.ntparks.tw/images/views/view-109-24-248/Photo-01.jpg; https://www.ntparks.tw/images/views/view-109-24-248/Photo-02.jpg; https://www.ntparks.tw/images/views/view-109-24-248/Photo-03.jpg; https://www.ntparks.tw/images/views/view-109-24-248/Photo-04.jpg; https://www.ntparks.tw/images/views/view-109-24-248/Photo-05.jpg; https://www.ntparks.tw/images/views/view-109-24-248/Photo-06.jpg; https://www.ntparks.tw/images/views/view-109-24-248/Photo-07.jpg,新北市共融特色公園,ntpc_park_6001_芳洲公園
音樂公園,新北市板橋區大同街70號,新北市,板橋區,25.027670938545352,121.47787857592597,https://www.ntparks.tw/view-109-25-220.html,地景式攀爬網、時空隧道攀爬網、共融式單人盪鞦韆、兒童遊戲沙桌、搖搖馬、旋轉椅及磨石子溜滑梯,高低單槓、上肢牽引器、太空漫步器、伸腰伸背器,依據設計概念於下沉式廣場區域配置遊戲場，其中包含共融性遊具(地景式攀爬網、時空隧道攀爬網、共融式單人盪鞦韆)及兒童遊戲沙桌、搖搖馬、旋轉椅、2座磨石子溜滑梯。,https://www.ntparks.tw/images/views/view-109-25-220/Photo-01.jpg; https://www.ntparks.tw/images/views/view-109-25-220/Photo-02.jpg,新北市共融特色公園,ntpc_park_6002_音樂公園
永康公園,新北市蘆洲區長安街204號,新北市,蘆洲區,25.08517019239453,121.45692201395238,https://www.ntparks.tw/view-109-26-247.html,弧形平行梯、球形攀爬網、踏板攀爬繩、八字吊環及磨石子溜滑梯,無,蘆洲永康公園周邊多為未附設停車空間的老舊社區，經調查評估及協調地方民意後，利用公園用地多目標使用興建地下3層停車場，並以「省能源、省資源、低污染」的綠建築為設計理念，採用自然通風對流，提供舒適與環保兼具的停車環境；同時，交通局配合市府跨局處工作小組共同推動「公園全齡化或特色共融遊戲場改善計畫」，重新打造永康公園兒童遊戲場，內設置1座共融性遊具組及1座磨石子溜滑梯。,https://www.ntparks.tw/images/views/view-109-26-247/Photo-01.jpg; https://www.ntparks.tw/images/views/view-109-26-247/Photo-02.jpg; https://www.ntparks.tw/images/views/view-109-26-247/Photo-03.jpg; https://www.ntparks.tw/images/views/view-109-26-247/Photo-04.jpg; https://www.ntparks.tw/images/views/view-109-26-247/Photo-05.jpg,新北市共融特色公園,ntpc_park_6003_永康公園
城中兒童共融遊戲場,新北市汐止區建成路188號旁,新北市,汐止區,25.07383044324839,121.6610170708978,https://www.ntparks.tw/view-109-27-221.html,水塗鴉牆、磨石子滑梯、攀爬設施,無,汐止城中遊戲場是個結合「水」及「煉鐵」文化的共融式兒童遊戲場，設施包含繪畫創意的水塗鴉牆、專為大齡孩童設計訓練手臂肌力的多項攀爬設施，及分成幼齡及大齡孩童滑道的磨石子滑梯，其中最大特色係利用高架平台打造的複層遊戲空間，藉以讓孩童近距觀察樹冠層、探索大自然，而該地區早期為煉鐵產業重鎮，因此將煉鐵沿革融入於周邊牆面，讓孩童從遊戲中學習歷史，瞭解水與煉鐵文化密不可分。,https://www.ntparks.tw/images/views/view-109-27-221/Photo-01.jpg; https://www.ntparks.tw/images/views/view-109-27-221/Photo-02.jpg; https://www.ntparks.tw/images/views/view-109-27-221/Photo-03.jpg; https://www.ntparks.tw/images/views/view-109-27-221/Photo-04.jpg; https://www.ntparks.tw/images/views/view-109-27-221/Photo-05.jpg,新北市共融特色公園,ntpc_park_6004_城中兒童共融遊戲場
65橋下新設遊戲場,新北市新莊區堤外高灘地台65快速道路橋下空間,新北市,新莊區,25.023689838705558,121.44148407592584,https://www.ntparks.tw/view-109-28-242.html,旋轉盤、搖滾盤、交叉爬網、平衡索架、雙道滑索、積木、沙坑及沙桌、繩橋,三人壓腿器、漫步機、大小輪轉手腕運動、無障礙坐推坐拉訓練器,新北市府於大漢溪左岸新莊河濱增設共融遊戲場，結合競速溜冰場及棒球場等運動場地，成為市民休息遊憩好去處。,https://www.ntparks.tw/images/views/view-109-28-242/Photo-01.jpg; https://www.ntparks.tw/images/views/view-109-28-242/Photo-02.jpg; https://www.ntparks.tw/images/views/view-109-28-242/Photo-03.jpg; https://www.ntparks.tw/images/views/view-109-28-242/Photo-04.jpg,新北市共融特色公園,ntpc_park_6005_65橋下新設遊戲場
兒童公園,新北市雙溪區東榮街54號,新北市,雙溪區,25.032661883894338,121.86489055026713,https://www.ntparks.tw/view-110-02-227.html,共融轉盤、搖搖馬、大象雙板搖搖樂、蹺蹺板,雙人太空漫步、太極輪、伸腰伸背器、上肢牽引器、扭腰器、健騎機、肩關節康復器,以性平企鵝為主題，讓兒童在遊戲中學習，並在公園設置共融轉盤及適合幼齡兒童使用的搖搖樂、蹺蹺板。,https://www.ntparks.tw/images/views/view-110-02-227/Photo-01.jpg; https://www.ntparks.tw/images/views/view-110-02-227/Photo-02.jpg,新北市共融特色公園,ntpc_park_6006_兒童公園
櫻花公園,新北市三芝區中正路3段埔頭橋旁,新北市,三芝區,25.25106050957005,121.49991439792328,https://www.ntparks.tw/view-110-03-252.html,水車意象溜滑梯、鳥巢鞦韆、搖搖樂、水畫牆,無,櫻花公園目前是三芝區第1座特色共融遊戲場，設置了逼真可愛的茭白筍椅子、生動活潑的水車造型溜滑梯、鳥巢鞦韆及櫻花水繪地坪等，充分將三芝區的地方特色文化共融，無論小朋友大朋友只要置身其中，就能感受到三芝的在地人文風情，成為三芝最新的觀光亮點。,https://www.ntparks.tw/images/views/view-110-03-252/Photo-01.jpg; https://www.ntparks.tw/images/views/view-110-03-252/Photo-02.jpg; https://www.ntparks.tw/images/views/view-110-03-252/Photo-03.jpg; https://www.ntparks.tw/images/views/view-110-03-252/Photo-04.jpg; https://www.ntparks.tw/images/views/view-110-03-252/Photo-05.jpg,新北市共融特色公園,ntpc_park_6007_櫻花公園
灣潭兒童遊戲場,,新北市,新店區,24.95088774163217,121.53421407592418,https://www.ntparks.tw/view-110-04-231.html,攀爬塊、攀爬繩、管狀溜滑梯、大碗公溜滑梯、繩吊床、平衡木,仰臥舉腿設施,灣潭兒童遊戲場以蝴蝶翩翩飛舞的意象，勾勒出遊戲場的各分區空間，結合既有的綠坡，將蝴蝶翅膀轉化為溜滑梯區及攀爬區等，並且由渡船時於水上的搖動聯想，規劃一系列高低起伏搖擺的感受，而會晃動、擺動的設施如繩吊床、動態平衡木、平衡設施等，期能刺激兒童感覺統合及平衡之發展。,https://www.ntparks.tw/images/views/view-110-04-231/Photo-01.jpg; https://www.ntparks.tw/images/views/view-110-04-231/Photo-02.jpg; https://www.ntparks.tw/images/views/view-110-04-231/Photo-03.jpg; https://www.ntparks.tw/images/views/view-110-04-231/Photo-04.jpg; https://www.ntparks.tw/images/views/view-110-04-231/Photo-05.jpg; https://www.ntparks.tw/images/views/view-110-04-231/Photo-06.jpg; https://www.ntparks.tw/images/views/view-110-04-231/Photo-07.jpg; https://www.ntparks.tw/images/views/view-110-04-231/Photo-08.jpg; https://www.ntparks.tw/images/views/view-110-04-231/Photo-09.jpg; https://www.ntparks.tw/images/views/view-110-04-231/Photo-10.jpg,新北市共融特色公園,ntpc_park_6008_灣潭兒童遊戲場
育德公園,新北市樹林區佳園路一段72巷、育德街口,新北市,樹林區,24.969515040884115,121.38812257592463,https://www.ntparks.tw/view-110-05-238.html,四人彈力翹翹板、攀爬網,雙人漫步器、划船器、健騎機、monkey bar,育德公園由新建工程處開闢佳德路的同時一併開闢，屬於鄰里型公園，設置共融遊戲場及體健設施，也包含攀爬網等共融遊具，供地方里民休憩。,https://www.ntparks.tw/images/views/view-110-05-238/Photo-01.jpg; https://www.ntparks.tw/images/views/view-110-05-238/Photo-02.jpg; https://www.ntparks.tw/images/views/view-110-05-238/Photo-04.jpg; https://www.ntparks.tw/images/views/view-110-05-238/Photo-06.jpg; https://www.ntparks.tw/images/views/view-110-05-238/Photo-07.jpg,新北市共融特色公園,ntpc_park_6009_育德公園
彭厝親子公園(公15),新北市樹林區四維路、國凱街口,新北市,樹林區,24.979813040470322,121.41927707592492,https://www.ntparks.tw/view-110-06-238.html,遊戲塔、筒狀滑梯、沙坑、沙桌、旋轉盤,雙人漫步機、高低單槓組、三人轉腰器、雙人大轉輪,公園鄰近彭厝派出所，因此以波麗士(police)發想打造主題公園，全區設施採分齡式設計，除了有適合長者的簡易步道、低強度體健設施外，也有適合孩童遊樂的遊戲塔、筒狀滑梯、沙坑等遊具。,https://www.ntparks.tw/images/views/view-110-06-238/Photo-01.jpg; https://www.ntparks.tw/images/views/view-110-06-238/Photo-02.jpg; https://www.ntparks.tw/images/views/view-110-06-238/Photo-03.jpg; https://www.ntparks.tw/images/views/view-110-06-238/Photo-04.jpg; https://www.ntparks.tw/images/views/view-110-06-238/Photo-05.jpg; https://www.ntparks.tw/images/views/view-110-06-238/Photo-06.jpg; https://www.ntparks.tw/images/views/view-110-06-238/Photo-07.jpg,新北市共融特色公園,ntpc_park_6010_彭厝親子公園(公15)
三德公園,新北市三重區龍門路274巷36號,新北市,三重區,25.07534718387426,121.49869665082488,https://www.ntparks.tw/view-110-07-241.html,共融蹺蹺板、旋轉陀輪、共融搖搖樂、搖搖馬、鞦韆及罐頭遊具,高低單槓、雙人大轉輪、上肢牽引器、雙人坐蹬器,三德公園鄰近住宅區，使用人口眾多，僅一組罐頭遊具已不敷使用，於110年增設多項共融遊具，以豐富遊戲空間。,https://www.ntparks.tw/images/views/view-110-07-241/Photo-01.jpg; https://www.ntparks.tw/images/views/view-110-07-241/Photo-02.jpg; https://www.ntparks.tw/images/views/view-110-07-241/Photo-03.jpg,新北市共融特色公園,ntpc_park_6011_三德公園
宗北公園,新北市林口區中北二街轉角與民享路轉角之間,新北市,林口區,25.088234083868173,121.38218715082532,https://www.ntparks.tw/view-113-03-244.html,波浪攀爬設施,雙人漫步機、肩關節康復器、三人扭腰器、雙人坐推器,宗北公園為滯洪池公園，規劃時考量安全與景觀性，結合原有地形設置一組波浪攀爬設施及無障礙坡道，並設置體健設施區提供民眾休閒健身。,https://www.ntparks.tw/images/views/view-113-03-244/Photo-01.jpg; https://www.ntparks.tw/images/views/view-113-03-244/Photo-02.jpg; https://www.ntparks.tw/images/views/view-113-03-244/Photo-03.jpg; https://www.ntparks.tw/images/views/view-113-03-244/Photo-04.jpg,新北市共融特色公園,ntpc_park_6012_宗北公園
中興公園,新北市中興路三段126號巷內,新北市,新店區,24.981266483918535,121.54367715026594,https://www.ntparks.tw/view-110-09-231.html,童話城堡(上下層高低溜滑梯、攀爬繩網、爬管、傳聲筒等)、南瓜馬車蹺蹺板、彈跳設備、旋轉椅,雙人漫步機、三人扭腰器,一座以童話為主軸的遊戲城堡，成為中興公園中新的亮點意象，穿梭在遊戲場中的大朋友小朋友如同成為童話故事主角。,https://www.ntparks.tw/images/views/view-110-09-231/Photo-01.jpg; https://www.ntparks.tw/images/views/view-110-09-231/Photo-02.jpg; https://www.ntparks.tw/images/views/view-110-09-231/Photo-03.jpg; https://www.ntparks.tw/images/views/view-110-09-231/Photo-04.jpg; https://www.ntparks.tw/images/views/view-110-09-231/Photo-05.jpg,新北市共融特色公園,ntpc_park_6013_中興公園
辭修公園,新北市泰山區辭修路底,新北市,泰山區,25.058219201322036,121.42510446091019,https://www.ntparks.tw/view-110-10-243.html,環狀攀爬網、旋轉蹺蹺板、鳥巢鞦韆、平衡木、挖土遊具、沙坑,無,改善後的遊戲場以大自然的原木、細沙等自然元素配合周圍樹林環境，打造一個讓孩童能訓練攀爬能力與膽量的環境，如小小泰山般穿梭於大自然中。,https://www.ntparks.tw/images/views/view-110-10-243/Photo-01.jpg; https://www.ntparks.tw/images/views/view-110-10-243/Photo-02.jpg; https://www.ntparks.tw/images/views/view-110-10-243/Photo-03.jpg; https://www.ntparks.tw/images/views/view-110-10-243/Photo-04.jpg; https://www.ntparks.tw/images/views/view-110-10-243/Photo-05.jpg; https://www.ntparks.tw/images/views/view-110-10-243/Photo-06.jpg; https://www.ntparks.tw/images/views/view-110-10-243/Photo-07.jpg,新北市共融特色公園,ntpc_park_6014_辭修公園
深坑兒童遊戲公園,新北市深坑區平埔街3號(文化街及平埔街口),新北市,深坑區,25.001701945739104,121.61353331514121,https://www.ntparks.tw/view-110-11-222.html,溜滑梯、平衡木、攀爬網、monkey bar、蹺蹺板,單槓、三人扭腰器、雙人大轉輪、雙人浪板,以原木材料構造為遊戲場改善主軸，除溜滑梯外，融合攀爬、擺盪、平衡、溜滑及跳躍等遊戲方式，鋪面採用鬆填式鋪面（細礫石），刺激幼童感覺統合發展，讓孩子樂在其中。,https://www.ntparks.tw/images/views/view-110-11-222/Photo-01.jpg; https://www.ntparks.tw/images/views/view-110-11-222/Photo-02.jpg; https://www.ntparks.tw/images/views/view-110-11-222/Photo-03.jpg; https://www.ntparks.tw/images/views/view-110-11-222/Photo-04.jpg; https://www.ntparks.tw/images/views/view-110-11-222/Photo-05.jpg; https://www.ntparks.tw/images/views/view-110-11-222/Photo-06.jpg; https://www.ntparks.tw/images/views/view-110-11-222/Photo-07.jpg,新北市共融特色公園,ntpc_park_7000_深坑兒童遊戲公園
慈愛公園,新北市三重區仁美街108巷13號,新北市,三重區,25.080903183871595,121.4826281502682,https://www.ntparks.tw/view-110-12-241.html,隧道滑梯、旋轉吊椅、攀爬架以及蝴蝶泡泡等主題遊戲版,漫步機、伸腰伸背器、上肢牽引器,以乳酪為主題，遊具上方還有一隻可愛老鼠，而在遊具小巧的空間內，設計了攀爬架、旋轉吊椅及隧道滑梯讓愛動的小朋友能盡情玩耍，在第二層也設計了蝴蝶採蜜、泡泡鏡及賓果遊戲版，讓喜愛靜態活動的小朋友也能有完整的遊玩體驗。,https://www.ntparks.tw/images/views/view-110-12-241/Photo-01.jpg; https://www.ntparks.tw/images/views/view-110-12-241/Photo-02.jpg; https://www.ntparks.tw/images/views/view-110-12-241/Photo-03.jpg; https://www.ntparks.tw/images/views/view-110-12-241/Photo-04.jpg,新北市共融特色公園,ntpc_park_7001_慈愛公園
德厚公園,新北市三重區重新路5段283號對面,新北市,三重區,25.0492817838866,121.47646015026747,https://www.ntparks.tw/view-110-13-241.html,四人蹺蹺板、彈跳設施、旋轉盤,單槓、太空漫步器,此遊戲場係以青蛙王子為主題，舖設青蛙、天鵝及荷葉圖案設計之彈性無縫地墊，遊具選用彈跳床、旋轉盤及青蛙造型四人翹翹板，讓愛動的小朋友能在彈跳床上盡情跳躍，小小朋友則可在四人蹺蹺板上遊玩，在安全的環境中滿足各種年齡層的不同體驗。,https://www.ntparks.tw/images/views/view-110-13-241/Photo-01.jpg; https://www.ntparks.tw/images/views/view-110-13-241/Photo-02.jpg; https://www.ntparks.tw/images/views/view-110-13-241/Photo-03.jpg,新北市共融特色公園,ntpc_park_7002_德厚公園
慈化公園,新北市三重區溪尾街327號,新北市,三重區,25.084485983870014,121.4862719502683,https://www.ntparks.tw/view-110-14-241.html,滑梯組、紐扣翹翹板、紐扣搖搖樂、牛頭木平臺、擺盪大索、拉鏈攀岩組,漫步機、太極輪、伸腰伸背器、上肢牽引器、單槓,公園鄰近碧華布街，取樣布匹、紡織的相關配件材料，以及代表辛勞勤奮工作的台灣水牛，做為公園主題發想點，設置布牛遊戲組、紐扣翹翹板等特色遊具。,https://www.ntparks.tw/images/views/view-110-14-241/Photo-01.jpg; https://www.ntparks.tw/images/views/view-110-14-241/Photo-02.jpg; https://www.ntparks.tw/images/views/view-110-14-241/Photo-03.jpg; https://www.ntparks.tw/images/views/view-110-14-241/Photo-04.jpg,新北市共融特色公園,ntpc_park_7003_慈化公園
龍鳳公園,新北市新莊區龍安路(丹鳳國中對面),新北市,新莊區,25.02144568389957,121.41431615026693,https://www.ntparks.tw/view-110-15-242.html,船型遊具(結合滑梯、攀爬設施、沙桌及沙坑)、三人懸吊旋轉遊具、鳥巢鞦韆、擺盪大索、船桅攀爬架,滑雪器、漫步機、太極輪、伸腰伸背器、上肢牽引器,公園內林蔭蓊鬱有一啞口坑溪穿越，配合現地環境，將遊戲場主題定調為「冒險島」，用純手工打造之船型遊具，帶領小朋友們探險，並設置象徵熱帶氣旋的懸吊旋轉遊具，適合各年齡層的兒童遊玩，讓龍鳳公園成為一個大家更喜愛的公園。,https://www.ntparks.tw/images/views/view-110-15-242/Photo-01.jpg; https://www.ntparks.tw/images/views/view-110-15-242/Photo-02-2025.jpg; https://www.ntparks.tw/images/views/view-110-15-242/Photo-03-2025.jpg; https://www.ntparks.tw/images/views/view-110-15-242/Photo-04.jpg; https://www.ntparks.tw/images/views/view-110-15-242/Photo-05-2025.jpg; https://www.ntparks.tw/images/views/view-110-15-242/Photo-06-2025.jpg; https://www.ntparks.tw/images/views/view-110-15-242/Photo-07-2025.jpg,新北市共融特色公園,ntpc_park_7004_龍鳳公園
瑪鋉運動公園,新北市中萬里加投段瑪鋉港口小段269-20、269-28地號,新北市,萬里區,25.175052183827543,121.68770005027042,https://www.ntparks.tw/view-109-29-207.html,大型長頸鹿造型溜滑梯,三人轉腰、三人高中低單槓、單人漫步機、引體訓練器、雙人大轉輪,"1.大型長頸鹿兒童滑梯： 考量萬里區靠海多雨導致金屬材質器材容易腐蝕之特性，兒童滑梯除欄杆部分外，餘均採石材設計，防蝕耐久，大幅降低維護成本及降低夏日高溫燙傷之風險。&nbsp;
            2.體健設施： 包含三人轉腰器、三人單槓、單人漫步器、引體訓練器、雙輪大轉輪器各1座，使年長者在陪伴兒童於滑梯場地玩耍之餘，亦能同時進行輕量體能運動。",https://www.ntparks.tw/images/views/view-109-29-207/Photo-01.jpg; https://www.ntparks.tw/images/views/view-109-29-207/Photo-02.jpg; https://www.ntparks.tw/images/views/view-109-29-207/Photo-03.jpg; https://www.ntparks.tw/images/views/view-109-29-207/Photo-04.jpg; https://www.ntparks.tw/images/views/view-109-29-207/Photo-05.jpg; https://www.ntparks.tw/images/views/view-109-29-207/Photo-06.jpg; https://www.ntparks.tw/images/views/view-109-29-207/Photo-07.jpg,新北市共融特色公園,ntpc_park_7005_瑪鋉運動公園
永盛公園,新北市三重區車路頭街133號,新北市,三重區,25.075996433873875,121.48259595026796,https://www.ntparks.tw/view-110-16-241.html,"1.浪漫愛情城堡為主題搭配愛心吊椅、彩色木馬等各種設施，地面的彩色無縫地墊還有I love U 字樣。&nbsp;
            2.小型綜合溜滑梯遊戲組(供年幼的小朋友使用)。",單槓、漫步機、雙人腹肌板、上肢牽引器,地處三和國中捷運站附近，對面即是義天宮及車路頭街商圈，人口密集，公園內休憩人數眾多。新建造遊具以浪漫愛情城堡為主題搭配愛心吊椅、彩色木馬等各種設施，地面的無縫地墊還有I love U 字樣，使人如置身夢幻城堡及遊樂園，不僅適合小朋友，要結婚的新人可以到此來拍攝婚紗，也可來此照相打卡。,https://www.ntparks.tw/images/views/view-110-16-241/Photo-01.jpg; https://www.ntparks.tw/images/views/view-110-16-241/Photo-02.jpg; https://www.ntparks.tw/images/views/view-110-16-241/Photo-03.jpg,新北市共融特色公園,ntpc_park_7006_永盛公園
馬公公園,新北市新店區北新路一段92號,新北市,新店區,24.968342883924578,121.5403368502657,https://www.ntparks.tw/view-110-17-231.html,船型遊具組、滑索、滑軌、彈跳床,高低單槓、太空漫步機、伸腰伸背機、健騎機、三人扭腰器,馬公小小航海家遊戲場，設計概念是將遊戲場比擬為大海，孩童在船形遊具上如同航海家，航行於大海中，冒險的過程中遇有小島或是陸地，同時結合滑軌、溜索及彈跳床，體驗不同冒險樂趣。此外，園區內也同步規劃體健區，真正落實大朋友小朋友共同樂活休閒空間。,https://www.ntparks.tw/images/views/view-110-17-231/Photo-01.jpg; https://www.ntparks.tw/images/views/view-110-17-231/Photo-02.jpg; https://www.ntparks.tw/images/views/view-110-17-231/Photo-03.jpg; https://www.ntparks.tw/images/views/view-110-17-231/Photo-04.jpg; https://www.ntparks.tw/images/views/view-110-17-231/Photo-05.jpg; https://www.ntparks.tw/images/views/view-110-17-231/Photo-06.jpg; https://www.ntparks.tw/images/views/view-110-17-231/Photo-07.jpg,新北市共融特色公園,ntpc_park_7007_馬公公園
黃城公園,新北市新莊區中榮街與中信街口,新北市,新莊區,25.052448383884975,121.44617585026755,https://www.ntparks.tw/view-110-18-242.html,高塔溜滑梯、旋轉盤、翹翹板、搖搖馬、組合遊具,扭腰器、太空漫步器、上肢牽引器、肩關節康復器、健騎機、高低槓,黃城公園鄰近榮富國小，下課時間常聚集小朋友在遊戲場遊玩，為提供小朋友更豐富的遊樂感受，2021年改建更新遊戲場，以火箭型高塔為主軸，搭配旋轉滑梯，一旁還有旋轉盤、翹翹板及搖搖馬。遊戲場旁另闢一座組合遊具供學齡前兒童使用。園內另有廣場、體健設施及水車生態池，供民眾散步遊憩，是個適合親子共享、闔家歡樂的公園。,https://www.ntparks.tw/images/views/view-110-18-242/Photo-01.jpg; https://www.ntparks.tw/images/views/view-110-18-242/Photo-02.jpg; https://www.ntparks.tw/images/views/view-110-18-242/Photo-03.jpg; https://www.ntparks.tw/images/views/view-110-18-242/Photo-04.jpg; https://www.ntparks.tw/images/views/view-110-18-242/Photo-05.jpg; https://www.ntparks.tw/images/views/view-110-18-242/Photo-06.jpg; https://www.ntparks.tw/images/views/view-110-18-242/Photo-07.jpg,新北市共融特色公園,ntpc_park_7008_黃城公園
文中八公園,新北市淡水區北新路69巷與北新路169巷口,新北市,淡水區,25.180016783825245,121.44409755027033,https://www.ntparks.tw/view-110-20-251.html,組合式遊具(包含溜滑梯及攀爬設施)、鳥巢式盪鞦韆、溜索、搖搖樂,高低單槓、上肢牽引器、漫步器、扭轉器,本次設施增設之公園位於北新路69巷內，周邊社區林立且人口密集，惟公園內缺乏可供兒童使用之兒童遊具與適合長者之體健器材，故本次在公園裡的兒童遊戲場中增設孩子們最喜歡的溜索，讓孩童體驗新式且刺激的兒童遊具，此外為了增添遊戲場的豐富程度，亦增設1組多功能型的特色遊具，包含了溜滑梯、攀爬網等多元設施，且在有限的空間內也增加普遍性小朋友都喜歡的盪鞦韆與搖搖樂，將一般小朋友最喜愛的兒童遊戲設施都規劃進來，此外為鼓勵民眾外出活動，公園內也設置上肢牽引器、漫步機、扭腰器及單槓等體健設施，加強民眾「平衡力」、「反應協調能力」及「上、下肢肌力伸展」等活動。,https://www.ntparks.tw/images/views/view-110-20-251/Photo-01.jpg; https://www.ntparks.tw/images/views/view-110-20-251/Photo-02.jpg; https://www.ntparks.tw/images/views/view-110-20-251/Photo-03.jpg; https://www.ntparks.tw/images/views/view-110-20-251/Photo-04.jpg; https://www.ntparks.tw/images/views/view-110-20-251/Photo-05.jpg,新北市共融特色公園,ntpc_park_7009_文中八公園
建成公園,新北市瑞芳區中正路與民權街25巷交叉口,新北市,瑞芳區,25.106977735347947,121.80607637592776,https://www.ntparks.tw/view-110-21-224.html,攀爬遊具通道 ( 攀爬網、拉繩以及雙滑梯設施 ),單人健騎器、雙人大轉輪、輪椅上肢牽引器、雙人漫步機,公園以「書本」為主題，公園中心站立一座打開的彩虹書本意象特色遊具，由一雙向攀爬遊具通道以及雙滑梯設施所構成，有別以往開方式遊具，設計較多開口、通道空間，孩童可透過爬上爬下，探索屬於自己的秘密基地。彩虹書頁象徵孩童豐富多變的想像力，垂直於書頁背牆雕刻字體寫著:「翻.閱」、「THINK DIFFERENT」等字樣，透過光影打在書頁上，如同書頁內文，述說翻閱書本能開發腦力，帶給大家創意無限，傳達「翻閱想像遊樂無限」之設計理念。不只特色遊具，亦打造了適合年長者活動之體健樂活區、花台座椅休憩區…等。階梯及外牆彩繪了色彩豐富的書本、書櫃以及可愛的貓咪，點綴了地方色彩，成為老少咸宜，郊遊拍照打卡新亮點。,https://www.ntparks.tw/images/views/view-110-21-224/Photo-01.jpg; https://www.ntparks.tw/images/views/view-110-21-224/Photo-02.jpg; https://www.ntparks.tw/images/views/view-110-21-224/Photo-03.jpg,新北市共融特色公園,ntpc_park_7010_建成公園
頭前運動公園,新北市新莊區頭前路119號旁,新北市,新莊區,25.051125983885576,121.46060295026747,https://www.ntparks.tw/view-110-22-242.html,磨石子滑梯、彈跳床、沙坑、樹梢觀察站、原木探險組、天梯體能組,高低單槓、上肢牽引器、太空漫步器、健騎機,頭前運動公園配合現地環境，原有的罐頭遊具已不堪使用，本次打造特色遊戲場，將主題定調為漫步森林冒險島，用樹梢觀察站讓孩童在遊樂中可以體驗到站在樹梢上往下看，是多麼的震撼，體驗到原來樹上的世界這麼不一樣，也可以透過螺旋步道，全方位的觀看整個遊戲場。 另在既有草坡設置上設置原木探險區結合自然地景的體能訓練設施－跳樁、平衡木及平衡橋，讓孩童配合地形高低與原木之間的變化，尋找不同刺激的探險路徑加上旁邊寬大的磨石子溜滑梯，為草坡創造更刺激的遊戲體驗。 還有大彈跳床設置於遊戲場中心位置，不光是學習彈跳地身體穩定度，亦可讓孩童在遊玩過程中，透過彈跳觀察四周的環境，選擇下一個遊玩的目標。 大面積的沙坑與沙桌，則可帶領孩童用不同的方式遊玩沙坑，旁邊的無障礙坡道亦可提供坐輪椅的小朋友一同戲沙，遮陽布與鄰近的洗手台，讓此區跳脫他處的沙坑空間，更加友善。 提供給12-17歲的青少年挑戰的天梯體能組，可增強體能訓練、協調及肌耐力，讓青少年也有機會進到遊戲場與自己的弟弟妹妹享受舒適的遊戲場空間。,https://www.ntparks.tw/images/views/view-110-22-242/Photo-01-2025.jpg; https://www.ntparks.tw/images/views/view-110-22-242/Photo-02.jpg; https://www.ntparks.tw/images/views/view-110-22-242/Photo-03-2025.jpg; https://www.ntparks.tw/images/views/view-110-22-242/Photo-04-2025.jpg; https://www.ntparks.tw/images/views/view-110-22-242/Photo-05-2025.jpg,新北市共融特色公園,ntpc_park_7011_頭前運動公園
景觀萬坪公園,新北市樹林區佳園路三段與學府路口,新北市,樹林區,24.95063228393304,121.38315355026528,https://www.ntparks.tw/view-111-01-238.html,森林攀爬架、遊戲板、共融式鞦韆、攀爬網、滑索、擺盪大索、轉轉杯、彈簧圓盤及磨石子溜滑梯,上肢旋轉設備、三人扭腰器、雙人腰背按摩器、雙人太空漫步機及雙人大轉輪,景觀萬坪公園配合市府「公園全齡化或特色共融遊戲場改善計畫」改建為新北市第一座森林系主題公園，增加兒童遊戲空間、更新體健設施、打造節點廣場、開闢大草坪區、改善整體動線及拓寬步道等，提供民眾更舒適精彩的休憩空間與遊戲體驗。,https://www.ntparks.tw/images/views/view-111-01-238/Photo-01.jpg; https://www.ntparks.tw/images/views/view-111-01-238/Photo-02.jpg; https://www.ntparks.tw/images/views/view-111-01-238/Photo-03.jpg; https://www.ntparks.tw/images/views/view-111-01-238/Photo-04.jpg; https://www.ntparks.tw/images/views/view-111-01-238/Photo-05.jpg,新北市共融特色公園,ntpc_park_7012_景觀萬坪公園
安光公園,新北市新店區安光路75號,新北市,新店區,24.963605641121404,121.51072837592436,https://www.ntparks.tw/view-111-02-231.html,魔法森林小屋主題遊具、單人盪鞦韆、鳥巢式鞦韆、旋轉棒,無,全新面貌的安光公園以魔法森林小屋為整體設計主軸，搭配自然風格，採用原木材質遊戲設施及木屑鋪面，在有限的空間裡，盡可能的增加遊戲多元性，其中最大亮點就是七米高的魔法森林小屋三層溜滑梯，搭配不同形式的攀爬出入口，周邊並有鳥巢鞦韆、旋轉棒等小朋友最愛的遊具設施，讓孩子們盡情放電，也提供本區居民更完善、安全的休憩場所。,https://www.ntparks.tw/images/views/view-111-02-231/Photo-01.jpg; https://www.ntparks.tw/images/views/view-111-02-231/Photo-02.jpg; https://www.ntparks.tw/images/views/view-111-02-231/Photo-03.jpg,新北市共融特色公園,ntpc_park_7013_安光公園
環河公園,新北市板橋區南雅西路二段301巷41弄(國光國小後面),新北市,板橋區,25.01631738390197,121.44895885026669,https://www.ntparks.tw/view-111-03-220.html,烏龜複合型遊戲設施、螃蟹複合型遊戲設施、獨立式攀爬架(鳥造型)、無障礙旋轉盤,協調及平衡訓練設施、雙人坐推坐拉器、大轉輪、上肢牽引器、雙人滑雪機、雙人漫步機,板橋第一座水生動物造型「招潮蟹主題特色遊戲場」、「河龜攀爬溜滑梯」讓小朋友玩攀爬及溜滑！「無障礙共融旋轉盤」是親子互動的天地，新穎有趣的生態造景遊具，進口國外適用全年齡層的體健設施，安全滿點的全密式PU跑道，公園整體綠美化及地景土丘，大人小孩男女皆宜的全齡化共融式公園！,https://www.ntparks.tw/images/views/view-111-03-220/Photo-01.jpg; https://www.ntparks.tw/images/views/view-111-03-220/Photo-02.jpg; https://www.ntparks.tw/images/views/view-111-03-220/Photo-03.jpg; https://www.ntparks.tw/images/views/view-111-03-220/Photo-04.jpg; https://www.ntparks.tw/images/views/view-111-03-220/Photo-05.jpg; https://www.ntparks.tw/images/views/view-111-03-220/Photo-06.jpg; https://www.ntparks.tw/images/views/view-111-03-220/Photo-07.jpg,新北市共融特色公園,ntpc_park_7014_環河公園
星際遊戲場,新北市汐止區吉祥街1巷旁,新北市,汐止區,25.07865283649101,121.66228507592712,https://www.ntparks.tw/view-111-04-221.html,流星攀爬網、網繩彈跳組、2M*2M彈跳床、3M*2M彈跳床、1.4M*1.4M彈跳床、雙人鞦韆、雙人無障礙鞦韆、戲水區、組合遊具、沙坑區、星團跑道、八大行星透水鋪面、輕食貨櫃、景觀廁所,組合式體健設施、雙人肩關節康復器、雙人漫步機、腰背按摩器、雙人上肢牽引,"來這裡，你可以盡情擺盪跳躍 搭飛船🚀、訓練體能，還能認識各大行星 體驗當太空人的機會就在這裡，飛向宇宙🛸浩瀚無垠🌌。
            &nbsp;汐止區基隆河右岸星際遊戲場以【八大行星】為遊戲場分區主軸，還有星團跑道(鋪面彩繪)+太空休息區(景觀廁所)+星際補給站(輕食貨櫃) 。 無縫彈性地墊呈現太空中流星雨美感，流星攀爬網則比擬太空中一顆顆的星球，碗型爬網彷彿太空船，引領使用者在宇宙中穿梭、航行、停泊。 淺水戲水池及高桿噴霧，讓孩童在炎熱夏天可感受沁涼的水霧，配合夜間燈光突顯星際迷霧氛圍。",https://www.ntparks.tw/images/views/view-111-04-221/Photo-01.jpg; https://www.ntparks.tw/images/views/view-111-04-221/Photo-02.jpg; https://www.ntparks.tw/images/views/view-111-04-221/Photo-03.jpg; https://www.ntparks.tw/images/views/view-111-04-221/Photo-04.jpg; https://www.ntparks.tw/images/views/view-111-04-221/Photo-05.jpg; https://www.ntparks.tw/images/views/view-111-04-221/Photo-06.jpg; https://www.ntparks.tw/images/views/view-111-04-221/Photo-07.jpg; https://www.ntparks.tw/images/views/view-111-04-221/Photo-08.jpg; https://www.ntparks.tw/images/views/view-111-04-221/Photo-09.jpg; https://www.ntparks.tw/images/views/view-111-04-221/Photo-10.jpg,新北市共融特色公園,ntpc_park_8000_星際遊戲場
後港新公園,新北市新莊區後港一路民安路口,新北市,新莊區,25.026014583897474,121.422084850267,https://www.ntparks.tw/view-111-05-242.html,大型磨石子滑梯、長型彈跳床、大型旋轉攀爬網、攀岩繩配攀岩塊、樂齡設施(含獨木橋、空中繩索、微晃木棧道等),高低單槓、上肢牽引器、太空漫步器、扭腰器、健騎機、肩關節康復器,後港新公園距離捷運丹鳳站步行僅約5分鐘，公園設有地下停車場，開車來也很方便。本公園規劃多種大型遊具，不僅較刺激，同時對於低幼齡兒童亦可以容易的使用。除遊戲場外公園內亦設置溫水游泳池與活動中心，公園附近還有圖書館、四維路夜市、鴻金寶麻吉影城百貨商圈。推薦做為市民半日遊的好去處。,https://www.ntparks.tw/images/views/view-111-05-242/Photo-01.jpg; https://www.ntparks.tw/images/views/view-111-05-242/Photo-02.jpg; https://www.ntparks.tw/images/views/view-111-05-242/Photo-03.jpg; https://www.ntparks.tw/images/views/view-111-05-242/Photo-04.jpg; https://www.ntparks.tw/images/views/view-111-05-242/Photo-05.jpg,新北市共融特色公園,ntpc_park_8001_後港新公園
福壽公園,新北市新莊區福壽街昌明街口路口,新北市,新莊區,25.051868383885257,121.45505085026755,https://www.ntparks.tw/view-111-06-242.html,溜滑梯、攀爬架、翹翹板、旋轉球,太空漫步器、單雙槓、上肢牽引器、平衡木、扭腰器、健騎器、輪胎健身器,福壽公園位於昌明街及福壽街交叉口。公園遊戲場鋪面於設計時，也已採納專家學者與地方團體等多方意見，設計為無縫地墊及礫石鋪面，兼顧了自然無毒及鬆散材質的吸震效果。遊戲場溜滑梯間連結的攀爬設施，可讓孩子們訓練到更多手腳肌力強度、身體平衡與專注力等，提供多元化的挑戰滿足孩子們探索的需求。,https://www.ntparks.tw/images/views/view-111-06-242/Photo-01-2025.jpg; https://www.ntparks.tw/images/views/view-111-06-242/Photo-02.jpg; https://www.ntparks.tw/images/views/view-111-06-242/Photo-03.jpg; https://www.ntparks.tw/images/views/view-111-06-242/Photo-04.jpg; https://www.ntparks.tw/images/views/view-111-06-242/Photo-05-2025.jpg; https://www.ntparks.tw/images/views/view-111-06-242/Photo-06-2025.jpg; https://www.ntparks.tw/images/views/view-111-06-242/Photo-07-2025.jpg,新北市共融特色公園,ntpc_park_8002_福壽公園
片仔溝公園,新北市八里區中華路二段199號對面,新北市,八里區,25.150295933597732,121.40324947592875,https://www.ntparks.tw/view-110-23-249.html,磨石子溜滑梯、攀爬網、攀岩等設施,肩關節康復器、大轉盤、雙人坐拉器,新設以帆船為主題的特色兒童遊戲場，利用地面作畫、3D俯視繪圖概念設計，高樓俯視有如一幅畫。除了有經典刺激的磨石子溜滑梯外，另外還設置攀岩及攀爬網等設施，使小朋友在攀爬的過程中手腳並用，從遊戲中學習控制身體協調性。,https://www.ntparks.tw/images/views/view-110-23-249/Photo-01.jpg; https://www.ntparks.tw/images/views/view-110-23-249/Photo-02.jpg; https://www.ntparks.tw/images/views/view-110-23-249/Photo-03.jpg; https://www.ntparks.tw/images/views/view-110-23-249/Photo-04.jpg; https://www.ntparks.tw/images/views/view-110-23-249/Photo-05.jpg; https://www.ntparks.tw/images/views/view-110-23-249/Photo-06.jpg,新北市共融特色公園,ntpc_park_8003_片仔溝公園
浮洲遊戲場,新北市板橋區環河西路五段鐵路橋堤外側旁,新北市,板橋區,25.00438591858921,121.43442392545668,https://www.ntparks.tw/view-111-07-220.html,太空漫步、鳥巢飛盤、共融滑梯區、平衡木跳樁設施、親子共融鞦韆、遊戲沙坑、恐龍雕塑區、樂器地景設施區、彈跳床,健身車、扭腰器、腹肌板、肩關結康復器、大轉輪、划船器、手指復健牆板,結合在地產業特色「香花」及「九龍傳說」，打造出以香花及恐龍為主題的遊戲場，場內劃分為三個區塊，有提供給兒童遊玩的沙坑、溜滑梯、親子鞦韆、太空漫步、鳥巢飛盤以及恐龍雕塑區；青少年區的彈跳床；成人使用的體健設施區。本場為一共融暨全齡之公園，除了遊玩外，亦可感受濃濃的在地產業各色及文化。,https://www.ntparks.tw/images/views/view-111-07-220/Photo-01.jpg; https://www.ntparks.tw/images/views/view-111-07-220/Photo-02.jpg; https://www.ntparks.tw/images/views/view-111-07-220/Photo-03.jpg; https://www.ntparks.tw/images/views/view-111-07-220/Photo-04.jpg; https://www.ntparks.tw/images/views/view-111-07-220/Photo-05.jpg; https://www.ntparks.tw/images/views/view-111-07-220/Photo-06.jpg; https://www.ntparks.tw/images/views/view-111-07-220/Photo-07.jpg,新北市共融特色公園,ntpc_park_8004_浮洲遊戲場
澳底公園,新北市貢寮區仁愛路43號,新北市,貢寮區,25.053673593656743,121.92312571488243,https://www.ntparks.tw/view-111-08-228.html,多功能爬網、九孔殼造型磨石子滑梯、搖擺吊橋、翹翹板、鞦韆、鳥巢鞦韆、星光廊、景觀廁所,三人上肢牽引器、三人扭腰器、雙人滑步機、雙人滑雪機、三人單槓、健騎機,無縫地墊結合在地海洋元素，以藍色為基調呈現活潑明亮的氛圍，九孔殼造型的磨石子溜滑梯是公園裡的超人氣遊具，小朋友們坐著玩、躺著玩發揮無限創意。另一側的鳥巢鞦韆及搖擺吊橋也充滿了挑戰，一不小心就會掉到大鯨魚的背上。另外，從2022新北燈會移置的星光廊設置在公園內蜿蜒的步道上，為夜晚增添了浪漫神秘的氛圍，歡迎民眾朋友一起來到這處綠地漫步放鬆，讓緊湊的生活緩一緩，充個電再出發。,https://www.ntparks.tw/images/views/view-111-08-228/Photo-01.jpg; https://www.ntparks.tw/images/views/view-111-08-228/Photo-02.jpg; https://www.ntparks.tw/images/views/view-111-08-228/Photo-03.jpg; https://www.ntparks.tw/images/views/view-111-08-228/Photo-04.jpg; https://www.ntparks.tw/images/views/view-111-08-228/Photo-05.jpg,新北市共融特色公園,ntpc_park_8005_澳底公園
三民公園,新北市蘆洲區成蘆橋旁/三民路611號旁,新北市,蘆洲區,25.07998769235428,121.45390562553946,https://www.ntparks.tw/view-111-09-247.html,雙翼爬網、擺盪大索、彈跳設施、白鷺鷥造型滑梯、旋轉木馬、礫石桌,肩關節康復器、大轉盤、單人漫步機、腰背按摩器、平步機、扭腰器、上肢牽引器、腹肌板、攀爬架組,蘆洲原為河流沖積而成的一片沙洲，河岸蘆草叢生，魚蝦悠游其間，吸引鷺鷥群集覓食，所以又得名「鷺洲」，三民遊戲場便以鷺鷥作為主題，建構出屬於蘆洲區獨一無二的鷺鷥造型滑梯，滑梯整體大量採用細格編織網，讓小朋友不僅可以滑梯，也同時包含攀爬的遊戲模式；本場內富有多樣挑戰性設施，並且鋪面採用多種天然材料組成，帶給小朋友多層次體驗。,https://www.ntparks.tw/images/views/view-111-09-247/Photo-01.jpg; https://www.ntparks.tw/images/views/view-111-09-247/Photo-02.jpg; https://www.ntparks.tw/images/views/view-111-09-247/Photo-03.jpg; https://www.ntparks.tw/images/views/view-111-09-247/Photo-04.jpg; https://www.ntparks.tw/images/views/view-111-09-247/Photo-05.jpg,新北市共融特色公園,ntpc_park_8006_三民公園
洛陽公園,新北市三重區洛陽街49巷旁,新北市,三重區,25.064339193227774,121.47991046537906,https://www.ntparks.tw/view-111-10-241.html,共融式鳥巢鞦韆,三人單槓、伸腰伸背器、單人漫步器、無障礙抬腿訓練器,"#轉角遇到公園 三重社區公園報到🙋&zwj;♀️
                位在三重洛陽街的#洛陽公園啟用了❗️
                經新北工務局重新打造，閒置土地變身鄰里公園
                提供全民✕全齡✕無障礙的舒適慢活空間，
                大人保健小孩放電~好方便🤗💕
                🌱保留自然開展喬木，綠蔭之下乘涼好舒虎
                🌱無障礙的體健設施，全民共享的休憩空間
                🌱鳥巢鞦韆貼心織網，讓身障兒開心盪鞦韆
              🌱植栽緩坡滯洪綠地，保水兼具綠美化景觀",https://www.ntparks.tw/images/views/view-111-10-241/Photo-01.jpg; https://www.ntparks.tw/images/views/view-111-10-241/Photo-02.jpg; https://www.ntparks.tw/images/views/view-111-10-241/Photo-03.jpg; https://www.ntparks.tw/images/views/view-111-10-241/Photo-04.jpg; https://www.ntparks.tw/images/views/view-111-10-241/Photo-05.jpg,新北市共融特色公園,ntpc_park_8007_洛陽公園
水返腳公園,新北市汐止區公園路及大同路交叉口,新北市,汐止區,25.079518282817588,121.63426064450006,https://www.ntparks.tw/view-111-11-221.html,遊戲塔(攀爬網、攀爬牆、筒狀滑梯)、土堤滑梯、1.4M*1.4M彈跳床、戲水區、組合遊具、沙坑區、挖土機、景觀廁所,組合式體健設施、雙人座拉器、雙人漫步器、手部運動,水返腳公園結合在地歷史故事、環保生態教育公園、廣納在地民眾想法意見且服務不同年齡及族群，依據茶葉、礦業及後工業三個主要意象打造八大特色區，並以分齡分層概念配置年長者使用區、體健休憩區、乾式遊戲區、濕式遊戲區及多功能廣場。乾式遊戲場利用地形規劃滑梯及遊戲塔，以過去茶葉運送到水返腳碼頭為發想導入兒童遊具設計。濕式遊戲區以老街意象為主題，規劃乾式噴泉並定時噴水。水返腳公園提供汐止區市民休憩、慢遊、賞景、孩童遊戲、親子同樂等體健及育樂使用。,https://www.ntparks.tw/images/views/view-111-11-221/Photo-01.jpg; https://www.ntparks.tw/images/views/view-111-11-221/Photo-02.jpg; https://www.ntparks.tw/images/views/view-111-11-221/Photo-03.jpg; https://www.ntparks.tw/images/views/view-111-11-221/Photo-04.jpg; https://www.ntparks.tw/images/views/view-111-11-221/Photo-05.jpg,新北市共融特色公園,ntpc_park_8008_水返腳公園
尖福公園,新北市鶯歌區高職東街19巷,新北市,鶯歌區,24.941907748131197,121.33822441488057,https://www.ntparks.tw/view-111-12-239.html,陶壺地景遊戲區(2M磨石子滑梯、攀爬網、鑽籠、攀岩塊、攀爬梯、隧道、洞穴)、幼齡遊戲區(遊戲版、敲擊鼓)、彩藝陶壺屋(2.6M磨石子滑梯)、旋轉球椅、共遊翹翹板,雙人大轉輪、單人滑步機,公園主體遊具外型以藝術陶壺堆放之概念為設計構想。造型陶壺材質為GRC結合彩色透明壓克力，在陶壺屋內可感受彩色光影變化。陶壺遊戲場規劃分齡分區及無障礙遊戲設施，為各需求者提供合適使用區域。,https://www.ntparks.tw/images/views/view-111-12-239/Photo-01.jpg; https://www.ntparks.tw/images/views/view-111-12-239/Photo-02.jpg; https://www.ntparks.tw/images/views/view-111-12-239/Photo-03.jpg; https://www.ntparks.tw/images/views/view-111-12-239/Photo-04.jpg; https://www.ntparks.tw/images/views/view-111-12-239/Photo-05.jpg; https://www.ntparks.tw/images/views/view-111-12-239/Photo-06.jpg; https://www.ntparks.tw/images/views/view-111-12-239/Photo-07.jpg,新北市共融特色公園,ntpc_park_8009_尖福公園
中和光之公園,中和區中原二街及中原五街交叉口,新北市,中和區,25.0118875,121.4870135,https://www.ntparks.tw/view-111-13-235.html,一般簡易組合遊具、鳥巢鞦韆、一般鞦韆 x 2、搖搖馬 x 2,無,中和區中原街附近，四周住宅區圍繞，有完善的停車空間及人行道，卻沒有一個可以讓孩子嬉戲的小公園。中和區公所為完整該街廓的機能，並增加安全舒適的休憩空間，於中原二街及中原五街交叉口的小公園增設兒童遊具，預計111年3月底完工啟用。公園規模雖不大，卻提供了完整的遊樂設施。孩子們可以透過各種攀爬、樓梯等方式上到透明間接鏤空式設計的滑梯。除了小小孩喜歡的搖搖馬外，還有兩座個人型的獨樂樂鞦韆，有著共融精神且多樣玩法的鳥巢式盪鞦韆更可以多人共玩，分享歡樂。此次遊戲場周圍以水泥矮敦為界，讓民眾照看孩子時能稍作休息，安全的繽紛軟墊，更可以讓孩子盡情的奔跑。,https://www.ntparks.tw/images/views/view-111-13-235/Photo-01.jpg; https://www.ntparks.tw/images/views/view-111-13-235/Photo-02.jpg; https://www.ntparks.tw/images/views/view-111-13-235/Photo-03.jpg; https://www.ntparks.tw/images/views/view-111-13-235/Photo-04.jpg; https://www.ntparks.tw/images/views/view-111-13-235/Photo-05.jpg,新北市共融特色公園,ntpc_park_8010_中和光之公園
228和平公園,新北市三重區忠孝路二段35號,新北市,三重區,25.070681742974188,121.48475271488283,https://www.ntparks.tw/view-111-14-241.html,原木造型滑梯組、攀爬遊戲組、積木風滑梯組、搖搖馬、旋轉盤、鳥巢鞦韆,雙人漫步機、腰背按摩器,228和平公園有著音樂台及大草皮多功能廣場，並在園區內設有環園步道，讓市民朋友可以健康齊步走，由忠孝路一段分為兩側的遊戲場分別為積木風與原野風的特色遊具組，加上長輩喜愛的體健設施，落實大朋友小朋友共同樂活休閒空間。,https://www.ntparks.tw/images/views/view-111-14-241/Photo-01.jpg; https://www.ntparks.tw/images/views/view-111-14-241/Photo-02.jpg; https://www.ntparks.tw/images/views/view-111-14-241/Photo-03.jpg; https://www.ntparks.tw/images/views/view-111-14-241/Photo-04.jpg; https://www.ntparks.tw/images/views/view-111-14-241/Photo-05.jpg; https://www.ntparks.tw/images/views/view-111-14-241/Photo-06.jpg; https://www.ntparks.tw/images/views/view-111-14-241/Photo-07.jpg,新北市共融特色公園,ntpc_park_8011_228和平公園
龍濱公園,新北市三重區秀江街28號,新北市,三重區,25.072069842918523,121.49932131488286,https://www.ntparks.tw/view-111-15-241.html,磨石子滑梯、鞦韆、翹翹板、旋轉爬網、組合滑梯組、搖搖樂,大轉輪及上牽引組合、雙人肩關節康復器、雙人漫步機*2、腰背按摩器、三人上肢*2、單槓*2、腿部按摩器、雙人腹機板、三人轉腰、雙人座凳,龍濱公園位處三重中區，周邊社區林立，使用孩童甚多，因此公所針對公園既有遊樂設施局部改善，右側的遊戲區，保留原有的組合遊戲組，更新鋪面，藍天、白雲、飛鳥、熱氣球、草原等圖騰的無縫地墊，再配合周邊林蔭，打造自然野餐風，讓親子共享悠閒時光。左側的遊戲區保留，原有的長頸鹿磨石子滑梯、雙人鞦韆，往外延伸擴大遊戲空間，增設蹺蹺板、選轉爬網，讓大小孩藉由攀爬續練膽識及手腳並用，盡情放電。,https://www.ntparks.tw/images/views/view-111-15-241/Photo-01.jpg; https://www.ntparks.tw/images/views/view-111-15-241/Photo-02.jpg; https://www.ntparks.tw/images/views/view-111-15-241/Photo-03.jpg; https://www.ntparks.tw/images/views/view-111-15-241/Photo-04.jpg; https://www.ntparks.tw/images/views/view-111-15-241/Photo-05.jpg,新北市共融特色公園,ntpc_park_8012_龍濱公園
六張公園,新北市三重區六張街78號前,新北市,三重區,25.06977374301064,121.49137211488271,https://www.ntparks.tw/view-111-16-241.html,組合遊具、共融翹翹板、共融鞦韆、極限飛輪,雙人漫步機、雙人坐凳器、雙人上肢牽引器,六張公園位於六張街78號旁，地處三重中心，且鄰近三重國小及正義國小，不時常有家長帶孩子於公園玩樂。作為城市中少有的休憩場所，三重區公所特別針對本公園規劃全新的遊戲場，不僅鋪設有恐龍、火山圖騰的無縫地墊，再加上裝有龍騎士造型的共融鞦韆、兒童遊具組以及共融鞦韆，讓孩子們可以在此盡情玩樂；且公園內大樹林立，樹蔭茂密，讓陪玩的家長也能藉此遠離城市的喧囂。除此之外，原有遊戲場外更另闢空間供極限旋轉飛輪使用，下方緩衝採用木屑、樹皮、碎石等材質取代一般彈性地墊，兼具樹木生存和兒童遊戲的功能，讓孩子在使用遊具時更安全、更多元、更有趣。,https://www.ntparks.tw/images/views/view-111-16-241/Photo-01.jpg; https://www.ntparks.tw/images/views/view-111-16-241/Photo-02.jpg; https://www.ntparks.tw/images/views/view-111-16-241/Photo-03.jpg; https://www.ntparks.tw/images/views/view-111-16-241/Photo-04.jpg; https://www.ntparks.tw/images/views/view-111-16-241/Photo-05.jpg,新北市共融特色公園,ntpc_park_8013_六張公園
十四張歷史公園,新北市新店區央北二路與啟文路口,新北市,新店區,24.979352646634158,121.52612451488132,https://www.ntparks.tw/view-111-18-231.html,穀倉遊戲塔、沙坑、組合鞦韆、身障鞦韆、滑索、彈跳床、原木攀爬、倒水桶、水圳戲水道、水唧筒、長亭、廁所,無,"十四張歷史公園為農村歷史主題特色遊戲場，創造趣味遊憩場域，提供市民多元休憩空間，並提升公園友善度，親善孩童發展環境，保留城市綠意。&nbsp;
            同時本公園也是本市第一座機能轉換型防災公園，於災難來臨時可變身成多功能的避難收容場所。",https://www.ntparks.tw/images/views/view-111-18-231/Photo-01.jpg; https://www.ntparks.tw/images/views/view-111-18-231/Photo-02.jpg; https://www.ntparks.tw/images/views/view-111-18-231/Photo-03.jpg; https://www.ntparks.tw/images/views/view-111-18-231/Photo-04.jpg; https://www.ntparks.tw/images/views/view-111-18-231/Photo-05.jpg,新北市共融特色公園,ntpc_park_8014_十四張歷史公園
仁愛公園,新北市永和區仁愛路244-1號(仁愛路、永平路、保安路、保生路間),新北市,永和區,25.01132384535481,121.504108314672,https://www.ntparks.tw/view-111-19-234.html,城堡兒童遊戲場、兒童遊戲區、組合遊具、翹翹板、搖搖馬、鳥巢鞦韆、尿布型鞦韆、發想牆、傳聲筒、攀爬架、沙坑、大型磨石子溜滑梯,跳躍踩踏訓練板、單槓運動健身設施、平衡運動健身設施、雙槓運動健身設施、腿部運動健身設施、核心運動健身設施、踏階腿部訓練器、手指階梯練板、拱型肩膀訓練器、循環平衡訓練組、上肢旋轉設備、三人扭腰器、雙人腰背按摩器、雙人太空漫步機及雙人大轉輪等,仁愛公園配合市府「公園全齡化或特色共融遊戲場改善計畫」改建永和首座特色共融遊戲場「仁愛公園貞愛城堡」，公所打造「城堡」主題特色遊戲場，運用既有地下停車場屋頂之高度，打造具挑戰性的遊樂設施，場內除了設置不同年齡層都能玩的大小滑梯外，還有適合祖孫親子乘坐的鳥巢式鞦韆、專屬寶寶的尿布型鞦韆、訓練孩童四肢運用的攀爬架、小小孩塗鴉的發想牆、傳聲筒等設施，打造多樣、具探索性的遊戲空間，遊具讓大小朋友共融同樂，享受協力互助帶來的樂趣。並新設沙坑與攀爬架、全齡體健設施以及大音樂台的改建，可以期待嶄新面貌的仁愛公園，讓孩子、長輩們都能夠在這裡開心地遊戲。,https://www.ntparks.tw/images/views/view-111-19-234/Photo-01.jpg; https://www.ntparks.tw/images/views/view-111-19-234/Photo-02.jpg; https://www.ntparks.tw/images/views/view-111-19-234/Photo-03.jpg; https://www.ntparks.tw/images/views/view-111-19-234/Photo-04.jpg; https://www.ntparks.tw/images/views/view-111-19-234/Photo-05.jpg,新北市共融特色公園,ntpc_park_9000_仁愛公園
兒一公園,新北市三芝區公正街,新北市,三芝區,25.25722033546002,121.49724051538173,https://www.ntparks.tw/view-111-21-252.html,磨石子滑梯、彈跳床、擺盪大索,雙人大轉輪、雙人漫步機、單人滑雪機,位於埔頭里公正街旁，園區內植滿桂花，一到花季滿園飄香，內有籃球場供青少年運動打球，更有全新打造之共融遊戲場，包含融合三芝在地特色黑毛豬溜滑梯，以及特色彈跳床、擺盪大索等遊具，讓家長們可以陪著孩子們盡情玩樂。,https://www.ntparks.tw/images/views/view-111-21-252/Photo-01.jpg; https://www.ntparks.tw/images/views/view-111-21-252/Photo-02.jpg; https://www.ntparks.tw/images/views/view-111-21-252/Photo-03.jpg; https://www.ntparks.tw/images/views/view-111-21-252/Photo-04.jpg; https://www.ntparks.tw/images/views/view-111-21-252/Photo-05.jpg; https://www.ntparks.tw/images/views/view-111-21-252/Photo-06.jpg; https://www.ntparks.tw/images/views/view-111-21-252/Photo-07.jpg,新北市共融特色公園,ntpc_park_9001_兒一公園
兒五樓厝公園,新北市蘆洲區民族路236巷34弄,新北市,蘆洲區,25.088610436089223,121.47789467592737,https://www.ntparks.tw/view-111-22-247.html,攀爬設施及經典磨石滑梯、「土丘隧道」彩繪水鳥及沙沙聲遊戲板,組合式體健設施、雙人肩關節康復器、腰背按摩器、雙人上肢牽引,以蘆洲河濱美麗的水岸風光為發想，將蘆洲獨特的濕地生態意象放進了公園裡囉！ 「鳥棲土丘」攀爬設施及經典磨石滑梯｜練習專注力與大肌肉，「土丘隧道」彩繪水鳥及沙沙聲遊戲板｜認識水鳥貼近大自然，還有超可愛的「傳聲筒」和聲音玩遊戲~有趣極了!!串聯縫合1期園區，使整座公園顯得格外一致，讓民眾不但能在公園內體驗全方位健體設施，也是休閒散步、放鬆心情的好所在。,https://www.ntparks.tw/images/views/view-111-22-247/Photo-01.jpg; https://www.ntparks.tw/images/views/view-111-22-247/Photo-02.jpg; https://www.ntparks.tw/images/views/view-111-22-247/Photo-03.jpg; https://www.ntparks.tw/images/views/view-111-22-247/Photo-04.jpg; https://www.ntparks.tw/images/views/view-111-22-247/Photo-05.jpg; https://www.ntparks.tw/images/views/view-111-22-247/Photo-06.jpg,新北市共融特色公園,ntpc_park_9002_兒五樓厝公園
永平公園,新北市新店區永平街48號旁,新北市,新店區,25.090310442185984,121.45677761488308,https://www.ntparks.tw/view-111-23-231.html,磨石子溜滑梯、攀爬設施、鳥巢鞦韆、翹翹板、搖搖椅,健康步道、滑步機,"巷弄間的童話公園，小小的公園什麼都有~ 
            獨特的造型設計，南瓜馬車、玻璃鞋、滿天的星星及月亮 
            溜滑梯及攀爬設施，鳥巢鞦韆、翹翹板及搖搖椅可以供小孩子玩耍 
            體健設施更是有滑步機，玩累了還可以來走一下健康步道~ 
            提供鄰里休閒放鬆好所在，讓大人小孩百玩不膩",https://www.ntparks.tw/images/views/view-111-23-231/Photo-01.jpg; https://www.ntparks.tw/images/views/view-111-23-231/Photo-02.jpg; https://www.ntparks.tw/images/views/view-111-23-231/Photo-03.jpg; https://www.ntparks.tw/images/views/view-111-23-231/Photo-04.jpg; https://www.ntparks.tw/images/views/view-111-23-231/Photo-05.jpg; https://www.ntparks.tw/images/views/view-111-23-231/Photo-06.jpg; https://www.ntparks.tw/images/views/view-111-23-231/Photo-07.jpg,新北市共融特色公園,ntpc_park_9003_永平公園
綠湖公園,新北市新店區品牌路寶福路交叉,新北市,新店區,24.977669046701486,121.54557271488116,https://www.ntparks.tw/view-111-24-231.html,共融式旋轉盤、斷臂攀爬牆、繩網攀爬牆、組合游具、沙坑區、特色動物造型透水鋪面、景觀廁所,無,由裕隆公司打造以新北市的綠肺為概念，冀以降低都市熱島 效應、消化二氧化碳、調節都市氣候，並兼具水土保持功能，成為動、植物友善的棲息環境。該公司除打造並捐贈「綠湖公園」，更永續擔綱綠湖公園的認養及維管者，協助公園綠美化及設施養護工作。,https://www.ntparks.tw/images/views/view-111-24-231/Photo-01.jpg; https://www.ntparks.tw/images/views/view-111-24-231/Photo-02.jpg; https://www.ntparks.tw/images/views/view-111-24-231/Photo-03.jpg; https://www.ntparks.tw/images/views/view-111-24-231/Photo-04.jpg; https://www.ntparks.tw/images/views/view-111-24-231/Photo-05.jpg; https://www.ntparks.tw/images/views/view-111-24-231/Photo-06.jpg,新北市共融特色公園,ntpc_park_9004_綠湖公園
安和景觀公園,新北市新店區安民街250號後方,新北市,新店區,24.972656546902485,121.51598781467128,https://www.ntparks.tw/view-111-25-231.html,兒童遊戲場組合遊具(複合式)主題企鵝塔滑梯、冰山攀爬、搖搖樂鯨魚造型、海豹造型、鞦韆各1組,仰臥起座、扶地挺身、水平吊梯、單槓、三人扭腰器、雙人浪板、腹肌板、關節康復器各1組,以企鵝樂園為主題創造公園特色亮點，小小國王灰色造型打造主題溜滑梯，並以爬架比擬冰山及水流，還有高低鞦韆、搖搖馬等遊具，創造不一樣風貌的遊戲場空間。,https://www.ntparks.tw/images/views/view-111-25-231/Photo-01.jpg; https://www.ntparks.tw/images/views/view-111-25-231/Photo-02.jpg; https://www.ntparks.tw/images/views/view-111-25-231/Photo-03.jpg; https://www.ntparks.tw/images/views/view-111-25-231/Photo-04.jpg; https://www.ntparks.tw/images/views/view-111-25-231/Photo-05.jpg; https://www.ntparks.tw/images/views/view-111-25-231/Photo-06.jpg,新北市共融特色公園,ntpc_park_9005_安和景觀公園
青潭公園,新北市新店區新烏路一段11巷,新北市,新店區,24.950970647769456,121.5451623146709,https://www.ntparks.tw/view-111-26-231.html,兒童遊戲場組合遊具(複合式)原木攀爬滑梯、幼幼滑梯組、木質組合攀爬架、木質梅花椿、搖搖樂青蛙造型、鞦韆各1組、固定式挖土機2組,單槓、三人扭腰器、雙人浪板、腹肌板各1組,位在青潭溪旁具有豐富的自然生態，並以小青蛙為主題，利用大樹下打造自然遊戲場，孩童穿梭於林間遊戲，挑選融入周遭自然環境遊具且運用自然鬆散鋪材取代制式地墊。,https://www.ntparks.tw/images/views/view-111-26-231/Photo-01.jpg; https://www.ntparks.tw/images/views/view-111-26-231/Photo-02.jpg; https://www.ntparks.tw/images/views/view-111-26-231/Photo-03.jpg; https://www.ntparks.tw/images/views/view-111-26-231/Photo-04.jpg; https://www.ntparks.tw/images/views/view-111-26-231/Photo-05.jpg; https://www.ntparks.tw/images/views/view-111-26-231/Photo-06.jpg,新北市共融特色公園,ntpc_park_9006_青潭公園
綜合體育場遊戲場,新北市土城區綜合體育場(裕民路193-1號),新北市,土城區,25.020811175664754,121.41996302227983,https://www.ntparks.tw/view-111-27-236.html,"主題遊戲區：
                  1.一般+鳥巢鞦韆
                  2.主題遊戲組
                  攀岩板、爬梯、樓梯、圓形爬梯、攀爬架、猴架、攀繩、封閉式滑梯(300cm)、開放式溜滑梯(170cm)、鑽籠、緩衝池
                  3.洗手台
                  兒童遊戲區：
                    1.一般+幼兒鞦韆
                    2.四人蹺蹺板
                    3.旋轉攀爬網
                    4.無障礙蹺蹺板
                    5.特色蹺蹺板
                    6.遊戲板
                    7.兒童遊戲組
                    開放式溜滑梯(70cm)、開放式溜滑梯(120cm)、爬竿",自行車踩踏組、 漫步機組、 腰腹體健組、 上肢運動組、 綜合體健組、 樂齡體健組,"新北市土城區綜合體育場有多元的運動設施，包括籃球場、田徑場、兒童遊具及體健設施，緊鄰新北市立中正國民中學與新北市土城區廣福國民小學，周邊有不少的住宅區，平、假日時除吸引眾多愛好運動人士或銀髮到此運動、散步、跳舞或健身，已成為一般銀髮族、成人、小孩及學生的最佳休閒健身運動場所之一，故本體育場每年使用人次將近36萬人次之多。 
            &nbsp;然而，本體育場已建造將近20年，其中兒童遊具區及體健區係為罐頭式遊具及簡易體健設施（簡稱計畫區域）。隨時代進步與技術水準提升，該區域之遊具及設施，難以完全符合體育場民眾之使用需求。本案經地方民意代表及里長提出建議，將計畫區域改建為全齡共融區域，讓身心障礙者、行動不便老人、孕婦，以至於學步幼兒及青少年等0~100歲民眾，都適合使用的通用設計空間，讓空間環境能從幼到老都能感到友善的使用，應從幼兒-共融遊戲場、青少年-挑戰、成人-親子陪伴及運動到老人-健康體健等作一個生命周期的思考。",https://www.ntparks.tw/images/views/view-111-27-236/Photo-01.jpg; https://www.ntparks.tw/images/views/view-111-27-236/Photo-02.jpg; https://www.ntparks.tw/images/views/view-111-27-236/Photo-03.jpg; https://www.ntparks.tw/images/views/view-111-27-236/Photo-04.jpg; https://www.ntparks.tw/images/views/view-111-27-236/Photo-05.jpg; https://www.ntparks.tw/images/views/view-111-27-236/Photo-06.jpg; https://www.ntparks.tw/images/views/view-111-27-236/Photo-07.jpg; https://www.ntparks.tw/images/views/view-111-27-236/Photo-08.jpg,新北市共融特色公園,ntpc_park_9007_綜合體育場遊戲場
公8公園,新北市淡水區中山北路二段381巷2號旁,新北市,淡水區,25.186754538304353,121.43958411524919,https://www.ntparks.tw/view-111-28-251.html,磨石子溜滑梯、管狀滑梯、攀爬區、大小鑽孔、礫石坑,無,公8防災公園鄰近淡水國民運動中心、行政中心及輕軌捷運站，公園周邊為民眾休閒遊憩之主要場域，且公園周邊人行道串聯完整及大眾運輸交通便利，故於兒童遊戲場規劃初期，即朝共融遊戲設施進行設計，遊戲場域結合在地文化地標「淡水紅毛城」為意象，包含超大型磨石子溜滑梯、管狀滑梯、大小鑽爬孔、礫石遊戲坑及具挑戰性的攀爬設施等，另外藉由城垛造型的無障礙坡道連接城堡遊戲區加強整體意象的主視覺，期望讓兒童遊玩的同時也可以親近在地文化，寓教於樂。,https://www.ntparks.tw/images/views/view-111-28-251/Photo-01.jpg; https://www.ntparks.tw/images/views/view-111-28-251/Photo-02.jpg; https://www.ntparks.tw/images/views/view-111-28-251/Photo-03.jpg; https://www.ntparks.tw/images/views/view-111-28-251/Photo-04.jpg,新北市共融特色公園,ntpc_park_9008_公8公園
公23公園,新北市淡水區新市五路二段及後州路交叉口,新北市,淡水區,25.200034837768968,121.4270213152493,https://www.ntparks.tw/view-111-29-251.html,輕軌主題車廂、管狀滑梯、攀爬區、溜索、礫石坑、盪鞦韆,無,"公23公園遊戲場主要以淡水輕軌為主題進行設計規劃，設施內容包含輕軌外型之車箱，車箱內設有互動性遊系設施，其中部分車箱以架高方式規劃，部分車箱以平面方式設計，符合淡水輕軌既有高架也有平面之意象。 
            &nbsp;另遊戲場內除輕軌車箱主體遊戲區外，亦有規劃盪鞦韆、溜索、礫石坑、Push-Bike及野餐區等多樣遊憩設施，其中多項設施如溜索與Push-Bike等都為目前兒童非常喜愛之設施，後續於遊戲廠完工後後，淡水區的居民不用出遠門也可以享受到豐富且有特色的遊戲設施。",https://www.ntparks.tw/images/views/view-111-29-251/Photo-01.jpg; https://www.ntparks.tw/images/views/view-111-29-251/Photo-02.jpg; https://www.ntparks.tw/images/views/view-111-29-251/Photo-03.jpg; https://www.ntparks.tw/images/views/view-111-29-251/Photo-04.jpg,新北市共融特色公園,ntpc_park_9009_公23公園
萬福生態公園,新北市深坑區北深路三段158巷內,新北市,深坑區,25.00394854564973,121.60004306488167,https://www.ntparks.tw/view-111-30-222.html,全齡鳥巢式盪鞦韆、跳格子,組合式體健設施、保留(雙人漫步扭腰機)、新設(雙人雙桿),萬福公園大改造翻新涼亭及塑木階梯及跳格子圖案地墊，並增設了一座共融型擺盪鞦韆兒童遊戲新天地，旁邊還設置了新的雙人雙槓設施，結合既有體健設施及遊憩步道，並增加觀景平台可以眺望美景，讓小朋友及年長者可以在此共同玩樂，新添一處優質自然景觀休憩空間。,https://www.ntparks.tw/images/views/view-111-30-222/Photo-01.jpg; https://www.ntparks.tw/images/views/view-111-30-222/Photo-02.jpg; https://www.ntparks.tw/images/views/view-111-30-222/Photo-03.jpg; https://www.ntparks.tw/images/views/view-111-30-222/Photo-04.jpg; https://www.ntparks.tw/images/views/view-111-30-222/Photo-05.jpg; https://www.ntparks.tw/images/views/view-111-30-222/Photo-06.jpg,新北市共融特色公園,ntpc_park_9010_萬福生態公園
厚德公園,新北市三重區三和路三段170巷32號,新北市,三重區,25.073261649046927,121.49175469620502,https://www.ntparks.tw/view-111-31-241.html,高架木平台組、翹翹板、幼兒爬網、鳥巢鞦韆,雙人漫步機、腰背按摩器、上肢牽引,遊戲區主題以原野風的高架木平臺為主題，周邊大樹環繞可看到松鼠及鳥類等各種動物，遊戲平台上的爬網及鑽籠與攀爬繩等提供孩童較富有挑戰性的遊戲體驗。,https://www.ntparks.tw/images/views/view-111-31-241/Photo-01.jpg; https://www.ntparks.tw/images/views/view-111-31-241/Photo-02.jpg; https://www.ntparks.tw/images/views/view-111-31-241/Photo-03.jpg; https://www.ntparks.tw/images/views/view-111-31-241/Photo-04.jpg; https://www.ntparks.tw/images/views/view-111-31-241/Photo-05.jpg; https://www.ntparks.tw/images/views/view-111-31-241/Photo-06.jpg,新北市共融特色公園,ntpc_park_9011_厚德公園
祖田兒童遊戲公園,新北市土城區祖田兒童遊戲公園(溪頭路81號旁),新北市,土城區,24.95218534772054,121.40837281488079,https://www.ntparks.tw/view-111-32-236.html,"遊戲區： 一般遊戲組 
          攀岩塊、攀繩、2組攀爬架、滑梯、平衡木及跳樁",無,本計畫主要針對新北市土城區祖田里的「祖田兒童遊戲公園」之老舊公園整體改善，92年公園開放至今，公園設施及地坪老舊急待修繕，公園通道、鋪面等設施已不符現代相關需求，因此為提昇市民休憩生活品質，需改善老舊公園內相關空間、通道及設施，提供更安全、舒適、便利的居民休憩活動場所。,https://www.ntparks.tw/images/views/view-111-32-236/Photo-01.jpg; https://www.ntparks.tw/images/views/view-111-32-236/Photo-02.jpg; https://www.ntparks.tw/images/views/view-111-32-236/Photo-03.jpg; https://www.ntparks.tw/images/views/view-111-32-236/Photo-04.jpg; https://www.ntparks.tw/images/views/view-111-32-236/Photo-05.jpg; https://www.ntparks.tw/images/views/view-111-32-236/Photo-06.jpg; https://www.ntparks.tw/images/views/view-111-32-236/Photo-07.jpg,新北市共融特色公園,ntpc_park_9012_祖田兒童遊戲公園
康誥坑公園,新北市汐止區水源路2段36巷對面,新北市,汐止區,25.057274343511253,121.65329511537897,https://www.ntparks.tw/view-111-34-221.html,城堡遊戲區，鳥巢鞦韆，旋轉杯，彩虹跳樁區,漫步機、雙人坐推器，雙人腹肌版,"康誥坑公園設計構想以天空之城(雲)為主題，園區內以城堡概念規劃，規劃共融設施、體能遊具、城堡遊具概念為主，並由上層至下層整體串聯方式呈現。 
            增設無障礙坡道，讓身障朋友們也能一同使用本公園，於共融設施區各設立了一座鳥巢式鞦韆及旋轉杯提供大人小孩一同遊樂，周邊也設置些雲朵造型座椅。
            彩虹跳樁區能提供小孩子一些挑戰性，為呼應天空之城主題，將跳樁設計為彩虹的意象，以呈現在彩虹上跳躍的感覺
            天空之城城堡遊戲區為了達到共融場域且提高挑戰性(高度約3.5米)，增設攀爬網、遊戲互動版及傳聲筒、跳格子，增添城堡意象及增加遊戲場豐富度。",https://www.ntparks.tw/images/views/view-111-34-221/Photo-01.jpg; https://www.ntparks.tw/images/views/view-111-34-221/Photo-03.jpg; https://www.ntparks.tw/images/views/view-111-34-221/Photo-04.jpg; https://www.ntparks.tw/images/views/view-111-34-221/Photo-05.jpg; https://www.ntparks.tw/images/views/view-111-34-221/Photo-06.jpg,新北市共融特色公園,ntpc_park_9013_康誥坑公園
文昌公園,新北市八里區文昌街與中山路一段交叉口,新北市,八里區,25.15713763949734,121.40833501538043,https://www.ntparks.tw/view-111-33-249.html,特色溜滑梯、攀爬架、木棧橋,雙人肩關節康復器、單人滑雪器、雙人大轉輪、雙人浪板、腰背按摩器、雙人上肢牽引器、雙人漫步機、引體訓練器、三人轉腰器,遊戲區設有特色溜滑梯、攀爬網及獨木橋等遊具，鋪面還採用小朋友喜愛的礫坑，除了作為良好鋪面之外，還可堆砌讓孩子盡情發揮創意，提供孩童多元刺激、有趣、互動式的發展需求。園內也設置多處座椅與遮陽帆布，可於烈日高照時不至於曬傷，結合林蔭步道，提供更多休憩空間，並可全家於草坪區進行野餐，享受和煦日光。,https://www.ntparks.tw/images/views/view-111-33-249/Photo-01.jpg; https://www.ntparks.tw/images/views/view-111-33-249/Photo-02.jpg; https://www.ntparks.tw/images/views/view-111-33-249/Photo-03.jpg; https://www.ntparks.tw/images/views/view-111-33-249/Photo-04.jpg; https://www.ntparks.tw/images/views/view-111-33-249/Photo-05.jpg; https://www.ntparks.tw/images/views/view-111-33-249/Photo-06.jpg; https://www.ntparks.tw/images/views/view-111-33-249/Photo-07.jpg,新北市共融特色公園,ntpc_park_9014_文昌公園
永豐社區公園遊戲場,新北市土城區清水路278巷28弄內,新北市,土城區,25.03633457261244,121.31820355074285,https://www.ntparks.tw/view-112-01-236.html,鳳梨組合遊戲組,雙人健身腹肌板、肩關節康復器、高低桿、腰背按摩器、三人扭腰器、雙人漫步器,新北市土城區永豐社區公園於民國94年啟用至今已17餘年，本計畫改善原老舊之社區公園空間，提升都市市容美化，增加提供在地居民增加休憩、娛樂、聯誼等場所空間，也藉由公園空間改善提昇周邊民眾休閒居住生活品質、行動空間能達到適合舒適空間需求，讓公園活動空間更加安全、間康、舒適、通用，本計畫改善長期效益更能讓周邊產業、相關休憩活動、人潮發展更加活耀，有效促進當地發展與進步。,https://www.ntparks.tw/images/views/view-112-01-236/Photo-01.jpg; https://www.ntparks.tw/images/views/view-112-01-236/Photo-02.jpg; https://www.ntparks.tw/images/views/view-112-01-236/Photo-03.jpg; https://www.ntparks.tw/images/views/view-112-01-236/Photo-04.jpg,新北市共融特色公園,ntpc_park_10000_永豐社區公園遊戲場
天乙公園,新北市五股區天乙路81號旁,新北市,五股區,25.104817261359976,121.44676063721413,https://www.ntparks.tw/view-112-02-248.html,土丘磨石子滑梯、共融鳥巢鞦韆、親子鞦韆、彈跳床、旋轉網塔、共融翹翹板,二階單槓、單人漫步機、雙人衝浪板、雙人上肢牽引、三人轉腰器、健腹器,遊戲場以舒服的綠色人工草皮取代傳統鮮豔色彩，2米高的土丘磨石子滑梯使用少見的白水泥製作，提升整體視覺美學；公園內有五股首座彈跳床及旋轉網塔，提供孩童不同的刺激及樂趣，共融鞦韆與共融蹺蹺板也讓不同身心狀況的大小朋友們都能玩在一起。遊戲場旁的體健器材區採天然木屑鋪面，也提供民眾運動時不同的體驗感受。 園內除了大面積天然草皮、灌木及伏地植物外，更種植多棵「紫薇」、「流蘇」、「台灣欒樹」及「紅花風鈴木」等喬木，期許未來在公園就能欣賞到不同色彩的花，一年四季都是花季。,https://www.ntparks.tw/images/views/view-112-02-248/Photo-01.jpg; https://www.ntparks.tw/images/views/view-112-02-248/Photo-02.jpg; https://www.ntparks.tw/images/views/view-112-02-248/Photo-03.jpg; https://www.ntparks.tw/images/views/view-112-02-248/Photo-04.jpg; https://www.ntparks.tw/images/views/view-112-02-248/Photo-05.jpg; https://www.ntparks.tw/images/views/view-112-02-248/Photo-06.jpg,新北市共融特色公園,ntpc_park_10001_天乙公園
壽德公園,新北市中和區壽德街及民德路口,新北市,中和區,24.993245284380876,121.4634818131743,https://www.ntparks.tw/view-112-03-235.html,特色遊具：共融式爬型遊具、平衡木、溜滑梯等,手部練習器、手腕與手指訓練器、肩肘轉動器、複合式雙人踏階,中和第一座生態滯洪功能公園，壽德公園不只是遊樂園，這裡還是保衛大家安全的避難處滯洪池，保留數十年老樹的眷村記憶提升為多功能防災公園，是中和首座兼具滯洪、生態、休憩、親水的公園綠地 可有效解決85公頃範圍的積水，讓雨水滯洪及水資源再利用。,https://www.ntparks.tw/images/views/view-112-03-235/Photo-01.jpg; https://www.ntparks.tw/images/views/view-112-03-235/Photo-02.jpg; https://www.ntparks.tw/images/views/view-112-03-235/Photo-03.jpg; https://www.ntparks.tw/images/views/view-112-03-235/Photo-04.jpg; https://www.ntparks.tw/images/views/view-112-03-235/Photo-05.jpg; https://www.ntparks.tw/images/views/view-112-03-235/Photo-06.jpg; https://www.ntparks.tw/images/views/view-112-03-235/Photo-07.jpg,新北市共融特色公園,ntpc_park_10002_壽德公園
山仔腳公園,,新北市,樹林區,24.971667505116866,121.39299220683789,https://www.ntparks.tw/view-112-04-238.html,翹翹板、多元鞦韆及組合式溜滑梯,雙人漫步機、單槓,落在河岸邊公園綠地，隨著風吹樹梢，緩緩的河水流動聲，猶如置身在世外桃源。運用水與藍色作為公園設施規劃構想，置出清澈水流色塊之視覺感。,https://www.ntparks.tw/images/views/view-112-04-238/Photo-01.jpg; https://www.ntparks.tw/images/views/view-112-04-238/Photo-02.jpg; https://www.ntparks.tw/images/views/view-112-04-238/Photo-03.jpg; https://www.ntparks.tw/images/views/view-112-04-238/Photo-04.jpg; https://www.ntparks.tw/images/views/view-112-04-238/Photo-05.jpg; https://www.ntparks.tw/images/views/view-112-04-238/Photo-06.jpg,新北市共融特色公園,ntpc_park_10003_山仔腳公園
北河公園滑步車場地,新北市八里區忠孝路與忠七街交叉口,新北市,八里區,25.16099911513032,121.41924284945698,https://www.ntparks.tw/view-112-05-249.html,兒童滑步車場地設計分為一般型與進階型，一般型為平面跑道，進階型增設3處起伏的斜坡與2處過彎處跑道。,雙人漫步機、三人扭腰器、大轉輪,歡迎來到八里第一座PUSH BIKE親子滑步車場地，跑道上區分一般型與進階型，對於初接觸孩童可先在一般型場地練習後，再循序接觸進階型，進階型增設斜坡跑道部分，藉此提供兒童刺激又好玩的專屬練習空間。,https://www.ntparks.tw/images/views/view-112-05-249/Photo-01.jpg; https://www.ntparks.tw/images/views/view-112-05-249/Photo-02.jpg; https://www.ntparks.tw/images/views/view-112-05-249/Photo-03.jpg; https://www.ntparks.tw/images/views/view-112-05-249/Photo-04.jpg; https://www.ntparks.tw/images/views/view-112-05-249/Photo-05.jpg; https://www.ntparks.tw/images/views/view-112-05-249/Photo-06.jpg; https://www.ntparks.tw/images/views/view-112-05-249/Photo-07.jpg,新北市共融特色公園,ntpc_park_10004_北河公園滑步車場地
菜寮公園,新北市三重區中寮街及中寮街57巷交叉口,新北市,三重區,25.05807733900611,121.49246975916432,https://www.ntparks.tw/view-112-06-241.html,攀爬網、攀岩板、溜滑梯、鞦韆、搖搖樂、Monkey bar,雙人漫步機、雙人上肢牽引、三人轉腰機、單槓、樂齡體健,以大象為主題設計的複合式特色遊具，將滑梯、攀爬網、攀岩板、水平吊梯及圓柱形爬梯結合，讓中高年級小朋友盡情挑戰及宣洩精力。,https://www.ntparks.tw/images/views/view-112-06-241/Photo-01.jpg; https://www.ntparks.tw/images/views/view-112-06-241/Photo-02.jpg; https://www.ntparks.tw/images/views/view-112-06-241/Photo-03.jpg; https://www.ntparks.tw/images/views/view-112-06-241/Photo-04.jpg,新北市共融特色公園,ntpc_park_10005_菜寮公園
頂福活動中心旁遊戲場,新北市土城區中州路28巷28號旁,新北市,土城區,24.957235251263878,121.40804529415472,https://www.ntparks.tw/view-112-07-236.html,wall-holla遊戲組,無,頂福里活動中心遊戲場(中州路28巷旁)位於捷運頂埔站及媽祖田站(建構中)中間，占地約110平方公尺，附近有頂埔國小、市立頂埔幼兒園、私立頂埔幼兒園，周邊多為集合式住宅及大樓。遊戲場因空間有限，本次採用wall-holla遊戲組，利用高度取代場域限制，適用年齡為6至12歲，為全國少數採用3層樓高之遊戲設施。,https://www.ntparks.tw/images/views/view-112-07-236/Photo-01.jpg; https://www.ntparks.tw/images/views/view-112-07-236/Photo-02.jpg; https://www.ntparks.tw/images/views/view-112-07-236/Photo-03.jpg; https://www.ntparks.tw/images/views/view-112-07-236/Photo-04.jpg; https://www.ntparks.tw/images/views/view-112-07-236/Photo-05.jpg,新北市共融特色公園,ntpc_park_10006_頂福活動中心旁遊戲場
青雲廣場,新北市土城區清水路141巷18號,新北市,土城區,24.982314755710316,121.45828360115797,https://www.ntparks.tw/view-112-08-236.html,「鐵樂園」遊戲區、飛輪、跳樁、搖搖樂、地板遊戲,腰背按摩器、三人上肢牽引器、肩關節康復器、三人扭腰器、伸腰伸背器、雙人漫步器,西及北可抵金城路二段，東接青雲路，南連清水路，廣場為十字型，設有市民活動中心，層級上屬社區型開放空間。本次配合遊戲場域改造，將樂齡體健區調整至近大安水圳側與柑林廣場之樂齡體健區串接成一條樂齡健身之路；人行道及入口廣場則是配合人本友善予以更新；鄰近樂齡體健區及遊戲場域；基地內階梯座椅量體過多，本案將拆除兩座減量，預計保留膜構涼亭處之階梯座椅作為長者聊天社交場所。遊戲場以5-12大小孩為主，以基地周邊司法環境特色為設計發想，提出「鐵樂園」主題。,https://www.ntparks.tw/images/views/view-112-08-236/Photo-01.jpg; https://www.ntparks.tw/images/views/view-112-08-236/Photo-02.jpg; https://www.ntparks.tw/images/views/view-112-08-236/Photo-03.jpg; https://www.ntparks.tw/images/views/view-112-08-236/Photo-04.jpg; https://www.ntparks.tw/images/views/view-112-08-236/Photo-05.jpg; https://www.ntparks.tw/images/views/view-112-08-236/Photo-06.jpg; https://www.ntparks.tw/images/views/view-112-08-236/Photo-07.jpg; https://www.ntparks.tw/images/views/view-112-08-236/Photo-08.jpg; https://www.ntparks.tw/images/views/view-112-08-236/Photo-09.jpg,新北市共融特色公園,ntpc_park_10007_青雲廣場
民生公園,新北市淡水區民生路59號對面,新北市,淡水區,25.138102977656292,121.46057951134964,https://www.ntparks.tw/view-112-09-251.html,昆蟲造型組合遊具(包含溜滑梯、盤爬設施)、搖搖馬x2、藤蔓造型盪鞦韆,雙人漫步機、腹肌板、高低單槓、壓腿器,"民生公園以樹梅坑溪生態意象為主軸,以洗手台作為溪流源頭，溪流流經兒童遊戲場並於公園廣場結尾，溪流意象可作為滑車步道遊憩，兒童遊戲區部分，打造具有昆蟲造型的特色遊具及搭配藤蔓攀爬的盪鞦韆，無縫地墊增加昆蟲圖案以加強樹梅坑溪的主視覺，其次，公園內增加多樣性的體健設施，滿足年長者針對全身各部位的活動需求，公園也保留初期設置的棋盤石桌，提供民眾對弈上的需求。",https://www.ntparks.tw/images/views/view-112-09-251/Photo-01.jpg; https://www.ntparks.tw/images/views/view-112-09-251/Photo-02.jpg; https://www.ntparks.tw/images/views/view-112-09-251/Photo-03.jpg; https://www.ntparks.tw/images/views/view-112-09-251/Photo-04.jpg; https://www.ntparks.tw/images/views/view-112-09-251/Photo-05.jpg,新北市共融特色公園,ntpc_park_10008_民生公園
莊敬公園,新北市板橋區民生路二段120號,新北市,板橋區,25.020165184059806,121.47015878586015,https://www.ntparks.tw/view-112-10-220.html,大型組合遊具、共融式旋轉盤、轉轉杯、多人綜合鞦韆、方形蹦床x2,三人扭腰器、雙人上肢牽引器、雙人漫步機,打造友善、自然豐富的親子遊戲公園；利用鮮豔光明的鋪面顏色、既有喬木的豐富性、視覺動態性的鋪面設計、多樣的遊具設計使莊敬公園以全新的面貌呈現給使用者，更促進老年、幼年之親密性。,https://www.ntparks.tw/images/views/view-112-10-220/Photo-01.jpg; https://www.ntparks.tw/images/views/view-112-10-220/Photo-02.jpg; https://www.ntparks.tw/images/views/view-112-10-220/Photo-03.jpg; https://www.ntparks.tw/images/views/view-112-10-220/Photo-04.jpg,新北市共融特色公園,ntpc_park_10009_莊敬公園
長壽公園,新北市樹林區樹德街與中興街路口,新北市,樹林區,24.991994414851675,121.4208259941464,https://www.ntparks.tw/view-112-11-238.html,翹翹板、共融式鞦韆、共融式大轉盤及磨石子溜滑梯,無,運用樹葉及綠色為概念發想，配置樹林色塊之視覺感，提供民眾更舒適的休憩空間與遊戲體驗。,https://www.ntparks.tw/images/views/view-112-11-238/Photo-01.jpg; https://www.ntparks.tw/images/views/view-112-11-238/Photo-02.jpg; https://www.ntparks.tw/images/views/view-112-11-238/Photo-03.jpg; https://www.ntparks.tw/images/views/view-112-11-238/Photo-04.jpg; https://www.ntparks.tw/images/views/view-112-11-238/Photo-05.jpg; https://www.ntparks.tw/images/views/view-112-11-238/Photo-06.jpg; https://www.ntparks.tw/images/views/view-112-11-238/Photo-07.jpg,新北市共融特色公園,ntpc_park_10010_長壽公園
新莊體育園區：網球場側遊戲場,新北市新莊區中華路一段75號,新北市,新莊區,25.040805145992273,121.44861230812721,https://www.ntparks.tw/view-112-12-242.html,滑梯組,雙人漫步器、三人扭腰器、雙人大轉輪、雙人上肢伸展器,以海盜船外型設計的滑梯組，並設有攀爬架和平台；遊戲場四周有綠樹遮蔭，亦有多樣體健設施，是各年齡層市民休閒的好去處。,https://www.ntparks.tw/images/views/view-112-12-242/Photo-01.jpg; https://www.ntparks.tw/images/views/view-112-12-242/Photo-02.jpg; https://www.ntparks.tw/images/views/view-112-12-242/Photo-03.jpg; https://www.ntparks.tw/images/views/view-112-12-242/Photo-04.jpg,新北市共融特色公園,ntpc_park_10011_新莊體育園區：網球場側遊戲場
新莊體育園區：棒球場側遊戲場,新北市新莊區和興街66號,新北市,新莊區,25.040805145992273,121.44861230812721,https://www.ntparks.tw/view-112-13-242.html,滑梯組、共融鞦韆組、彈跳床、旋轉椅,三人扭腰器、單人漫步器、雙人漫步器、Monkey bar,以棒球為主題之共融遊戲場，含仿棒球場草皮、壘包彈跳床、棒球手套本壘板，使小朋友體會棒球樂趣；另遊戲場特設共融式旋轉盤及三種不同樣式之鞦韆，讓各年齡或乘坐輪椅民眾皆能同樂，組合遊具區之滑梯及礫石池，也深受小朋友們喜愛。,https://www.ntparks.tw/images/views/view-112-13-242/Photo-01.jpg; https://www.ntparks.tw/images/views/view-112-13-242/Photo-02.jpg; https://www.ntparks.tw/images/views/view-112-13-242/Photo-03.jpg; https://www.ntparks.tw/images/views/view-112-13-242/Photo-04.jpg; https://www.ntparks.tw/images/views/view-112-13-242/Photo-05.jpg; https://www.ntparks.tw/images/views/view-112-13-242/Photo-06.jpg; https://www.ntparks.tw/images/views/view-112-13-242/Photo-07.jpg,新北市共融特色公園,ntpc_park_10012_新莊體育園區：棒球場側遊戲場
新莊體育園區：田徑場側遊戲場,新北市新莊區中華路一段75號,新北市,新莊區,25.040805145992273,121.44861230812721,https://www.ntparks.tw/view-112-14-242.html,足球造型滑梯、足球門造型爬架、攀爬網、盪鞦韆、旋轉柱、搖搖馬、翹翹板,腰背按摩器、雙人腹肌板、Monkey bar、雙人上肢牽引器、雙人大轉輪、雙人腰背按摩器、雙人肩關節康復器、三人扭腰器,以足球為主題之遊戲場，含足球造型滑梯塔、足球門造型爬架及其他遊戲設備，使小朋友體會足球樂趣；遊戲場四周有綠樹遮蔭，並設有多樣體健設施，是各年齡層市民休閒的好去處。,https://www.ntparks.tw/images/views/view-112-14-242/Photo-01.jpg; https://www.ntparks.tw/images/views/view-112-14-242/Photo-02.jpg; https://www.ntparks.tw/images/views/view-112-14-242/Photo-03.jpg; https://www.ntparks.tw/images/views/view-112-14-242/Photo-04.jpg; https://www.ntparks.tw/images/views/view-112-14-242/Photo-05.jpg; https://www.ntparks.tw/images/views/view-112-14-242/Photo-06.jpg; https://www.ntparks.tw/images/views/view-112-14-242/Photo-07.jpg,新北市共融特色公園,ntpc_park_10013_新莊體育園區：田徑場側遊戲場
板橋第一運動場：海山路遊戲場,新北市板橋區漢生東路278號,新北市,板橋區,25.01037413924201,121.46652017563558,https://www.ntparks.tw/view-112-15-220.html,滑梯塔、緞帶型爬架、共融式鞦韆、彈跳床、平衡木,單槓組、Monkey bar、核心運動訓練設施、腿部運動訓練設施,板橋第一運動場遊戲場包含滑梯塔、緞帶型爬架、平衡木等設備，另遊戲場特設共融式鞦韆，讓各年齡或乘坐輪椅民眾皆能同樂，組合遊具區之滑梯塔及礫石池，也深受小朋友們喜愛。周邊亦有板橋第一運動場、籃球場及Youbike租借站，是市民休閒的好去處。,https://www.ntparks.tw/images/views/view-112-15-220/Photo-01.jpg; https://www.ntparks.tw/images/views/view-112-15-220/Photo-02.jpg; https://www.ntparks.tw/images/views/view-112-15-220/Photo-03.jpg; https://www.ntparks.tw/images/views/view-112-15-220/Photo-04.jpg,新北市共融特色公園,ntpc_park_10014_板橋第一運動場：海山路遊戲場
樹林體育園區：樹林體育園區遊戲場,新北市樹林區水源街81號,新北市,樹林區,24.97942674048639,121.42451377563476,https://www.ntparks.tw/view-112-16-238.html,沙坑、滑梯、盪鞦韆、平衡木、沙桌、搖搖馬、翹翹板,單槓組、雙人腰背按摩器、雙人大轉輪、肩關節康復器、健身腳踏車、手部按摩器、雙人漫步器,設置於沙坑中的遊戲場，含滑梯、盪鞦韆、平衡木、沙桌、搖搖馬及翹翹板等設備，遊戲場四周有綠樹遮蔭，並設有多樣體健設施，是各年齡層市民休閒的好去處。,https://www.ntparks.tw/images/views/view-112-16-238/Photo-01.jpg; https://www.ntparks.tw/images/views/view-112-16-238/Photo-02.jpg; https://www.ntparks.tw/images/views/view-112-16-238/Photo-03.jpg; https://www.ntparks.tw/images/views/view-112-16-238/Photo-04.jpg,新北市共融特色公園,ntpc_park_11000_樹林體育園區：樹林體育園區遊戲場
福營新公園,新北市新莊區福營路282號後方,新北市,新莊區,25.027851338538174,121.42087807592591,https://www.ntparks.tw/view-112-17-242.html,滾輪溜滑梯、沙坑、攀爬設施、大型多人搖馬、旋轉木馬、鞦韆等,無,"福營新公園位於新莊區新建交通分隊後方，考量其位於福營里且出入口面對福營路，故取福營兩字，後考量原先已有福營公園(位於重劃區內已拆除)，為避免混淆，最後與地方討論後定名為福營新公園。 
            福營新公園是一個迷人的公園，設有多種特色兒童遊具，包括美麗的白色沙坑、滾輪滑梯、立體攀爬架、鞦韆、造型蹺蹺板、旋轉木馬等，讓孩子們在這裡盡情遊樂。在設計福營新公園時，設計師特別考慮到相鄰的後港新公園，兩公園遊戲場分別設置了不同的遊具，為孩子們提供更多元的遊樂體驗。除了遊具之外，公園也提供了許多舒適的休憩空間，除了供孩子們奔跑玩耍，也讓家長可以在陽光下野餐休憩、放鬆身心、享受悠閒時光。公園的環境清幽、綠意盎然，可以讓人感受到大自然的美好。&nbsp;
            福營新公園地點優越，靠近捷運丹鳳站，民眾步行經過民安路回家時正好會經過，讓這裡成為下班放學後與假日出遊的好去處。&nbsp;",https://www.ntparks.tw/images/views/view-112-17-242/Photo-01.jpg; https://www.ntparks.tw/images/views/view-112-17-242/Photo-02.jpg; https://www.ntparks.tw/images/views/view-112-17-242/Photo-03.jpg; https://www.ntparks.tw/images/views/view-112-17-242/Photo-04.jpg; https://www.ntparks.tw/images/views/view-112-17-242/Photo-05.jpg,新北市共融特色公園,ntpc_park_11001_福營新公園
後竹圍公園,新北市三重區自強路三段42巷11號,新北市,三重區,25.072727486730553,121.48333257563719,https://www.ntparks.tw/view-112-18-241.html,特色遊具、鞦韆、搖搖樂,單槓、雙人漫步機、三人上肢牽引器,後竹圍公園闢建於民國86年，位於後竹圍街及自強路三段42巷交叉處。112年6月重新整建遊戲場，以可愛臘腸狗為主題設計，打造小朋友最愛的造型溜滑梯及骨頭搖搖樂，還結合了攀爬筒、吊橋、音樂板、遊戲板等功能，轉動狗耳朵的把手，還能發出狗吠聲。公園內還有一座小涼亭，可以防曬避雨，讓家長帶小孩來公園遊樂時亦有個可以休憩的場所。成人體健區也一併整建，有單槓、雙人漫步機、三人上肢牽引器設施，以滿足各年齡層民眾鍛鍊身體及運動的需求及安全。,https://www.ntparks.tw/images/views/view-112-18-241/Photo-01.jpg; https://www.ntparks.tw/images/views/view-112-18-241/Photo-02.jpg; https://www.ntparks.tw/images/views/view-112-18-241/Photo-03.jpg; https://www.ntparks.tw/images/views/view-112-18-241/Photo-04.jpg; https://www.ntparks.tw/images/views/view-112-18-241/Photo-05.jpg,新北市共融特色公園,ntpc_park_11002_後竹圍公園
海洋公園,新北市大義路與大學路口,新北市,三峽區,24.947218541780828,121.37381217521104,https://www.ntparks.tw/view-112-19-237.html,跳樁平衡木、2座彈跳床、船艏抱石攀岩、攀網、新設組合遊具、木屑及礫石鋪面,多功能體健設施區-引進一組戶外健身器，內含環形拉伸器、雙肩拉伸器、腹肌訓練器、握力器及多項挺身器,"(1)船首設置抱石攀岩。
                  (2)船桅的部分設計一座高達6米的攀爬網，是目前新北市最高的攀爬網。
                (3)新設跳樁平衡木及2座彈跳床。",https://www.ntparks.tw/images/views/view-112-19-237/Photo-01.jpg; https://www.ntparks.tw/images/views/view-112-19-237/Photo-02.jpg; https://www.ntparks.tw/images/views/view-112-19-237/Photo-03.jpg; https://www.ntparks.tw/images/views/view-112-19-237/Photo-04.jpg; https://www.ntparks.tw/images/views/view-112-19-237/Photo-05.jpg; https://www.ntparks.tw/images/views/view-112-19-237/Photo-06.jpg,新北市共融特色公園,ntpc_park_11003_海洋公園
山水匯集廣場,,新北市,五股區,25.111595335162946,121.45523807518192,https://www.ntparks.tw/view-112-20-248.html,平衡設施、攀爬繩、彈跳床、磨石溜滑梯,無,"河岸串接-觀水漫步道：以視線通透的斜坡道引導河濱民眾輕鬆前往眺景台和遊戲場。
            遊戲場：獅爪造型遊戲場鋪面加象鼻溜滑梯，讓歷史典故活化傳承。
            步步高升-觀景座階：不同高度可見不同景色的林蔭休憩區，讓民眾在地景中乘涼。
            老樹框景-眺景台：保留既有老樹，形成臺北盆地天際線的框景，是絕無僅有的自然打卡點。
            陸蟹的家-砌石溪流：藉由出水口保護設施的建置契機，提供多元路徑給陸蟹上溯。並維持周邊原生植被，提供野生生物棲息之所，是周邊難得一見的寶貴棲地。",https://www.ntparks.tw/images/views/view-112-20-248/Photo-01.jpg; https://www.ntparks.tw/images/views/view-112-20-248/Photo-02.jpg; https://www.ntparks.tw/images/views/view-112-20-248/Photo-03.jpg; https://www.ntparks.tw/images/views/view-112-20-248/Photo-04.jpg; https://www.ntparks.tw/images/views/view-112-20-248/Photo-05.jpg; https://www.ntparks.tw/images/views/view-112-20-248/Photo-06.jpg; https://www.ntparks.tw/images/views/view-112-20-248/Photo-07.jpg,新北市共融特色公園,ntpc_park_11004_山水匯集廣場
尖山公園,新北市鶯歌區尖山路137巷,新北市,鶯歌區,24.947012441789212,121.34357267514241,https://www.ntparks.tw/view-112-21-239.html,攀爬架、旋轉杯、搖搖馬、溜滑梯、翹翹板、鳥巢式盪鞦韆、攀岩牆、攀爬管、雙人盪鞦韆、爬籠,扭腰器、腹肌架、雙人漫步機、壓腿器、大轉輪、雙人晃板、懸空轉輪、腰背按摩器,結合鶯歌在地傳說，特別設置一座妖鳥造型遊具，孩童可自鳥翅拾級而上，再從鳥尾磨石子溜滑梯上滑下；亦可再攀上鳥頭位置，從鳥喙處旋轉溜滑梯溜下，玩法十分多樣；旁邊還設有盪鞦韆、翹翹板、搖搖馬、攀爬架等眾多遊具可供選擇；體健器材重新整理集中放置，讓使用者得以一邊運動，一邊聊天增進居民情感，鼓勵長者多外出運動、交流；另有設置一面廣場讓民眾跳舞、練功。本公園為特色公園，除了多樣化的活動空間外，也期望能為在地居民提供一個交流的場合，增進地區情感。,https://www.ntparks.tw/images/views/view-112-21-239/Photo-01.jpg; https://www.ntparks.tw/images/views/view-112-21-239/Photo-02.jpg; https://www.ntparks.tw/images/views/view-112-21-239/Photo-03.jpg; https://www.ntparks.tw/images/views/view-112-21-239/Photo-04.jpg; https://www.ntparks.tw/images/views/view-112-21-239/Photo-05.jpg,新北市共融特色公園,ntpc_park_11005_尖山公園
體健公園,新北市五股區成泰路三段及成洲八路交叉處,新北市,五股區,25.103782599999995,121.4345518871582,https://www.ntparks.tw/view-112-22-248.html,高塔溜滑梯、環狀溜索、擺盪大索、沙坑、共融磨石子滑梯、波浪攀爬架、大跳床、小跳床、共融鞦韆、共融轉盤、站立式遊戲板,雙人滑雪器、三人扭腰器、雙人雙槓、單槓、雙人漫步機,「體健防災公園」將五股在地特色「綠竹筍」意象，打造出2座(高筍塔10米、矮筍塔8米)高塔溜滑梯，讓孩童透過塔內攀爬及互動遊具，在遊戲過程「爬」「抓」「拉」「攀」中取得身心平衡與發展。在高塔溜滑梯旁設置「環狀溜索」，國內遊戲場多為單線水平位移，環狀設計非常罕見；除此之外公園內設置全五股區第一座「擺盪大索」及「沙坑」，皆提供孩童新鮮、較少體驗的遊憩設施，可以預見這裡將是遊戲場內另一處熱門焦點。公園既有的罐頭遊戲場改造為「共融遊戲場」，場內設計土丘磨石子滑梯符合無障礙滑梯標準，讓行動不便的孩童能跟所有大小朋友玩在一起；土丘另一面設置「波浪攀爬架」，孩童配合地形高低變化，為土丘創造更刺激的遊戲體驗；「大、小彈跳床」設置於土丘旁，孩童在遊玩過程中，透過彈跳觀察四周的環境，選擇下一個遊玩目標；除此之外還有最受孩童喜愛的「鞦韆區」及「共融轉盤」皆有設置在內，讓整個「共融遊戲場」兼具溜滑、攀爬、彈跳、擺盪、旋轉等多元功能，提供孩童訓練身體的探索及協調性並促進身心健全發展。,https://www.ntparks.tw/images/views/view-112-22-248/Photo-01.jpg; https://www.ntparks.tw/images/views/view-112-22-248/Photo-02.jpg; https://www.ntparks.tw/images/views/view-112-22-248/Photo-03.jpg; https://www.ntparks.tw/images/views/view-112-22-248/Photo-04.jpg; https://www.ntparks.tw/images/views/view-112-22-248/Photo-05.jpg; https://www.ntparks.tw/images/views/view-112-22-248/Photo-06.jpg; https://www.ntparks.tw/images/views/view-112-22-248/Photo-07.jpg; https://www.ntparks.tw/images/views/view-112-22-248/Photo-08.jpg; https://www.ntparks.tw/images/views/view-112-22-248/Photo-09.jpg,新北市共融特色公園,ntpc_park_11006_體健公園
介壽公園,新北市三峽區永安街9巷5號,新北市,三峽區,24.929780742480588,121.3741383751418,https://www.ntparks.tw/view-112-23-237.html,鞦韆，組合滑梯、蹺蹺板,三人上肢牽引器及雙人單槓，三人扭腰器,結合「藍染」主題，打造染缸意象的組合遊具及藍絲帶環園步道。公園主要分為三大部分，兒童遊戲區有組合滑梯、鞦韆、蹺蹺板堤供3~12歲孩童使用；銀青體建區有體健設施及環狀步道提供長者及年輕人運動的空間，並留有多功能廣場提供休閒使用如打羽毛球及舞蹈與社交。,https://www.ntparks.tw/images/views/view-112-23-237/Photo-01.jpg; https://www.ntparks.tw/images/views/view-112-23-237/Photo-02.jpg; https://www.ntparks.tw/images/views/view-112-23-237/Photo-03.jpg; https://www.ntparks.tw/images/views/view-112-23-237/Photo-04.jpg; https://www.ntparks.tw/images/views/view-112-23-237/Photo-05.jpg; https://www.ntparks.tw/images/views/view-112-23-237/Photo-06.jpg; https://www.ntparks.tw/images/views/view-112-23-237/Photo-07.jpg,新北市共融特色公園,ntpc_park_11007_介壽公園
民享藝文特區,新北市中和區自治街、民治街間,新北市,中和區,25.00370603951119,121.473029875109,https://www.ntparks.tw/view-113-02-235.html,特色滑梯組遊具、搖搖樂、鳥巢鞦韆,漫步機,民享藝文特區，兒童遊具亦因老舊不符合新的兒童遊具安全規範，今年也爭取經費一併更新。新式的彩色無縫地墊上有一座小型的溜滑梯及搖搖馬，鳥巢式的鞦韆貼近小小孩童的需求，平坦且視野寬闊的空間不僅可以讓孩子安心玩耍奔跑，周圍的座椅也能讓家長稍作休憩，期待這個小巧卻安全的遊戲場能激發出孩子開心地嬉鬧聲及無限的想像空間。,https://www.ntparks.tw/images/views/view-113-02-235/Photo-01.jpg; https://www.ntparks.tw/images/views/view-113-02-235/Photo-02.jpg; https://www.ntparks.tw/images/views/view-113-02-235/Photo-03.jpg; https://www.ntparks.tw/images/views/view-113-02-235/Photo-04.jpg; https://www.ntparks.tw/images/views/view-113-02-235/Photo-05.jpg,新北市共融特色公園,ntpc_park_11008_民享藝文特區
吉祥公園,新北市林口區吉祥路,新北市,林口區,25.08039573642222,121.3735215751112,https://www.ntparks.tw/view-113-04-244.html,主題遊戲塔、大繩索鞦韆、幼齡攀爬繩、大型旋轉錐、無障礙溜滑梯、互動式選轉意象牆,板凳撐體、熱身草坪、雙人座推器、多功能體健設施,本地段位於林口重劃區開發範圍內，因林口區近年都市發展繁榮，文化二路、文化三路周邊住宅與商業大樓林立，且位置座落於影城廣場及影視大樓中央地段，故以結合地方紋理、影視金三角為主要概念，創造具地域特性的主題公園；主要工項為假設、整地、入口意象、鋪面、特色遊具、體健設施、照明及植栽工程等相關設施，以期於完工後提供多元化遊樂設施，並打造綠色漫步生活軸帶串聯既有富貴森林公園，營造更為友善的人本都會步行環境。,https://www.ntparks.tw/images/views/view-113-04-244/Photo-01.jpg; https://www.ntparks.tw/images/views/view-113-04-244/Photo-02.jpg; https://www.ntparks.tw/images/views/view-113-04-244/Photo-03.jpg; https://www.ntparks.tw/images/views/view-113-04-244/Photo-04.jpg; https://www.ntparks.tw/images/views/view-113-04-244/Photo-05.jpg,新北市共融特色公園,ntpc_park_11009_吉祥公園
自強公園,新北市中和區莒光路、國光街口,新北市,中和區,25.00013763965321,121.46888997595548,https://www.ntparks.tw/view-113-05-235.html,特色滑梯組遊具、荷花葉組、搖搖樂、鳥巢鞦韆,腹肌板、單槓、雙槓、輪胎,自強公園遊具更新主要貼近學齡前至中年級學童，安全的扶梯及低矮的滑梯，可以滿足較小年紀的孩童，減少挫折感並提升遊玩體驗；較高的旋轉間隔透明溜滑梯則適合大孩童挑戰，結合垂直的攀爬梯及繩結攀爬網，刺激中又兼顧安全。地面的樹木彩繪安全地墊則呼應遊具上的台灣藍鵲，代表著自強公園揉合都會區的繁華及低海拔森林般的公園氣息。,https://www.ntparks.tw/images/views/view-113-05-235/Photo-01.jpg; https://www.ntparks.tw/images/views/view-113-05-235/Photo-02.jpg; https://www.ntparks.tw/images/views/view-113-05-235/Photo-03.jpg; https://www.ntparks.tw/images/views/view-113-05-235/Photo-04.jpg; https://www.ntparks.tw/images/views/view-113-05-235/Photo-05.jpg,新北市共融特色公園,ntpc_park_11010_自強公園
兒三公園,新北市三芝區淡金路二段87巷內,新北市,三芝區,25.259725829164218,121.5021840759313,https://www.ntparks.tw/view-113-06-252.html,磨石子溜滑梯、攀爬繩、攀岩粒、鑽籠、管狀滑梯,雙人肩關節康復器、雙人大轉輪、三人扭腰器、三人上肢牽引器、雙人單槓,兒三公園是本區唯一具有古典庭園特色的社區公園，區分為前、後園區，前園區為假山瀑布、楊柳池塘、涼亭迴廊、庭園造景、童玩圖騰及各種樹木林立；後園區有兒童遊戲區、體健設施區、草坪區及廣場區，為三芝在地居民喜愛的休閒園地。,https://www.ntparks.tw/images/views/view-113-06-252/Photo-01.jpg; https://www.ntparks.tw/images/views/view-113-06-252/Photo-02.jpg; https://www.ntparks.tw/images/views/view-113-06-252/Photo-03.jpg; https://www.ntparks.tw/images/views/view-113-06-252/Photo-04.jpg; https://www.ntparks.tw/images/views/view-113-06-252/Photo-05.jpg,新北市共融特色公園,ntpc_park_11011_兒三公園
中原公園,新北市蘆洲區 蘆洲區長興路50巷與長樂路交叉口,新北市,蘆洲區,25.083780536284102,121.46154107592713,https://www.ntparks.tw/view-113-07-247.html,松鼠造型組合遊具1座(含滑梯x2、平衡木x1、吊橋x1、滑桿)、橡果屋攀爬架1座、4人座鞦韆1組、小花旋轉杯1座、全細礫石鋪面,單槓、伸背器、腰背按摩器、大轉輪、滑步機、漫步機、扭腰器,"都市叢林間的松鼠，穿梭於公園人群中，巨大松鼠遊具現在正佔領著中原公園，帶著松果攀爬小屋及鞦韆趴在礫石池中，松鼠身上揹著滑梯和獨木橋，等著小朋友來挑戰。 
            公園內除了遊具之外還有種類及數量眾多的體健設施，而且園內大樹林立，涼爽舒適，適合大小朋友一同放鬆休閒。",https://www.ntparks.tw/images/views/view-113-07-247/Photo-01.jpg; https://www.ntparks.tw/images/views/view-113-07-247/Photo-02.jpg; https://www.ntparks.tw/images/views/view-113-07-247/Photo-03.jpg; https://www.ntparks.tw/images/views/view-113-07-247/Photo-04.jpg; https://www.ntparks.tw/images/views/view-113-07-247/Photo-05.jpg; https://www.ntparks.tw/images/views/view-113-07-247/Photo-06.jpg; https://www.ntparks.tw/images/views/view-113-07-247/Photo-07.jpg,新北市共融特色公園,ntpc_park_11012_中原公園
親情河濱公園,河濱公園,新北市,新店區,24.965465841046818,121.53268007592443,https://www.ntparks.tw/view-113-08-231.html,"親情河濱公園的改善工程也同時納入了舊有親情寵物公園，將原有改善工程面積擴大2倍為3,000平方公尺，並新增綠蔭、座階及水龍頭，民眾可以休息外，也讓毛小孩乾乾淨淨回家。目前新北市河濱公園總共有7座寵物公園，讓毛小孩們能夠在草皮上盡情奔跑與嬉戲，成為毛小孩散步放電的最佳場域。",親情河濱公園寵物公園,「親子夢遊天地」遊戲場佔地約1.7公頃，座落在親情停車場及河濱公園自行車道間，透過步道與地景全面調整，打造全新的自然遊戲場，使小朋友的遊戲行為融入自然之中，亦發揮河濱公園廣闊腹地、天然地勢高差的優勢，也讓水利局正在推動的碧潭堰水漾學堂除了生態觀察，更增添兒童遊戲的功能，令碧潭風景區連接到這裡體驗大碧潭池風景區遊覽的深度及多元。,https://www.ntparks.tw/images/views/view-113-08-231/Photo-01.jpg; https://www.ntparks.tw/images/views/view-113-08-231/Photo-02.jpg,新北市共融特色公園,ntpc_park_11013_親情河濱公園
復興公園,汐止區復興路、龍安路及連興街交界口三區,新北市,汐止區,25.063968237083095,121.65351567592683,https://www.ntparks.tw/view-113-09-221.html,鞦韆、鳥巢式鞦韆、跳床、攀爬遊具、組合遊具,雙人滑步機、三人扭腰器、MonkeyBar、壓腿器、雙人肩關節康復器、伸腰伸背器、上肢牽引器,戶外健身房、兒童遊憩場及都市綠園三區整體性串聯為主軸，賦予區域不同的使用機能。打造方便的漫步空間、完善休憩的需求以及低年齡層到高年齡層所需設備。,https://www.ntparks.tw/images/views/view-113-09-221/Photo-01.jpg; https://www.ntparks.tw/images/views/view-113-09-221/Photo-02.jpg; https://www.ntparks.tw/images/views/view-113-09-221/Photo-03.jpg; https://www.ntparks.tw/images/views/view-113-09-221/Photo-04.jpg,新北市共融特色公園,ntpc_park_11014_復興公園
新莊體育園區陽光草坪側遊戲場,新北市新莊區,新北市,新莊區,25.04095643801001,121.44720957605091,https://www.ntparks.tw/view-113-10-242.html,跑跳區、障礙賽攀爬網、障礙賽攀繩丘、組合障礙柱、越野跳箱組、MonkeyBar組六大遊戲設施,有,專屬13歲以上大孩子的遊戲場。繼新莊體育園區內棒球主題遊戲場後，再針對陽光草坪旁遊戲場進行翻新，設置帶有「闖關」及「挑戰」元素，具強度的爬架、攀繩丘、障礙柱、跳箱及組合式MonkeyBar等設施，可訓練孩子的肢體協調性及肌耐力等，完全是為大孩子設計，歡迎大孩子們來挑戰。,https://www.ntparks.tw/images/views/view-113-10-242/Photo-01.jpg; https://www.ntparks.tw/images/views/view-113-10-242/Photo-02.jpg; https://www.ntparks.tw/images/views/view-113-10-242/Photo-03.jpg; https://www.ntparks.tw/images/views/view-113-10-242/Photo-04.jpg; https://www.ntparks.tw/images/views/view-113-10-242/Photo-05.jpg,新北市共融特色公園,ntpc_park_12000_新莊體育園區陽光草坪側遊戲場
福民公園,新北市新店區,新北市,新店區,24.97317744073694,121.53001472592469,https://www.ntparks.tw/view-113-11-231.html,磨石子溜滑梯、攀爬繩網、鑽管、鳥巢鞦韆、一般鞦韆、彈跳床、旋轉遊具,太空漫步機、腰背按摩器、腹肌板、雙人肩關節康復器,是新店區少數擁有水池的公園，綠意盎然、喬木蓊鬱的景觀；充滿趣味的遊戲場集合了磨石子滑梯、攀爬繩網、鑽管、鳥巢鞦韆、一般鞦韆、彈跳床、旋轉遊具等多樣化設施。不僅讓所有孩子都能盡情玩樂，還根據不同年齡段與需求設計，提供豐富的身體、感覺和社交遊戲體驗。 除了遊戲場，我們也對水池進行了全面升級！池岸砌石、植栽綠化讓水池更加柔化，並增設水中過濾設施，保持水質潔淨、安全。此外，水池旁邊的踩水車增加了互動性，讓玩樂更加有趣。 公園內的步道、體健設施和健康步道也經過了大幅改善，提升了整體環境品質，為大家提供了一個更加安全、舒適的休閒空間。快來一起享受與體驗這個全新的樂園吧！,https://www.ntparks.tw/images/views/view-113-11-231/Photo-01.jpg; https://www.ntparks.tw/images/views/view-113-11-231/Photo-02.jpg; https://www.ntparks.tw/images/views/view-113-11-231/Photo-03.jpg; https://www.ntparks.tw/images/views/view-113-11-231/Photo-04.jpg; https://www.ntparks.tw/images/views/view-113-11-231/Photo-05.jpg; https://www.ntparks.tw/images/views/view-113-11-231/Photo-06.jpg; https://www.ntparks.tw/images/views/view-113-11-231/Photo-07.jpg,新北市共融特色公園,ntpc_park_12001_福民公園
廣興河濱公園,新北市新店區,新北市,新店區,24.913167043145524,121.5352282759234,https://www.ntparks.tw/view-113-12-231.html,,,公園位於河濱淺水處，成群的大、小白鷺、蒼鷺在沙洲上棲息，鳥兒在湖面上翩翩起舞，公園更有賞景步道、指示牌、燈具等設施，在原有的茂密大樹遮蔽下，打造帶狀的賞景座牆，大面積的草皮可供民眾野餐放風，友善的自然環境也是民眾帶毛小孩來親近自然的選擇，飼主也可來到廣興河濱公園訓練猛禽，是新店廣興里居民散步賞景、賞鳥的最佳觀賞點之一。,https://www.ntparks.tw/images/views/view-113-12-231/Photo-01.jpg; https://www.ntparks.tw/images/views/view-113-12-231/Photo-02.jpg; https://www.ntparks.tw/images/views/view-113-12-231/Photo-03.jpg; https://www.ntparks.tw/images/views/view-113-12-231/Photo-04.jpg,新北市共融特色公園,ntpc_park_12002_廣興河濱公園
二重公園(公37公園),新北市三重區,新北市,三重區,25.061305304587435,121.46248216576693,https://www.ntparks.tw/view-113-13-241.html,磨石子溜滑梯、鞦韆、沙坑,有,本案鄰疏洪東路二段，地下為二重公園地下停車場，基地一邊為舊社區，另一邊為重劃區，以小家庭類型居多，經觀察發現多為該側住戶散步活動及運動型使用。因附近為新北市三重棒球場，故遊戲場以「棒球」為主題的兒童遊戲場，設計棒球造型的溜滑梯、球棒造型沙坑及沙桌、鞦韆區，以及規劃無障礙友善的坡道。,https://www.ntparks.tw/images/views/view-113-13-241/Photo-01.jpg; https://www.ntparks.tw/images/views/view-113-13-241/Photo-02.jpg; https://www.ntparks.tw/images/views/view-113-13-241/Photo-03.jpg,新北市共融特色公園,ntpc_park_12003_二重公園(公37公園)
大永德公園,新北市三重區後竹圍街150號,新北市,三重區,25.07242193674223,121.486322225927,https://www.ntparks.tw/view-113-14-241.html,滑梯、爬網、攀岩版、鑽籠、猴架、鳥巢鞦韆、搖搖馬,漫步機、上肢牽引器、多功能訓練器、雙人腹肌板、單槓,大永德公園位於永德街和後竹圍街上，是全國首座以魔術方塊和荷蘭方塊屋為主題所打造的特色遊具公園，整座遊具以方塊屋造型為基座，周圍連接爬網、鑽籠、攀岩板等各式各樣的攀爬設施，中央設有寬闊的平台可供玩耍，再從旁邊的滑梯滑至地面，旁邊另設有鳥巢鞦韆、搖搖馬和魔術方塊造型的座椅供民眾休憩。另外，遊戲場旁的體健區除保有可繼續使用的體健設施，更新增專為高齡長者及行動不便者可使用的專屬體健設施，提供市民多元無礙的休憩環境。,https://www.ntparks.tw/images/views/view-113-14-241/Photo-01.jpg; https://www.ntparks.tw/images/views/view-113-14-241/Photo-02.jpg; https://www.ntparks.tw/images/views/view-113-14-241/Photo-03.jpg,新北市共融特色公園,ntpc_park_12004_大永德公園
同安36公園,新北市三重區正義南路和環河南路交叉口,新北市,三重區,25.05721953735498,121.49678477592667,https://www.ntparks.tw/view-113-15-241.html,溜滑梯、鳥巢鞦韆、空中步道,漫步機、轉腰器等,一顆紅色大蘋果矗立在公園非常醒目，遊具全長約35m，共有大蘋果1座、小蘋果2座、連接平台4座及滑梯1座，大蘋果總高約7m，各遊戲平台高約3-4m，兒童可於平台上觀察樹稍自然生態再從溜滑梯滑下來。旁邊配合蘋果遊具意象還有一組毛毛蟲造型的共融鞦韆，鞦韆可供2-3名孩童一同互動遊玩。地墊採簡約風格鋪設，並增加人工草皮，讓家長可以在樹下休息。公園現有的體健設施也做了翻新，讓年長者在陪伴的同時也可伸展筋骨。,https://www.ntparks.tw/images/views/view-113-15-241/Photo-01.jpg; https://www.ntparks.tw/images/views/view-113-15-241/Photo-02.jpg; https://www.ntparks.tw/images/views/view-113-15-241/Photo-03.jpg,新北市共融特色公園,ntpc_park_12005_同安36公園
鹿角溪公園(第3期),新北市樹林區中洲街51巷14號,新北市,樹林區,24.971712240795974,121.39346517592466,https://www.ntparks.tw/view-113-16-238.html,磨石子溜滑梯、鞦韆、沙坑 無障礙大轉輪、無障礙上肢牽引器、無障礙抬腿訓練器,上肢旋轉設備、三人扭腰器、雙人腰背按摩器、雙人太空漫步機及雙人大轉輪,鹿角溪公園共分四期闢建，第三期是以長輩為服務對象，提供休憩放鬆、運動健身的舒適環境。設施包括跳舞廣場、輪椅座椅區下棋台、復健牆及無障礙體健設施。,https://www.ntparks.tw/images/views/view-113-16-238/Photo-01.jpg; https://www.ntparks.tw/images/views/view-113-16-238/Photo-02.jpg,新北市共融特色公園,ntpc_park_12006_鹿角溪公園(第3期)
新北大都會公園－海世界水樂園,,新北市,三重等區,25.055468843584723,121.47855721488244,https://www.ntparks.tw/view-113-17-241.html,滾輪溜滑梯、鋼管管狀溜滑梯、磨石子溜滑梯、PVC管狀溜滑梯、滑草場、滑軌、滑索、搖搖盤、山豬搖搖馬、鞦韆、蹦床、傳聲筒、攀爬網、攀爬塊區、攀爬繩、攀爬籠、攀爬座、遊戲牆板、吊橋、跳樁區、洞洞屋、輪輢鞦韆、沙坑、戲水設施,大轉輪、大小轉輪手腕運動訓練器、手指階梯蛇型環、曲徑手腕訓練器、抬腿訓練器、太極推揉器、臂力訓練器、記憶遊戲、上肢牽引器,新北大都會公園（New Taipei Metropolitan Park）面積424公頃，位於三重、新莊、五股、蘆洲之二重疏洪道，為防洪兼具休閒遊憩功能之公園。全長7.7公里，場域規劃分別為生態體驗區(五股濕地、微風運河)、都會運動區(遙控賽車場、籃球場、棒壘球場)、親子休閒區(婚紗廣場、共融遊戲場)。其中「海世界水樂園」，設計係延續「熊猴森樂園」台灣特色動物為主題概念，以臺灣周邊海洋生物為主題，打造7大臺灣特色水中生物，如綠蠵龜、萬里蟹、彈塗魚、寄居蟹、澎湖章魚、海月水母、花園鰻等親水設施消暑好玩，同時可認識台灣特色水中生物。還有5種不同體驗玩法，有360度水霧的彩虹隧道、無障礙的益智水桌、親子互動的大型水槍、手動幫浦等。現場更有更衣間及戶外淋浴區，可供民眾簡單沖洗。,https://www.ntparks.tw/images/views/view-110-24-241/Photo-17.jpg; https://www.ntparks.tw/images/views/view-110-24-241/Photo-18.jpg,新北市共融特色公園,ntpc_park_12007_新北大都會公園－海世界水樂園
新北大都會公園－熊猴森樂園,位於新北市三重、新莊、五股、蘆洲等區交界 (新北市三重區重新橋至成蘆橋),新北市,位於新北市,25.055468843584723,121.47855721488244,https://www.ntparks.tw/view-113-18-241.html,滾輪溜滑梯、鋼管管狀溜滑梯、磨石子溜滑梯、PVC管狀溜滑梯、滑草場、滑軌、滑索、搖搖盤、山豬搖搖馬、鞦韆、蹦床、傳聲筒、攀爬網、攀爬塊區、攀爬繩、攀爬籠、攀爬座、遊戲牆板、吊橋、跳樁區、洞洞屋、輪輢鞦韆、沙坑、戲水設施,大轉輪、大小轉輪手腕運動訓練器、手指階梯蛇型環、曲徑手腕訓練器、抬腿訓練器、太極推揉器、臂力訓練器、記憶遊戲、上肢牽引器,新北大都會公園（New Taipei Metropolitan Park）面積424公頃，位於三重、新莊、五股、蘆洲之二重疏洪道，為防洪兼具休閒遊憩功能之公園。全長7.7公里，場域規劃分別為生態體驗區(五股濕地、微風運河)、都會運動區(遙控賽車場、籃球場、棒壘球場)、親子休閒區(婚紗廣場、共融遊戲場)。其中之「熊猴森樂園」從辰光橋至中山橋間長度約800公尺寬50公尺，總面積有4公頃的空間，創造出共融、全齡、充滿趣味及具挑戰刺激性的造型遊樂場樂園。由台灣生態動物意象所組成的溜滑梯及100種不同的遊樂設施，以多種國寶級森林動物齊聚於此，以森林派對嘉年華為設計理念，從空中俯瞰是天空、山岳、森林及溪流等不同主題，結合各式遊具及堤坡特色地景，從64快速公路橋上遠看更是一幅大型地景藝術畫作。並顧及身障孩童需求，特別設計輪椅通道，使其在父母輔助下亦能享受無障礙的遊戲之樂；園區內亦設置輪椅專用之盪鞦韆，讓乘坐輪椅的人士，也可享受盪鞦韆的樂趣，另外瀑布滑草場利用既有堤坡高低差，依地形變化規劃設計，舖設人工草皮，以藍色為背景，打造出瀑布的意象，讓民眾可以來到新北大都會公園享受滑草的樂趣。,https://www.ntparks.tw/images/views/view-110-24-241/Photo-07.jpg; https://www.ntparks.tw/images/views/view-110-24-241/Photo-08.jpg; https://www.ntparks.tw/images/views/view-110-24-241/Photo-12.jpg,新北市共融特色公園,ntpc_park_12008_新北大都會公園－熊猴森樂園
新北大都會公園－大黃蜂沙坑,位於新北市三重、新莊、五股、蘆洲等區交界 (新北市三重區重新橋至成蘆橋),新北市,位於新北市,25.055468843584723,121.47855721488244,https://www.ntparks.tw/view-113-19-241.html,滾輪溜滑梯、鋼管管狀溜滑梯、磨石子溜滑梯、PVC管狀溜滑梯、滑草場、滑軌、滑索、搖搖盤、山豬搖搖馬、鞦韆、蹦床、傳聲筒、攀爬網、攀爬塊區、攀爬繩、攀爬籠、攀爬座、遊戲牆板、吊橋、跳樁區、洞洞屋、輪輢鞦韆、沙坑、戲水設施,大轉輪、大小轉輪手腕運動訓練器、手指階梯蛇型環、曲徑手腕訓練器、抬腿訓練器、太極推揉器、臂力訓練器、記憶遊戲、上肢牽引器,新北大都會公園（New Taipei Metropolitan Park）面積424公頃，位於三重、新莊、五股、蘆洲之二重疏洪道，為防洪兼具休閒遊憩功能之公園。全長7.7公里，場域規劃分別為生態體驗區(五股濕地、微風運河)、都會運動區(遙控賽車場、籃球場、棒壘球場)、親子休閒區(婚紗廣場、共融遊戲場)。「大黃蜂沙坑」打造出巨型黃色蜜蜂地景的沙坑遊戲場，遊戲場內設置不同類型的兒童遊具，包括首次以貨櫃屋的方式創造小型遊玩空間，設有攀爬及溜滑梯遊具，不但新奇有趣，小朋友也可探索其奧妙。另外，蜜蜂的觸角設置兼顧行動不便孩童遊玩的天旋地轉和旋轉座椅共融遊具，在父母陪同輔助下都能享受無障礙的遊戲樂趣。蜜蜂地景沙坑遊戲場也融入共融性遊具概念，整體場區以大黃蜂意象呈現。此外，仔細看也可發現在巨型蜜蜂內藏著許多小蜜蜂，它們停在蜂巢裡的遮陽棚上陪著小寶貝們一起玩耍，保護大家免受到太陽公公的曝曬。值得一提的是，本遊戲場有個貼心的設計，家長也可以坐在沙坑內的三角飯糰墩座座椅休憩，近距離陪伴小朋友玩耍。,https://www.ntparks.tw/images/views/view-110-24-241/Photo-19.jpg; https://www.ntparks.tw/images/views/view-110-24-241/Photo-22.jpg,新北市共融特色公園,ntpc_park_12009_新北大都會公園－大黃蜂沙坑
永平公園,新北市蘆洲區永平街1號,新北市,蘆洲區,25.090310436020793,121.4563913759274,https://www.ntparks.tw/view-113-20-247.html,溜滑梯、擺盪鞦韆、爬桿、滑索、彈跳設施、鳥巢鞦韆、幼童鞦韆、一般鞦韆、鑽龍,有,永平公園周邊設有YouBike站點及公車候車亭，整體交通非常便利，公園內遊戲場將彈跳床想像成青蛙的大眼睛，利用青蛙的相關元素，融入池塘生態環境，打造以青蛙意象及池塘風格為主題，遊戲場內設施密度高，包含滑梯、擺盪設施、鞦韆及彈跳設施等多樣遊具，歡迎各位家長陪伴小朋友一同遊玩。,https://www.ntparks.tw/images/views/view-113-20-247/Photo-01.jpg; https://www.ntparks.tw/images/views/view-113-20-247/Photo-02.jpg; https://www.ntparks.tw/images/views/view-113-20-247/Photo-03.jpg,新北市共融特色公園,ntpc_park_12010_永平公園
國華公園(公8公園),新北市鶯歌區,新北市,鶯歌區,24.95367094152042,121.34048447592417,https://www.ntparks.tw/view-113-21-239.html,籃球場、體健設備、塑木平台、攀爬網、溜滑梯,有,本公園位於住宅密集區域，附近更有昌福國小、鶯歌國小、鶯歌國中、建國國小，為重視地方休閒娛樂發展，公園除景觀綠美化、休憩步道基本需求外，另規畫籃球場、體健設備、塑木平台、攀爬網、溜滑梯等設施提供周邊居民休憩娛樂使用，並可提升整體周邊環境景觀。 公園於規劃設計期間更邀集民間團體檢討，規劃出「全齡遊樂設施」，其中籃球場可供熱血青年揮灑汗水;體健設備可讓成年族群舒展筋骨;塑木平台、攀爬網及溜滑梯則讓兒童快樂唱遊，適合各年齡層遊憩休閒場所，未來民眾除轉乘捷運期間可至公園休憩外，平時亦可與家人、朋友攜手同遊。,https://www.ntparks.tw/images/views/view-113-21-239/Photo-01.jpg; https://www.ntparks.tw/images/views/view-113-21-239/Photo-02.jpg; https://www.ntparks.tw/images/views/view-113-21-239/Photo-03.jpg,新北市共融特色公園,ntpc_park_12011_國華公園(公8公園)
兒三公園,新北市樹林區,新北市,樹林區,24.945898091832316,121.37998627592395,https://www.ntparks.tw/view-113-22-238.html,磨石子滑梯、雙人鞦韆組,高低單槓,本公園以雷龍造型溜滑梯、盪鞦韆、恐龍蛋造型攀爬地形地景裝置設施，提供北大特區兒童遊憩之特色公園。,https://www.ntparks.tw/images/views/view-113-22-238/Photo-01.jpg; https://www.ntparks.tw/images/views/view-113-22-238/Photo-02.jpg,新北市共融特色公園,ntpc_park_12012_兒三公園
東昇公園(第2期),新北市樹林區,新北市,樹林區,24.984728040272877,121.41224907592498,https://www.ntparks.tw/view-113-23-238.html,立體式星球攀爬網+磨石子滑梯及旋轉滑梯、組合式鞦韆(鳥巢、尿布及坐式)、攀爬架、沙坑、碎石坑、木屑坑、水管隧道。,三人轉腰器、腰背按摩器、單人滑步機,東昇公園是以「星際探險」為主題的公園，導入星球概念於遊戲場，設置立體攀爬網為主軸的特色遊具，另有沙坑、木屑坑、攀爬架及度鞦韆、水管隧道等特色遊憩設施，是頗受民眾歡迎的特色公園。,https://www.ntparks.tw/images/views/view-113-23-238/Photo-01.jpg; https://www.ntparks.tw/images/views/view-113-23-238/Photo-02.jpg; https://www.ntparks.tw/images/views/view-113-23-238/Photo-03.jpg,新北市共融特色公園,ntpc_park_12013_東昇公園(第2期)
吉安公園,新北市新店區吉安街24號對面,新北市,新店區,24.966197841018886,121.51321287504761,https://www.ntparks.tw/view-113-24-231.html,大黑熊造型溜滑梯、開放式塑膠滑梯、攀爬網、攀岩牆、盪鞦韆,雙人肩寬節康復器、雙人浪板漫步器、腹肌板、單槓、雙槓,吉安公園位於新店安坑地區，成立已逾十年。改善前，因設施老舊、林木茂盛且陰暗，鋪面草地積水濕滑，僅有石桌石椅，已不符現今使用需求，並將老舊公園規劃設計以可愛討喜的台灣黑熊為主題。 公園鄰近安坑輕軌安康站，改善後新增大熊溜滑梯及鞦韆，並依照使用需求分為5至12歲兒童遊戲場及成人體健設施兩區塊，滿足不同年齡層的需求。黑熊也成為當地醒目可愛的地標，帶小朋友搭乘安坑輕軌於安康站下車，步行3分鐘即可抵達，相當便利。,https://www.ntparks.tw/images/views/view-113-24-231/Photo-01.jpg; https://www.ntparks.tw/images/views/view-113-24-231/Photo-02.jpg; https://www.ntparks.tw/images/views/view-113-24-231/Photo-03.jpg; https://www.ntparks.tw/images/views/view-113-24-231/Photo-04.jpg; https://www.ntparks.tw/images/views/view-113-24-231/Photo-05.jpg,新北市共融特色公園,ntpc_park_12014_吉安公園
民樂人行廣場,新北市中和區,新北市,中和區,25.0016259395933,121.47963497592525,https://www.ntparks.tw/view-113-25-235.html,遊具1組、鞦韆2組、鳥巢鞦韆1組與親子翹翹板1組,滑步機、上肢牽引器及轉輪與單桿,民樂人行廣場鄰近國中、小學，故朝向多元、分齡、分區使用之理念進行規劃。有設置較大孩子可使用的monkey bar，也有較小朋友的滑梯，以攀爬網及攀爬板作功能性動線連結，刺激兒童之腦前庭感官發育；親子翹翹板讓親子可共享遊戲的樂趣。設施符合CNS安全規範，可供3歲至12歲的小朋友使用，是理想的戶外遊戲環境，是優質及安全的公園設施。,https://www.ntparks.tw/images/views/view-113-25-235/Photo-01.jpg; https://www.ntparks.tw/images/views/view-113-25-235/Photo-02.jpg; https://www.ntparks.tw/images/views/view-113-25-235/Photo-03.jpg; https://www.ntparks.tw/images/views/view-113-25-235/Photo-04.jpg,新北市共融特色公園,ntpc_park_13000_民樂人行廣場
員和公園,新北市土城區,新北市,土城區,24.97905564050101,121.44003837580648,https://www.ntparks.tw/view-113-26-236.html,桐花造型的溜滑梯組、磨石子溜滑梯、沙坑、搖搖樂,無,休閒型社區公園，自然健康活動環境，提供居民休閒活動好場所，設有兒童遊戲區、景觀步道及公用廁所。,https://www.ntparks.tw/images/views/view-113-26-236/Photo-01.jpg; https://www.ntparks.tw/images/views/view-113-26-236/Photo-02.jpg; https://www.ntparks.tw/images/views/view-113-26-236/Photo-03.jpg,新北市共融特色公園,ntpc_park_13001_員和公園
新民公園,新北市淡水區新民街120巷,新北市,淡水區,25.17901143243604,121.43647177592953,https://www.ntparks.tw/view-113-27-251.html,組合式溜滑梯、共融式鞦韆、搖搖馬,雙人漫步機、雙人上肢牽引器、肩關節康復器、雙人晃板、單槓、腹肌板,公園鄰近新興國小，分兒童遊戲區和體健設施區分，幅提升使用者安全性。兒童遊戲區色彩繽紛的組合式遊具設施，搭配共融性鞦韆、蹺蹺板，以及柔軟無縫的地墊，讓兒童友在安全的環境中盡情奔跑玩樂，釋放無限活力。另提供各種不同部位的活動的在體健設施設施，可提升年長者「平衡力」、「反應協調能力」及「上、下肢肌力伸展」功能，是休閒運動兼具的舒適環境。,https://www.ntparks.tw/images/views/view-113-27-251/Photo-01.jpg; https://www.ntparks.tw/images/views/view-113-27-251/Photo-02.jpg; https://www.ntparks.tw/images/views/view-113-27-251/Photo-03.jpg; https://www.ntparks.tw/images/views/view-113-27-251/Photo-04.jpg; https://www.ntparks.tw/images/views/view-113-27-251/Photo-05.jpg,新北市共融特色公園,ntpc_park_13002_新民公園
華福公園,新北市中和區,新北市,中和區,24.996933339781947,121.46235987592513,https://www.ntparks.tw/view-113-28-235.html,三塔造型城堡遊具、旋轉滑梯、攀爬網、垂直攀爬板、圓盤爬梯、爬竿、爬籠、鑽管及瞭望平台等,雙人漫步機*1、雙人上肢牽引器*1、不鏽鋼健康腳踏板*1,公園設計以歡樂城堡為主軸，打造以鐵木材質為主要的三塔造型城堡遊具、旋轉滑梯、攀爬網、垂直攀爬板、圓盤爬梯、爬竿、爬籠、鑽管及瞭望平台等，改善符合CNS規範。提供全年齡層居民、孩童有優質的遊戲場及體健設施且有多元化城堡遊具特色公園，更新遊戲場域有效提供民眾更優質良好遊戲空間。搭配童話風格設計，營造出充滿奇幻與冒險的遊樂天地。家長可安心陪伴孩子在這裡探索與遊玩，讓「歡樂城堡」成為親子時光的理想場所！,https://www.ntparks.tw/images/views/view-113-28-235/Photo-01.jpg; https://www.ntparks.tw/images/views/view-113-28-235/Photo-02.jpg; https://www.ntparks.tw/images/views/view-113-28-235/Photo-03.jpg; https://www.ntparks.tw/images/views/view-113-28-235/Photo-04.jpg; https://www.ntparks.tw/images/views/view-113-28-235/Photo-05.jpg,新北市共融特色公園,ntpc_park_13003_華福公園
嘉穗公園,新北市中和區,新北市,中和區,24.99817513973226,121.47759757580683,https://www.ntparks.tw/view-114-01-235.html,兒童遊戲場 (建議6歲至12歲以下使用),肢體協調訓練設施(松鼠林間賽道、雀躍飛行賽道)、造型體健組,近年民眾休閒遊憩行為已更加多元，現公園內既有設施類型顯然已不敷遊憩需求，透過改善工程，重塑地區性主題式公園並結合嘉穗公園的特殊小山地形、地貌，進行公園設施更新，打造別具特色的「城市覓徑」探險遊憩體驗場域，，以「整座山，都是我的健身房」為概念，為都市居民提供一處微登山、放鬆休憩、遊覽賞景的綠色秘密基地。,https://www.ntparks.tw/images/views/view-114-01-235/Photo-01.jpg; https://www.ntparks.tw/images/views/view-114-01-235/Photo-02.jpg; https://www.ntparks.tw/images/views/view-114-01-235/Photo-03.jpg; https://www.ntparks.tw/images/views/view-114-01-235/Photo-04.jpg; https://www.ntparks.tw/images/views/view-114-01-235/Photo-05.jpg,新北市共融特色公園,ntpc_park_13004_嘉穗公園
東明公園,新北市林口區興林路195巷底,新北市,林口區,25.07226398674888,121.3878068758086,https://www.ntparks.tw/view-114-02-244.html,火車主題遊具(建議年齡2~12歲使用),三人轉腰器、雙人漫步器、腹肌板、銀髮共融式體健設施組,本公園於臨近康橋、馬禮遜等學校周邊，為林口第一座擁有銀髮共融式體健設施的公園，保留園區中央大草皮區域使住宅區內有個充滿綠意的休憩空間，並可同時休憩、遊玩使用。於學區內打造銀髮族、孩童同樂的共融式特色公園，營造更為友善的人本都會環境。,https://www.ntparks.tw/images/views/view-114-02-244/Photo-01.jpg; https://www.ntparks.tw/images/views/view-114-02-244/Photo-02.jpg; https://www.ntparks.tw/images/views/view-114-02-244/Photo-03.jpg; https://www.ntparks.tw/images/views/view-114-02-244/Photo-04.jpg; https://www.ntparks.tw/images/views/view-114-02-244/Photo-05.jpg; https://www.ntparks.tw/images/views/view-114-02-244/Photo-06.jpg; https://www.ntparks.tw/images/views/view-114-02-244/Photo-07.jpg; https://www.ntparks.tw/images/views/view-114-02-244/Photo-08.jpg; https://www.ntparks.tw/images/views/view-114-02-244/Photo-09.jpg,新北市共融特色公園,ntpc_park_13005_東明公園
寶徠公園,新北市新店區吉安街24號對面,新北市,新店區,24.97729484057175,121.54210347580637,https://www.ntparks.tw/view-114-03-231.html,管狀滑梯、攀爬設施(適用年齡5-12歲),三人上肢牽引、雙人扭腰、大小轉輪、雙人漫步,寶徠公園以樹屋為主題結合攀爬設施，增加遊戲的豐富度，讓公園具有主題特色。改善遊戲場的同時也一併改善原本圓弧形座椅高度及弧度不符合人體工學休憩座椅。,https://www.ntparks.tw/images/views/view-114-03-231/Photo-01.jpg; https://www.ntparks.tw/images/views/view-114-03-231/Photo-02.jpg; https://www.ntparks.tw/images/views/view-114-03-231/Photo-03.jpg; https://www.ntparks.tw/images/views/view-114-03-231/Photo-04.jpg,新北市共融特色公園,ntpc_park_13006_寶徠公園
交通公園,新北市新店區民族路109號,新北市,新店區,24.976313840611063,121.53607507580635,https://www.ntparks.tw/view-114-04-231.html,管狀滑梯、磨石子滑梯、攀爬設施、鞦韆（適用使用2-12歲）,雙人腹肌板、三人扭腰、三人單槓,利用公園內既有坡地地形設置地景滑梯，再配合以結合車道意向打造遊戲空間，讓交通公園有更豐富遊戲設施，並一併整理公園內老舊設施，高地落差步道等問題，符合無障礙設施環境，打造安全且多元之遊戲空間。,https://www.ntparks.tw/images/views/view-114-04-231/Photo-01.jpg; https://www.ntparks.tw/images/views/view-114-04-231/Photo-02.jpg; https://www.ntparks.tw/images/views/view-114-04-231/Photo-03.jpg; https://www.ntparks.tw/images/views/view-114-04-231/Photo-04.jpg,新北市共融特色公園,ntpc_park_13007_交通公園
林森橋下兒童遊戲場,新北市汐止區,新北市,汐止區,25.041737737979094,121.62171207580793,https://www.ntparks.tw/view-114-05-221.html,"大型攀爬式組合遊具、 綜合鞦韆(組合式鞦韆)、地景土丘
(適合使用5-12歲)","二聯式單槓、雙人滑步機、雙人腹肌板、 雙人大轉輪、三人扭腰器
(適合使用14歲以上)","本案位於國道3號高架橋下，鄰近本市與台北市交界處，範圍涵蓋本區東勢里及宜興里，鄰近僅有區域型的白雲公園，唯為彌補該區域不足及符合在地需求，除增設特色遊戲場外，增加銀髮族使用空間及設施比例，故將本案規劃為較大型之鄰里型公園。
              藉由增設具挑戰性遊具及改善鋪面，營造整體兒童遊憩空間，且對應不同年齡所需的設施分區配置，提供周邊鄰里遊憩及聚會場所。考量橋下空間較為昏暗，新增7盞景觀高燈，主要配置於遊戲區及環場步道，增加夜間活動區域照明。另於場域內增設無障礙坡道，使得輪椅及嬰兒車使用者擁有無障礙之通行空間，營造多元活動休憩區域。",https://www.ntparks.tw/images/views/view-114-05-221/Photo-01.jpg; https://www.ntparks.tw/images/views/view-114-05-221/Photo-02.jpg; https://www.ntparks.tw/images/views/view-114-05-221/Photo-03.jpg; https://www.ntparks.tw/images/views/view-114-05-221/Photo-04.jpg; https://www.ntparks.tw/images/views/view-114-05-221/Photo-05.jpg; https://www.ntparks.tw/images/views/view-114-05-221/Photo-06.jpg; https://www.ntparks.tw/images/views/view-114-05-221/Photo-07.jpg,新北市共融特色公園,ntpc_park_13008_林森橋下兒童遊戲場
新庄自行車公園,三芝區新庄里8-3號旁(三和市民活動中心旁),新北市,三芝區,25.268585528804728,121.49878607581351,https://www.ntparks.tw/view-114-06-252.html,"螺旋滑梯、飛碟爬架、梅花樁
          (適合使用年齡5~12歲)",雙人滑步器、雙人大轉輪、雙人腹肌板、雙人單槓,三芝區「新庄自行車公園西瓜特色遊戲場」西瓜造型特色溜滑梯，為三芝再添一處兒童遊戲場。園區內也設置多元豐富的體健設施及可食地景食農教育場，將原本缺乏兒童遊戲空間成功翻轉為多功能全齡特色公園。新庄自行車公園以特色、共融性及全齡化為目標，打造全新的「西瓜特色遊戲場」，提供在地孩童更富樂趣的遊戲空間。為因應性別平等潮流，園區內設置「性別友善廁所」，使親子休閒公共場域設施更加完善，也讓每位來訪的市民朋友都能安心使用。,https://www.ntparks.tw/images/views/view-114-06-252/Photo-01.jpg; https://www.ntparks.tw/images/views/view-114-06-252/Photo-02.jpg; https://www.ntparks.tw/images/views/view-114-06-252/Photo-03.jpg; https://www.ntparks.tw/images/views/view-114-06-252/Photo-04.jpg; https://www.ntparks.tw/images/views/view-114-06-252/Photo-05.jpg,新北市共融特色公園,ntpc_park_13009_新庄自行車公園
重陽公園,新北市三重區朝陽街77號,新北市,三重區,25.05784693733005,121.48119522580812,https://www.ntparks.tw/view-114-07-241.html,向日葵主題遊具(建議使用年齡2~8歲)、鞦韆組,三人轉腰器、雙人漫步器、高低槓、肩關節康復器、腰背按摩器、雙人鐘擺器、三人上肢牽引器、騎健器,本公園於臨近捷運三重站周邊，為附近社區地方公園，配合重陽公園地下停車場改建，重新規劃遊園式步道、涼亭、體健設施、共融式遊具、大型活動廣場、圓形表演廣場的生態公園，保留原有大型樹木、增加四季景觀喬木、草皮綠化，周邊環繞5公尺寬綠蔭人行道。,https://www.ntparks.tw/images/views/view-114-07-241/Photo-01.jpg; https://www.ntparks.tw/images/views/view-114-07-241/Photo-02.jpg; https://www.ntparks.tw/images/views/view-114-07-241/Photo-03.jpg; https://www.ntparks.tw/images/views/view-114-07-241/Photo-04.jpg,新北市共融特色公園,ntpc_park_13010_重陽公園
雙心公園,台二線與老梅路交叉路口(台二線25.4K處),新北市,石門區,25.288900827979436,121.53913317581402,https://www.ntparks.tw/view-114-08-253.html,,,本公園將石門區傳統捕魚文化「牽罟」與全台最北的「富貴角燈塔」結合，公園內設置「牽罟漁網」及「燈塔人」主視覺意象，一旁還設置愛心打卡意象，傳遞幸福真諦並打造有濃厚在地氣息的特色公園。,https://www.ntparks.tw/images/views/view-114-08-253/Photo-01.jpg; https://www.ntparks.tw/images/views/view-114-08-253/Photo-02.jpg; https://www.ntparks.tw/images/views/view-114-08-253/Photo-03.jpg; https://www.ntparks.tw/images/views/view-114-08-253/Photo-04.jpg,新北市共融特色公園,ntpc_park_13011_雙心公園
板橋435藝文特區,新北市板橋區中正路435號,新北市,板橋區,25.02417413868622,121.44975587580744,https://www.ntparks.tw/view-114-09-220.html,馬卡龍意象攀爬遊戲組、搖滾盤、無障礙三站式遊戲組、豎琴組、彩虹音樂琴、鳥巢鞦韆、坐墊鞦韆、粉筆塗鴉牆、翹翹板、搖搖樂。(建議使用年齡2~12歲),無,板橋435藝文特區營運主軸為「親子藝術樂園」及「藝術家夢想基地」，園區除有藝文團隊及藝術工作者進駐外，更有溼地故事館之生態環境教育、台灣玩具博物館珍藏近三千件珍稀玩具，結合兒童遊戲場提供親子及共融同樂空間，為民眾休憩的理想場域。,https://www.ntparks.tw/images/views/view-114-09-220/Photo-01.jpg; https://www.ntparks.tw/images/views/view-114-09-220/Photo-02.jpg; https://www.ntparks.tw/images/views/view-114-09-220/Photo-03.jpg; https://www.ntparks.tw/images/views/view-114-09-220/Photo-04.jpg,新北市共融特色公園,ntpc_park_13012_板橋435藝文特區
青年公園,新北市新莊區壽山路61號,新北市,新莊區,25.031520788390434,121.40804102580749,https://www.ntparks.tw/view-114-10-242.html,組合遊具(結合滑梯、平衡木、攀爬網)、鳥巢式鞦韆(建議使用年齡6~12歲),吊環、單槓、太空漫步機、上肢牽引器、扭腰器、坐推器,青年公園遊戲場將原傳統地墊改為礫石坑，並結合其自然環境設置新的組合遊具，搭配鳥巢式鞦韆，是提供親子良好互動的場所。,https://www.ntparks.tw/images/views/view-114-10-242/Photo-01.jpg; https://www.ntparks.tw/images/views/view-114-10-242/Photo-02.jpg; https://www.ntparks.tw/images/views/view-114-10-242/Photo-03.jpg; https://www.ntparks.tw/images/views/view-114-10-242/Photo-04.jpg; https://www.ntparks.tw/images/views/view-114-10-242/Photo-05.jpg,新北市共融特色公園,ntpc_park_13013_青年公園
興化公園,新北市新莊區五工三路50巷,新北市,新莊區,25.064952837043567,121.45826567580846,https://www.ntparks.tw/view-114-11-242.html,"1.組合遊具、搖搖馬、蹺蹺板(適合使用年齡2~12歲)
          2.鞦韆(軟式坐墊、平板硬式坐墊、親子座椅、鳥巢式座椅)(適合使用年齡3~12歲)",健騎機、太空漫步器、扭腰器、單槓、上肢牽引器、肩關節康復器,新莊興化公園是一個適合家庭和社區居民使用的休閒場所，雖然規模不大，但功能齊全，是日常放鬆的好去處。公園內兒童遊戲場112年時，增設了鞦韆場域，擁有多樣化的座椅，適合親子同樂。此外，公園還有籃球場可供打籃球，以及各式體健設施，供民眾從事休閒運動使用。,https://www.ntparks.tw/images/views/view-114-11-242/Photo-01.jpg; https://www.ntparks.tw/images/views/view-114-11-242/Photo-02.jpg; https://www.ntparks.tw/images/views/view-114-11-242/Photo-03.jpg; https://www.ntparks.tw/images/views/view-114-11-242/Photo-04.jpg; https://www.ntparks.tw/images/views/view-114-11-242/Photo-05.jpg,新北市共融特色公園,ntpc_park_13014_興化公園
福德公園,新北市八里區商港八路與商港一路口,新北市,八里區,25.131933034340246,121.46222897581022,https://www.ntparks.tw/view-114-12-251.html,鯨魚主題，鯨魚造型溜滑梯(共融式)、鞦韆、搖搖樂、共融式旋轉盤、攀爬設施、翹翹板、潛水夫遊戲板,肩關節康復器、雙人伸腰伸背器、三人扭腰器、上肢牽引器、雙人漫步機,八里商港公園為新北市特色公園，全台第一座鯨魚地景的無障礙公園，結合了體建設施及遊戲場，是個適合闔家遊玩的好去處。,https://www.ntparks.tw/images/views/view-114-12-251/Photo-01.jpg; https://www.ntparks.tw/images/views/view-114-12-251/Photo-02.jpg; https://www.ntparks.tw/images/views/view-114-12-251/Photo-03.jpg,新北市共融特色公園,ntpc_park_14000_福德公園
和平公園,新北市泰山區楓樹街、和平街口,新北市,泰山區,25.064580737058648,121.4325549758084,https://www.ntparks.tw/view-114-13-243.html,組合遊具區(適合使用年齡5-12歲)、共融鞦韆區 (適合使用年齡2-12歲),坐磴推拉器、三人扭腰器、單人划船器、三人單槓、雙人漫步器,和平公園公園周遭多為住宅且鄰近以紫藤花出名的楓樹河濱公園，是市民休憩活動的重要場所。因為一處老舊公園，已無法滿足現今民眾使用需求，藉由重新規劃整理，改善公園內部閒置空間、改善動線、重新配置活動空間，不僅改善公園入口、步道及照明設施另增設共融鞦韆且將體健設施集中設置，打造舒適之都市空間及環境，提供民眾及親子休閒、舒適、之休憩使用環境。,https://www.ntparks.tw/images/views/view-114-13-243/Photo-01-2025.jpg; https://www.ntparks.tw/images/views/view-114-13-243/Photo-02-2025.jpg; https://www.ntparks.tw/images/views/view-114-13-243/Photo-03-2025.jpg; https://www.ntparks.tw/images/views/view-114-13-243/Photo-04-2025.jpg; https://www.ntparks.tw/images/views/view-114-13-243/Photo-05-2025.jpg,新北市共融特色公園,ntpc_park_14001_和平公園
隆林公園,新北市林口區隆林街28號至40號對面/東湖路12巷及56巷內,新北市,林口區,25.07524027937796,121.38312348498516,https://www.ntparks.tw/view-114-14-244.html,蜜蜂主題遊具(建議使用年齡2~12歲),三人轉腰器、雙人漫步器、腹肌板,本公園於臨近康橋學校周邊，坐落住宅區中，設計蜜蜂主題的特色遊具，讓住宅區中也有一番孩童遊玩歡樂的氣氛。,https://www.ntparks.tw/images/views/view-114-14-244/Photo-01.jpg; https://www.ntparks.tw/images/views/view-114-14-244/Photo-02.jpg; https://www.ntparks.tw/images/views/view-114-14-244/Photo-03.jpg; https://www.ntparks.tw/images/views/view-114-14-244/Photo-04.jpg,新北市共融特色公園,ntpc_park_14002_隆林公園
慈祐公園,新北市三重區仁愛街425巷9-1號,新北市,三重區,25.081531036375107,121.48867707580887,https://www.ntparks.tw/view-114-15-241.html,爬網、滑梯、鞦韆、搖搖樂(建議使用年齡2~12歲),腹肌版、上肢牽引器、漫步機、雙人浪板、雙人大轉輪、肩關節康復器、三人扭腰器及滾背器,本公園於臨近碧華國小，為標準的鄰里公園，園內有兒童遊具、體健設施、涼亭、活動中心等。,https://www.ntparks.tw/images/views/view-114-15-241/Photo-01.jpg; https://www.ntparks.tw/images/views/view-114-15-241/Photo-02.jpg; https://www.ntparks.tw/images/views/view-114-15-241/Photo-03.jpg,新北市共融特色公園,ntpc_park_14003_慈祐公園
永寧廣場,新北市土城區永寧路18號對面,新北市,土城區,24.962276641175148,121.42784047580608,https://www.ntparks.tw/view-114-16-236.html,鍬形蟲攀爬架(2-12歲)、彩繪平衡管(5-12歲),翻牆躍下、泰山懸盪、搖擺跳躍高底桿、大轉輪,永寧廣場鄰近土城國中、土城保安宮，設有鍬形蟲造型攀爬架。,https://www.ntparks.tw/images/views/view-114-16-236/Photo-01-2025.jpg; https://www.ntparks.tw/images/views/view-114-16-236/Photo-02-2025.jpg; https://www.ntparks.tw/images/views/view-114-16-236/Photo-03-2025.jpg,新北市共融特色公園,ntpc_park_14004_永寧廣場
望月公園,新北市板橋區環河西路四段與新海路交叉口 (新海大橋旁),新北市,板橋區,25.029481538472627,121.45534237580758,https://www.ntparks.tw/view-114-17-220.html,河底隧道彩繪磨石子溜滑梯及多人坐翹翹板(建議使用年齡4~12歲),多功能磨石子溜滑、翹翹板、體健設施、齒輪轉轉盤、攀岩板等設施組,本公園面積廣闊，公園現況內多設置人行步道、綠樹植栽及少許體健設施，設置兒童遊樂場設施，提供周邊居民親子玩樂休憩空間。,https://www.ntparks.tw/images/views/view-114-17-220/Photo-01.jpg; https://www.ntparks.tw/images/views/view-114-17-220/Photo-02.jpg; https://www.ntparks.tw/images/views/view-114-17-220/Photo-03.jpg; https://www.ntparks.tw/images/views/view-114-17-220/Photo-04.jpg,新北市共融特色公園,ntpc_park_14005_望月公園
重慶公園-第二期,新北市板橋區重慶路245巷32弄18,新北市,板橋區,24.999981939659627,121.46191217580697,https://www.ntparks.tw/view-114-18-220.html,抹香鯨主題遊戲場，3.5M筒狀滑梯、擺盪大索(建議使用年齡4~12歲),溜滑梯、擺盪大索、齒輪轉轉盤、盪鞦韆等設施組,公園內部部分環境既有體健設施、綠樹植栽、公園已使用多年，部分設施已不符合年長者與兒童使用需求，為提供市民舒適的公園環境，希望經由通用設計配合公園整體景觀進行主題性特色遊戲場興建及對周邊設施改善，作為良好休閒綠地環境。,https://www.ntparks.tw/images/views/view-114-18-220/Photo-01.jpg; https://www.ntparks.tw/images/views/view-114-18-220/Photo-02.jpg; https://www.ntparks.tw/images/views/view-114-18-220/Photo-03.jpg; https://www.ntparks.tw/images/views/view-114-18-220/Photo-04.jpg; https://www.ntparks.tw/images/views/view-114-18-220/Photo-05.jpg; https://www.ntparks.tw/images/views/view-114-18-220/Photo-06.jpg; https://www.ntparks.tw/images/views/view-114-18-220/Photo-07.jpg,新北市共融特色公園,ntpc_park_14006_重慶公園-第二期
沙崙里美樂地,新北市淡水區,新北市,淡水區,25.18452653221264,121.42023819223466,https://www.ntparks.tw/view-114-19-251.html,瓢蟲意象組合遊具(包含溜滑梯及攀爬設備)、盪鞦韆、4人翹翹板 (適合使用年齡3-12歲),無,淡海路182巷口一側為沙崙里綠家園，另一側為沙崙里美樂地，於112年時針對沙崙里綠家園辦理改善，增加體健設施、花架及里內意象，現今已為社區居民聯繫情感的熱門據點，然而一巷之隔的沙崙里美樂地僅為單純草皮，在地里民總覺得可以增加一些遊戲設施。此次工程新增多項遊樂設施，包括深受小朋友喜愛的瓢蟲遊具組合、四人翹翹板與共融鞦韆，並鋪設無縫地墊，強化遊戲安全性。此外，還設置了遮陽帆布與LED照明燈具，大幅提升使用舒適度與夜間安全。 除了遊具升級，整體空間也同步優化，步道更新、仿木座椅新設，讓家長們可以在一旁安心陪伴與休憩，整體設計兼顧孩童遊玩與家長陪伴的需求。,https://www.ntparks.tw/images/views/view-114-19-251/Photo-01.jpg; https://www.ntparks.tw/images/views/view-114-19-251/Photo-02.jpg; https://www.ntparks.tw/images/views/view-114-19-251/Photo-03.jpg; https://www.ntparks.tw/images/views/view-114-19-251/Photo-04.jpg; https://www.ntparks.tw/images/views/view-114-19-251/Photo-05.jpg,新北市共融特色公園,ntpc_park_14007_沙崙里美樂地
公3公園,新北市鶯歌區,新北市,鶯歌區,24.952814041554614,121.34577177604886,https://www.ntparks.tw/view-114-20-239.html,共融溜滑梯、蹺蹺板、旋轉盤(適合使用年齡5-12歲),大轉輪、懸空轉輪、雙人晃板,新北市捷運三鶯線預計於114年底開放試營運，不僅為當地居民提供更加便捷的交通，同時優化周邊環境。位於三鶯線LB09陶瓷老街站的公三公園以捷運站為意象，並保留大片草地，為民眾增添休憩空間。,https://www.ntparks.tw/images/views/view-114-20-239/Photo-01.jpg; https://www.ntparks.tw/images/views/view-114-20-239/Photo-02.jpg; https://www.ntparks.tw/images/views/view-114-20-239/Photo-03.jpg; https://www.ntparks.tw/images/views/view-114-20-239/Photo-04.jpg; https://www.ntparks.tw/images/views/view-114-20-239/Photo-05.jpg,新北市共融特色公園,ntpc_park_14008_公3公園
學成公園,新北市土城區學成路76號,新北市,土城區,24.987972740141974,121.44862487604959,https://www.ntparks.tw/view-114-21-236.html,互動型透明可穿透式溜滑梯2組，低矮滑梯1組(建議使用年齡3~5歲)及高階滑梯1組(建議使用年齡6~12歲),滑梯2組、搖搖樂4組、多人坐翹翹板1組等體健設施7組,公園內僅有現有步道，公園鄰近海山捷運站，為廣福國小周邊居民休憩場所。,https://www.ntparks.tw/images/views/view-114-21-236/Photo-01.jpg; https://www.ntparks.tw/images/views/view-114-21-236/Photo-02.jpg; https://www.ntparks.tw/images/views/view-114-21-236/Photo-03.jpg; https://www.ntparks.tw/images/views/view-114-21-236/Photo-04.jpg; https://www.ntparks.tw/images/views/view-114-21-236/Photo-05.jpg,新北市共融特色公園,ntpc_park_14009_學成公園
清水社區公園,新北市土城區清水路與延吉街交叉口(清水國小第4校門口斜對面),新北市,土城區,24.983244740332335,121.46017532594007,https://www.ntparks.tw/view-114-22-236.html,飛機塔臺滑梯1組(建議使用年齡2~12歲)、攀爬天梯1組(建議使用年齡5~12歲)、極限飛輪大轉盤(建議使用年齡5~12歲)。,高低桿1組、雙人慢步機1組、3人扭腰器1組及肩關節康復器等體健設施4組(建議使用年齡14歲以上)。,本公園週邊人口密集度高，兒童遊具等各項設施老舊，以及步道舖面寬度不足影響舒適安全性等問題，本次公園營造共融遊戲場及休憩設施，以提供市民休閒舒適及安全之休憩環境。,https://www.ntparks.tw/images/views/view-114-22-236/Photo-01.jpg?v=0711-1; https://www.ntparks.tw/images/views/view-114-22-236/Photo-02.jpg?v=0711-1; https://www.ntparks.tw/images/views/view-114-22-236/Photo-03.jpg?v=0711-1; https://www.ntparks.tw/images/views/view-114-22-236/Photo-04.jpg?v=0711-1; https://www.ntparks.tw/images/views/view-114-22-236/Photo-05.jpg?v=0711-1,新北市共融特色公園,ntpc_park_14010_清水社區公園
新民公園,新北市淡水區新市二路一段底(與濱海路三段交接處),新北市,淡水區,25.19780843167468,121.41863297605423,https://www.ntparks.tw/view-114-23-251.html,五人制足球場(不限年齡),五人制足球場,新設五人制足球場，並設置步道、小型犬寵物放跑區、大型犬寵物放跑區及座椅、洗手台等附屬設施，推動淡水地區足球運動紮根、提供飼主與毛寶貝休憩空間。,https://www.ntparks.tw/images/views/view-114-23-251/Photo-01.jpg; https://www.ntparks.tw/images/views/view-114-23-251/Photo-02.jpg; https://www.ntparks.tw/images/views/view-114-23-251/Photo-03.jpg,新北市共融特色公園,ntpc_park_14011_新民公園
頂寮公園,新北市頂社路49之7號旁,新北市,萬里區,25.211223011962534,121.65430786962295,https://www.ntparks.tw/view-114-24-207.html,溜滑梯、鳥巢式鞦韆(建議使用年齡2~12歲),三人轉腰器、上肢體運動設備(手臂舉高),頂寮公園位於大鵬國小周邊，設施友善，是男女老幼皆宜的休憩好去處。園內整面牆的「牽罟」馬賽克拼貼，呈現眾人齊心協力拉網上岸的情景，再現北海岸傳統捕魚文化的風華。,https://www.ntparks.tw/images/views/view-114-24-207/Photo-01.jpg; https://www.ntparks.tw/images/views/view-114-24-207/Photo-02.jpg; https://www.ntparks.tw/images/views/view-114-24-207/Photo-03.jpg; https://www.ntparks.tw/images/views/view-114-24-207/Photo-04.jpg,新北市共融特色公園,ntpc_park_14012_頂寮公園
彭興親子公園,新北市樹林區環漢路5段與東豐街口,新北市,樹林區,24.976430090514395,121.41798641127362,https://www.ntparks.tw/view-114-25-238.html,花型轉椅、鞦韆(建議使用年齡2~12歲)、攀爬遊具(建議使用年齡5~12歲),三人轉腰器、雙人關節康復器、雙人漫步機、單槓,以早期農村意象為主題，公園設計運用農田及紅磚等元素，穀倉造型的主體遊具，象徵農業社會的風光景象，為適合親子同遊的特色共融遊戲場。,https://www.ntparks.tw/images/views/view-114-25-238/Photo-01.jpg; https://www.ntparks.tw/images/views/view-114-25-238/Photo-02.jpg; https://www.ntparks.tw/images/views/view-114-25-238/Photo-03.jpg; https://www.ntparks.tw/images/views/view-114-25-238/Photo-04.jpg; https://www.ntparks.tw/images/views/view-114-25-238/Photo-05.jpg,新北市共融特色公園,ntpc_park_14013_彭興親子公園
憲訓公園,新北市泰山區,新北市,泰山區,25.06348343701042,121.42697831127592,https://www.ntparks.tw/view-114-26-243.html,鳥巢盪鞦韆、礫石坑、攀爬遊戲牆、創意塗鴉牆,輪椅使用者體健設施,公園整合運動、遊戲、景觀與休憩等多元功能，園區設有樂齡體健設施區、兒童遊戲區及林蔭休閒步道，滿足各年齡層居民的使用需求。特別的是，園內導入共融式體健設施，讓身障朋友也能安心參與運動，體驗健康生活。兒童遊戲區設計活潑豐富，包含攀爬遊戲牆、礫石坑、創意塗鴉牆，以及廣受小朋友喜愛的鳥巢鞦韆，鼓勵孩子在遊戲中挑戰自我、鍛鍊體能與協調能力。園區規劃同時兼顧環境永續與防災機能，導入透水鋪面與保水設施，有效提升滯洪能力；休閒步道兩側亦栽植綠化植栽，兼具美觀與調節微氣候之效，進一步優化整體環境品質。,https://www.ntparks.tw/images/views/view-114-26-243/Photo-01.jpg; https://www.ntparks.tw/images/views/view-114-26-243/Photo-02.jpg; https://www.ntparks.tw/images/views/view-114-26-243/Photo-03.jpg; https://www.ntparks.tw/images/views/view-114-26-243/Photo-04.jpg,新北市共融特色公園,ntpc_park_14014_憲訓公園
中環公園,新北市新莊區中環路3段與幸福路口,新北市,新莊區,25.048354937712293,121.43896377592634,https://www.ntparks.tw/view-114-27-242.html,小小職人工廠溜滑梯、買賣櫃台、哈哈鏡、賽車遊戲板、多人及無障礙翹翹板、齒輪遊戲板、卡車遊具組、輪椅轉盤遊具,三人扭腰器、大轉輪、上肢牽引器、漫步器,公園整合運動、遊戲、景觀與休憩等多元功能，園區設有樂齡體健設施區、兒童遊戲區及林蔭休閒步道，滿足各年齡層居民的使用需求。 特別的是，除了體健設施外，兒童遊戲區設計活潑豐富也導入共融式遊具，以小小職人工廠為主題意象，規劃一系列遊具，包含多人及無障礙翹翹板、齒輪遊戲板及小小職人工廠溜滑梯等，鼓勵孩子在遊戲中挑戰自我、鍛鍊體能與協調能力，也讓所有民眾安心參與運動，體驗健康生活。 園區規劃同時兼顧環境永續與防災機能，導入透水鋪面與保水設施，有效提升滯洪能力；休閒步道兩側亦栽植綠化植栽，兼具美觀與調節微氣候之效，進一步優化整體環境品質。,https://www.ntparks.tw/images/views/view-114-27-242/Photo-01.jpg; https://www.ntparks.tw/images/views/view-114-27-242/Photo-02.jpg; https://www.ntparks.tw/images/views/view-114-27-242/Photo-03.jpg,新北市共融特色公園,ntpc_park_15000_中環公園
四腳亭兒童遊戲場,新北市瑞芳區瑞慶橋下基隆河左岸,新北市,瑞芳區,25.09977443554707,121.7582945110064,https://www.ntparks.tw/view-114-28-224.html,站立式翹翹板、親子共乘盪鞦韆,無,四腳亭兒童遊戲場位於瑞慶橋下的基隆河左岸，鄰近吉慶國小。公園設計利用水管營造昔日粗坑口煤窯及四腳亭砲台的意象，結合原有草地打造地景草丘，還有極具特色的站立式翹翹板、親子共乘盪鞦韆，等你來體驗。,https://www.ntparks.tw/images/views/view-114-28-224/Photo-01.jpg; https://www.ntparks.tw/images/views/view-114-28-224/Photo-02.jpg; https://www.ntparks.tw/images/views/view-114-28-224/Photo-03.jpg,新北市共融特色公園,ntpc_park_15001_四腳亭兒童遊戲場
秀山公園,新北市中和區秀朗路10巷37,新北市,中和區,24.99582883973501,121.52093471100356,https://www.ntparks.tw/view-114-29-235.html,多功能造型組合遊具組(含溜滑梯)、造型翹翹板、造型搖搖樂、鳥巢鞦韆、平板鞦韆(建議使用年齡2~12歲),大轉輪、單槓、平衡桿、肌肉伸展,秀山公園為秀安地區為數不多的綠地公園，四周住宅 區及學校環繞，不僅深受附近居民喜愛，也是孩童下課後必去的遊憩場所。,https://www.ntparks.tw/images/views/view-114-29-235/Photo-01.jpg; https://www.ntparks.tw/images/views/view-114-29-235/Photo-02.jpg,新北市共融特色公園,ntpc_park_15002_秀山公園
原民公園,新北市新店區安忠路57巷口,新北市,新店區,24.95963861301224,121.51311906228335,https://www.ntparks.tw/view-114-30-231.html,貓頭鷹管狀滑梯 (適合使用年齡5-12歲),單槓,園區周邊為密集住宅社區，毗鄰近學校，是里民日常散步最佳活動空間。依園區特殊地形設計，以「貓頭鷹」為主題，長長的滑梯結合坡地，打造獨特的遊戲場；園內木棧道通行平整改善，大大提升步行安全與舒適度；綠蔭環境，創造舒適宜人的休憩氛圍。完善基礎設施，具有人本環境的城市森林公園，親近享受難得的綠意寶地。,https://www.ntparks.tw/images/views/view-114-30-231/Photo-01.jpg; https://www.ntparks.tw/images/views/view-114-30-231/Photo-02.jpg; https://www.ntparks.tw/images/views/view-114-30-231/Photo-03.jpg; https://www.ntparks.tw/images/views/view-114-30-231/Photo-04.jpg; https://www.ntparks.tw/images/views/view-114-30-231/Photo-05.jpg; https://www.ntparks.tw/images/views/view-114-30-231/Photo-06.jpg; https://www.ntparks.tw/images/views/view-114-30-231/Photo-07.jpg,新北市共融特色公園,ntpc_park_15003_原民公園
新店公14公園,新北市新店區,新北市,新店區,24.979011955459676,121.52431354665383,https://www.ntparks.tw/view-114-31-231.html,盪鞦韆 (適合使用年齡5-12歲),年長者體健設施、健身架、雙人肩關節康復器、雙人漫步器、划船器、身腰伸背器、三人轉腰器、單槓踏板,"公14公園坐落於中山里， 面積約為3,500平方公尺，公園內設施與使用需求已不符合，且設施老舊，因此，改善老舊公園設施及環境達到符合時宜以符合民眾休憩需求，使新北市成為一個更和諧友善的城市。",https://www.ntparks.tw/images/views/view-114-31-231/Photo-01.jpg; https://www.ntparks.tw/images/views/view-114-31-231/Photo-02.jpg; https://www.ntparks.tw/images/views/view-114-31-231/Photo-03.jpg; https://www.ntparks.tw/images/views/view-114-31-231/Photo-04.jpg; https://www.ntparks.tw/images/views/view-114-31-231/Photo-05.jpg; https://www.ntparks.tw/images/views/view-114-31-231/Photo-06.jpg; https://www.ntparks.tw/images/views/view-114-31-231/Photo-07.jpg,新北市共融特色公園,ntpc_park_15004_新店公14公園
東勢公園,新北市汐止區,新北市,汐止區,25.040248838487933,121.62434290718326,https://www.ntparks.tw/view-114-32-221.html,攀爬架，鞦韆，搖搖馬,單槓,"位於新北市汐止區東勢里的東勢公園，面積約1,893平方公尺，由汐止區公所管理。園區綠意盎然，結合多樣植栽、草坪與步道，提供市民一處舒適宜人的休憩空間。公園內設有涼亭、體健設施與兒童遊戲區，近期更進行環境優化，新增「蜻蜓造型攀爬網」等特色遊具，並鋪設安全地墊，兼顧趣味與安全。改造後的東勢公園不僅提升遊憩品質，也成為親子共遊、鄰里交流及生態教育的優質場域，展現社區綠美化與景觀營造的成果，營造健康、友善的城市綠地環境。",https://www.ntparks.tw/images/views/view-114-32-221/Photo-01.jpg; https://www.ntparks.tw/images/views/view-114-32-221/Photo-02.jpg; https://www.ntparks.tw/images/views/view-114-32-221/Photo-03.jpg; https://www.ntparks.tw/images/views/view-114-32-221/Photo-04.jpg; https://www.ntparks.tw/images/views/view-114-32-221/Photo-05.jpg,新北市共融特色公園,ntpc_park_15005_東勢公園
南山公園,新北市八里區賢三街及賢二街交叉口,新北市,八里區,24.95113119886985,121.1424575421947,https://www.ntparks.tw/view-114-33-249.html,蹺蹺板、鞦韆(建議使用年齡5~12歲),漫步器、手臂轉輪,南山公園兒童遊戲場有蹺蹺板及鞦韆，附近有體健設施是休憩好去處。,https://www.ntparks.tw/images/views/view-114-33-249/Photo-01.jpg; https://www.ntparks.tw/images/views/view-114-33-249/Photo-02.jpg; https://www.ntparks.tw/images/views/view-114-33-249/Photo-03.jpg; https://www.ntparks.tw/images/views/view-114-33-249/Photo-04.jpg,新北市共融特色公園,ntpc_park_15006_南山公園
正義公園,新北市蘆洲區,新北市,蘆洲區,25.083741436285766,121.45763967592724,https://www.ntparks.tw/view-114-34-247.html,組合遊具(高、低滑梯、爬桿)、一般鞦韆、鳥巢鞦韆、搖搖馬,肩關節康復器、漫步機、滑雪器、扭腰器、上肢牽引器、腹肌板、壓腿器、引體訓練器,"位於蘆洲慈惠堂後方，緊鄰住宅區的蘆洲區正義公園，最近已煥然一新，成為社區孩子們的熱門新去處。這個小巧精緻的鄰里公園，在今年8月底完成整修後，不僅將地面高程統一，提供更平坦安全的遊戲空間，更帶來了多樣化的嶄新遊具。
              遊戲場內設置了小朋友最愛的溜滑梯組，其中包含有趣的毛毛蟲主題溜滑梯，鮮豔的色彩和可愛的造型，讓孩子們迫不及待地想要爬上去一探究竟。此外，還有能激發冒險精神的攀岩牆，以及提供親子互動的鳥巢式鞦韆共融遊具，讓不同年齡層的孩子都能在這裡找到屬於自己的樂趣。 
              公園周邊設有長椅，家長們可以安心地坐在旁邊看顧孩子，享受悠閒的親子時光。從溜滑梯、鞦韆到地上的跳房子彩繪，正義公園充滿了童趣與活力，是蘆洲家庭週末放電、日常休憩的最佳選擇。快帶著孩子們一起來這裡，創造屬於你們的歡樂回憶吧！",https://www.ntparks.tw/images/views/view-114-34-247/Photo-01.jpg; https://www.ntparks.tw/images/views/view-114-34-247/Photo-02.jpg; https://www.ntparks.tw/images/views/view-114-34-247/Photo-03.jpg,新北市共融特色公園,ntpc_park_15007_正義公園
鎮前親子公園,新北市樹林區,新北市,樹林區,24.98197424038336,121.41008047592486,https://www.ntparks.tw/view-114-35-238.html,磨石子溜滑梯、管狀滑梯、遊戲板、攀爬網、鑽籠、翹翹板、搖搖馬、彈跳床、共融式盪鞦韆(適合使用年齡5-12歲),腹肌板、雙人漫步機、雙人扭腰機、三階單槓、大轉輪、腰背按摩器,本公園位於樹林區東陽里，鎮前街與東陽街口，屬鄰里公園，服務對象主要為周遭鄰里;公園內設有東陽活動中心，常態性舉辦社區里民活動及課程，是附近銀髮族重要的交誼場所，公園亦設有遊戲場及體健區，為親子共遊及休憩的好地方。 本公園以 「煤礦文化」 為設計主題，以在地歷史轉化為遊戲場與公共空間的設計語彙。規劃特色遊戲場，融入煤礦元素，讓孩童在遊戲中認識地方故事，增設體健設施，供全年齡層使用。並提供多功能休憩及活動空間，兼顧居民運動、休閒及親子共融需求。設計不僅改善既有老舊舖面及設施，更讓居民在日常生活中感受煤礦文化的歷史脈絡，打造寓教於樂的社區公園。,https://www.ntparks.tw/images/views/view-114-35-238/Photo-01.jpg; https://www.ntparks.tw/images/views/view-114-35-238/Photo-02.jpg; https://www.ntparks.tw/images/views/view-114-35-238/Photo-03.jpg; https://www.ntparks.tw/images/views/view-114-35-238/Photo-04.jpg; https://www.ntparks.tw/images/views/view-114-35-238/Photo-05.jpg; https://www.ntparks.tw/images/views/view-114-35-238/Photo-06.jpg; https://www.ntparks.tw/images/views/view-114-35-238/Photo-07.jpg; https://www.ntparks.tw/images/views/view-114-35-238/Photo-08.jpg; https://www.ntparks.tw/images/views/view-114-35-238/Photo-09.jpg; https://www.ntparks.tw/images/views/view-114-35-238/Photo-10.jpg,新北市共融特色公園,ntpc_park_15008_鎮前親子公園
五權公園,板橋區廣權路130號(五權公園市民活動中心旁),新北市,板橋區,24.99278263994903,121.46270287592498,https://www.ntparks.tw/view-114-36-220.html,森林木屋組合遊具、四人座翹翹板、滾珠搖滾盤(建議使用年齡2~12歲),漫步機,五權公園遊戲場改善工程擴大既有遊戲場空間，設計上融入地景概念，選用森林木屋風格遊具更貼近自然。地墊設計則採用黃、藍鮮豔對比棋盤格設計，打造遊戲場在視覺上既融合自然綠蔭又增添幾分奇幻童趣效果。硬體設施上，森林木屋遊具最為吸睛，內部構造有高塔、鑽籠等設計，增添孩子躲藏趣味性；滑梯跟攀岩板則能滿足不同年紀孩童活動需求及挑戰。此外，四人坐的翹翹板以及滾珠搖滾盤提供多位孩童同時互動的遊戲體驗，鼓勵合作與共享，增進社交發展。,https://www.ntparks.tw/images/views/view-114-36-220/Photo-01.jpg; https://www.ntparks.tw/images/views/view-114-36-220/Photo-02.jpg; https://www.ntparks.tw/images/views/view-114-36-220/Photo-03.jpg; https://www.ntparks.tw/images/views/view-114-36-220/Photo-04.jpg; https://www.ntparks.tw/images/views/view-114-36-220/Photo-05.jpg; https://www.ntparks.tw/images/views/view-114-36-220/Photo-06.jpg; https://www.ntparks.tw/images/views/view-114-36-220/Photo-07.jpg; https://www.ntparks.tw/images/views/view-114-36-220/Photo-08.jpg; https://www.ntparks.tw/images/views/view-114-36-220/Photo-09.jpg; https://www.ntparks.tw/images/views/view-114-36-220/Photo-10.jpg,新北市共融特色公園,ntpc_park_15009_五權公園
大漢橋下遊戲場,新北市板橋區,新北市,板橋區,25.032582238347572,121.46053227592601,https://www.ntparks.tw/view-114-37-220.html,鳥巢鞦韆、翹翹板、管狀滑梯、搖搖馬、攀爬遊戲組區、坐式搖晃設備 (適合使用年齡5-12歲),高低單槓組、單人漫步機、單人健騎機、雙人肩關節康復器,"板橋大漢橋下遊戲場位於新北市交通便利的大漢橋橋下空間，鄰近河濱自行車道與多條主要道路，周邊為新板特區與住宅社區交界，來往人潮密集，生活機能良好。橋下空間的遮蔽特性，能有效避開烈日與雨天影響，是市區內少見可全天候使用的親子友善遊戲場。
              為以兒童遊戲、體能發展與社區休憩為主的多功能場域。設備包含多款彩色滑梯、攀爬架及平衡設施等，適合不同年齡層孩童挑戰與探索，並使用防滑與減震地墊以提高安全性。
              整體設計充分運用橋下空間，為都市中的孩子與家庭創造一處結合遊戲與社交、放鬆與活動的多元空間。",https://www.ntparks.tw/images/views/view-114-37-220/Photo-01.jpg; https://www.ntparks.tw/images/views/view-114-37-220/Photo-02.jpg; https://www.ntparks.tw/images/views/view-114-37-220/Photo-03.jpg; https://www.ntparks.tw/images/views/view-114-37-220/Photo-04.jpg; https://www.ntparks.tw/images/views/view-114-37-220/Photo-05.jpg,新北市共融特色公園,ntpc_park_15010_大漢橋下遊戲場
快樂公園(公5公園),新北市新莊區,新北市,新莊區,25.030001338451463,121.44098547592591,https://www.ntparks.tw/view-114-38-242.html,「蜂巢遊戲塔」設計垂直活動路徑，採用多面體抽象方式詮釋蜂巢內空間，運用分層空間、多樣遊戲路徑，讓孩童盡情探索及挑戰 ；沙坑區還有西瓜轉盤與益智遊戲牆， 學齡期及大齡兒童(6-12歲及以上),多功能體健組、雙人座推器、手腳訓練器、平衡踏板及手眼協調訓練器、雙人大轉輪、助行坡道及關節康復器。,"位於新莊瓊泰路旁、豐年國小和豐年市場附近。這次擴建重新規劃，把原本的菜園和雜樹林翻轉成 6,481 平方公尺的全齡友善公園。園區規劃迎賓入口、共樂地景沙坑區、蜂巢主題遊戲區、健康樂活區及快樂共享廣場等五大主題。最受注目的「蜂巢遊戲塔」以蜜蜂飛行路徑為設計概念，結合攀爬與滑梯，提升孩童探索與體能挑戰；沙坑區則設有益智遊戲牆與西瓜轉盤，促進感官與社交發展。健康樂活區配置共融體健器材，長者與身障者皆可安心使用；寬敞共享廣場則適合社區活動與親子互動。公園公廁屋頂設置太陽能板，導入綠能示範區，提供區域照明，公廁分為男廁、女廁及無障礙廁所。全園導入雨水回收、節能照明等永續設計，環境更舒適也更環保。",https://www.ntparks.tw/images/views/view-114-38-242/Photo-01.jpg; https://www.ntparks.tw/images/views/view-114-38-242/Photo-02.jpg; https://www.ntparks.tw/images/views/view-114-38-242/Photo-03.jpg; https://www.ntparks.tw/images/views/view-114-38-242/Photo-04.jpg; https://www.ntparks.tw/images/views/view-114-38-242/Photo-05.jpg,新北市共融特色公園,ntpc_park_15011_快樂公園(公5公園)